"guid";"company_name";"entity_type";"std";"phone";"street";"city";"region";"country";"email"
"37752546-D2DE-BF82-2002-B7D82C9DA506";"DUI LECTUS RUTRUM";"INDUSTRIES";"INC";"(869) 511-7697";"8823 Enim Avenue";"Gulfport";"MS";"Uganda";"sem.ut.dolor@urna.co.uk"
"FD733780-24DB-15A6-770B-4C8BD2C6DF38";"ODIO A";"INDUSTRIES";"INC";"814-5662";"P.O. Box 732, 6812 Lorem, St.";"Kilsyth";"Stirlingshire";"Montserrat";"rhoncus@eudui.edu"
"DA33BDFC-3708-8E90-571F-EC49D41FF798";"MAURIS ELIT";"CONSULTING";"";"604-3268";"P.O. Box 679, 2729 Rutrum Av.";"Columbia";"Missouri";"Svalbard and Jan Mayen Islands";"enim@veliteu.co.uk"
"EC06791A-2B56-75CF-79D5-D426BAE37BA0";"LIBERO NEC";"LIMITED";"LLC";"1-760-978-7443";"Ap #129-1500 Risus. Avenue";"Hamburg";"Hamburg";"Dominican Republic";"malesuada@lacusQuisquepurus.net"
"1ED305F1-945E-373C-26D4-1BB250455C70";"ANTE DICTUM";"INCORPORATED";"INC";"635-9460";"P.O. Box 172, 2160 Imperdiet Road";"Vienna";"Vienna";"Syria";"neque.Sed@egetlaoreet.org"
"CBF2B69C-EE5F-0924-6F86-D9ED417DD567";"SUSPENDISSE SED DOLOR";"CONSULTING";"";"502-7386";"Ap #443-388 Etiam Av.";"Mombaruzzo";"PIE";"Guyana";"et.lacinia@purus.org"
"AD5958FF-1FF8-363B-E86A-0AD6D1B07FD5";"ULTRICIES ORNARE";"ASSOCIATES";"";"1-646-355-2374";"Ap #833-2918 Ridiculus Road";"Vienna";"Vienna";"Macao";"Ut.tincidunt.vehicula@ac.com"
"3B0F7746-A112-6F8A-E9D7-D7822FE195A1";"CUM SOCIIS NATOQUE";"PC";"";"749-9592";"P.O. Box 150, 6928 Nulla. Rd.";"Drancy";"Île-de-France";"Italy";"Nullam@odio.org"
"12369A5C-6004-37B9-7D64-5D5256547DDD";"TEMPUS RISUS DONEC";"COMPANY";"CO";"1-303-796-4455";"P.O. Box 964, 172 Urna. Rd.";"Kearney";"NE";"Tajikistan";"et.lacinia@nonummy.edu"
"27A40736-9B53-20ED-BD15-093494A570BE";"A";"LLC";"LLC";"613-6040";"579-1299 Morbi Ave";"Angoulême";"Poitou-Charentes";"Cocos (Keeling) Islands";"Maecenas@iaculis.com"
"64EE9717-9959-28EA-B4F4-B465D95959F5";"LEO";"CONSULTING";"";"972-1168";"3265 Augue, Ave";"Niort";"PO";"Cyprus";"mollis.non@eudoloregestas.net"
"C96DA6B1-6DF9-2962-CFC5-C40A846BE711";"DIAM SED";"LIMITED";"LLC";"1-872-474-7799";"5083 Accumsan Avenue";"Dublin";"L";"Monaco";"lobortis.nisi.nibh@sit.com"
"B62B9BF9-DFE4-F49D-FB87-8F7F31C3FE10";"DICTUM SAPIEN AENEAN";"LLC";"LLC";"775-7709";"Ap #705-6839 Vulputate St.";"Gaasbeek";"Vlaams-Brabant";"Faroe Islands";"a.mi.fringilla@fringillaornareplacerat.org"
"1DED693E-E026-360E-2335-476DCCA4FB96";"ORCI";"CORPORATION";"CO";"1-532-479-8709";"P.O. Box 782, 6654 Quisque Ave";"Guwahati";"AS";"Comoros";"morbi.tristique@risusDonec.co.uk"
"2FCFAEF5-AEF2-EDC9-99F0-86D8964F01AD";"DOLOR FUSCE";"LLP";"LLC";"(642) 177-9965";"670-6949 Ut Ave";"Ribeirão Preto";"SP";"Åland Islands";"natoque.penatibus@vestibulumneceuismod.org"
"2F25B23E-D03F-BD15-F125-AA6AABA2F4A6";"SUSPENDISSE NON LEO";"INSTITUTE";"INC";"398-7319";"Ap #345-1032 Neque Ave";"Chesterfield";"DB";"Zambia";"neque.sed@posuerecubilia.co.uk"
"58A657D7-2F9C-4DCB-E21A-D3D51E591002";"ACCUMSAN LAOREET";"INSTITUTE";"INC";"1-312-747-9187";"770-8912 Dictum Avenue";"Saint-Marc";"Namen";"Bangladesh";"molestie.dapibus@Nuncsollicitudincommodo.com"
"1297028F-C070-B4B1-1392-56559B9CC030";"UT ODIO VEL";"PC";"";"645-9430";"Ap #758-771 Placerat Av.";"Mielec";"Podkarpackie";"Korea, North";"ipsum@quamdignissim.net"
"B786BF3A-FA5F-F0DA-574C-38B1C711115A";"ID";"FOUNDATION";"";"697-5114";"852-1025 Ultricies Road";"Labro";"Lazio";"Brunei";"dis@Curae.com"
"3B037511-6B7B-16C4-0CEC-3F47F1511C01";"NIBH DONEC EST";"CONSULTING";"";"1-905-542-7694";"4581 Sagittis Rd.";"Berlin";"Berlin";"Micronesia";"egestas.blandit@tinciduntnuncac.co.uk"
"9F1E2B13-18B0-C9FD-93F0-BFD460349E7F";"DONEC";"LLC";"LLC";"602-1123";"Ap #761-2966 A Rd.";"Lagos";"LA";"Namibia";"Nunc.commodo.auctor@felis.ca"
"7F5A1159-3AA9-78D3-604F-F586DAEAB9A1";"MAURIS";"FOUNDATION";"";"1-356-454-5081";"P.O. Box 411, 4810 A Rd.";"Aguacaliente (San Francisco)";"C";"Denmark";"eros@montesnasceturridiculus.net"
"B05D20A8-D081-F3AD-A06B-738C5EF137CC";"A MI";"FOUNDATION";"";"(391) 713-3950";"P.O. Box 467, 408 Morbi Rd.";"Pugwash";"Nova Scotia";"Thailand";"eros.Proin@risus.ca"
"1AE06990-5E01-9009-2087-4116003BEC7B";"UT TINCIDUNT";"FOUNDATION";"";"1486344";"1204 Arcu Avenue";"Af?in";"Kahramanmara?";"Yemen";"lacus@metusfacilisislorem.co.uk"
"1BAFAB0A-9D13-0ECA-FF48-326208EAB725";"ET MAGNIS";"LLC";"LLC";"878-9220";"Ap #401-5338 Velit Ave";"Galway";"C";"United States";"a@nisl.org"
"C96C0305-26F0-B160-5D76-0688AD25736A";"DIGNISSIM LACUS";"INC.";"INC";"735-2638";"Ap #704-3384 Cum St.";"South Perth";"Western Australia";"Greenland";"vulputate@sagittis.net"
"007D68E8-C49B-1757-E269-BED8226E1B3C";"CUBILIACURAE DONEC PC";"1-734-726-9607";"P.O. Box 500, 3332 Massa Street";"Berlin";"Berlin";"El Salvador";"";"";""
"D051F112-A6A3-9528-1A79-A632B98B7B1F";"PRIMIS IN FAUCIBUS";"INCORPORATED";"INC";"1-918-822-1128";"P.O. Box 143, 5622 Sem, St.";"Dublin";"Leinster";"United Kingdom (Great Britain)";"odio.vel.est@dolorvitaedolor.edu"
"C56CEDBC-13EE-004E-F4CF-F9206C479EBA";"ENIM";"INC.";"INC";"1-318-532-0718";"8031 Eget, Rd.";"Gisborne";"North Island";"Cambodia";"eget.nisi.dictum@nequepellentesquemassa.net"
"13645C43-39B6-0150-D195-6055AF331E7F";"ENIM CONDIMENTUM";"LTD";"LLC";"1-759-604-7152";"Ap #769-964 Pede, Street";"Vienna";"Wie";"Turkey";"eu.lacus.Quisque@Fuscealiquamenim.co.uk"
"71701AEC-DA8A-6242-7D98-951D08B9E84F";"ALIQUAM";"INDUSTRIES";"INC";"1-547-382-5107";"P.O. Box 545, 9022 Dictum. Rd.";"Zierikzee";"Zl";"Papua New Guinea";"eu.turpis.Nulla@auctor.org"
"2909F7E8-C102-4331-1A30-3B9947C58B54";"AMET LUCTUS VULPUTATE";"COMPANY";"CO";"1-869-988-2848";"567-4545 Duis St.";"Elx";"Comunitat Valenciana";"Bouvet Island";"et.euismod.et@nunc.co.uk"
"84CA4F84-0B41-2E79-7F6C-1C4D0475EAA2";"FACILISI";"CORPORATION";"CO";"1-714-720-0552";"4017 Neque Road";"Chicoutimi";"QC";"Senegal";"aliquam.eros.turpis@semperduilectus.co.uk"
"D614567F-295D-9BB7-AE46-D52CFDE1426E";"TORTOR INTEGER";"INSTITUTE";"INC";"1-308-540-3841";"Ap #668-1389 Et Ave";"Uluberia";"West Bengal";"Uzbekistan";"et.netus.et@convallisestvitae.net"
"8A3718A1-A004-C599-7BDA-B5BA7772EF7E";"IMPERDIET ORNARE";"INDUSTRIES";"INC";"1-648-588-0374";"416-9642 Vel Ave";"Dudley";"WO";"Iceland";"ipsum.non@duiSuspendisse.net"
"1957E4B4-1A77-B400-0D5A-A78D4DCA96C5";"PEDE";"CONSULTING";"";"552-6096";"234-9541 Erat Road";"Zierikzee";"Zeeland";"United Kingdom (Great Britain)";"quam.vel.sapien@in.net"
"20427462-D5E0-52B5-6756-533F2D60EBC0";"LAOREET";"INC.";"INC";"771-7282";"6652 Pellentesque St.";"Cork";"M";"Burkina Faso";"neque@gravidanunc.org"
"E1E8E5A6-B6F3-F237-AB2F-DD5F9EE89B37";"LOREM FRINGILLA";"PC";"";"(993) 270-2184";"333 Proin Ave";"Nobressart";"LX";"Gambia";"montes.nascetur@aliquetdiam.org"
"A7F52D9F-4520-0C2B-7359-A2937CBC9301";"VULPUTATE";"INSTITUTE";"INC";"342-4242";"670-1381 Pharetra. Avenue";"Tarnów";"Ma?opolskie";"Lithuania";"cursus.purus@nisi.net"
"F4809484-6A17-29CD-BF16-16BD404D74AF";"AMET";"CORPORATION";"CO";"325-0080";"P.O. Box 407, 4574 Massa. Rd.";"Granada";"Andalucía";"Turkmenistan";"enim.Nunc.ut@Curabitur.org"
"86BC65C2-23BB-7F44-B594-B69C8D1F1F10";"GRAVIDA MOLESTIE";"INC.";"INC";"596-5865";"652-4144 Imperdiet Rd.";"Houston";"British Columbia";"Cuba";"et.commodo.at@ut.org"
"B447E774-C993-37E4-DA38-1FD22D8F6593";"AUGUE SED MOLESTIE";"PC";"";"938-5354";"Ap #566-8992 Lobortis Ave";"Pickering";"ON";"Greece";"morbi@eratVivamus.co.uk"
"20AC118C-6816-8C19-B806-612709661093";"PROIN VEL NISL";"INCORPORATED";"INC";"1-280-892-9873";"Ap #790-6310 Nec Street";"Wanganui";"NI";"Sweden";"arcu.Vestibulum@enim.ca"
"480576E9-729D-B565-4027-ACC4978ECC96";"NULLAM VITAE";"INCORPORATED";"INC";"(680) 911-9858";"843-7261 Nulla St.";"Vienna";"Vienna";"Faroe Islands";"arcu@ipsumdolorsit.co.uk"
"A0FF9C8F-092F-3B47-19E2-EB669234C11E";"VEHICULA ALIQUET";"LTD";"LLC";"1-128-475-9178";"120-6429 Sagittis Rd.";"Orange";"New South Wales";"Slovakia";"morbi.tristique.senectus@tortorIntegeraliquam.edu"
"D57CE080-77E2-B895-5D28-14C3F6E423F0";"CURABITUR";"LIMITED";"LLC";"536-8451";"615-101 Vehicula Road";"Bolzano Vicentino";"VEN";"Niue";"lectus.quis.massa@molestie.ca"
"A062A728-187A-0283-0EFE-423195162DC5";"LIGULA AENEAN GRAVIDA";"PC";"";"1-443-494-1336";"5580 Eu Rd.";"Gloucester";"ON";"Nauru";"ipsum.non@nonhendrerit.net"
"E60E7A91-C593-5D5C-FF5E-E858517BE05B";"TELLUS";"INC.";"INC";"1-403-724-4731";"269-9782 Augue. Rd.";"Vienna";"Vienna";"Ecuador";"ipsum.Suspendisse.non@semperrutrumFusce.net"
"EF8EB4FB-7FEB-E3FC-A48E-3A9C9FF2A91B";"SED ORCI";"INDUSTRIES";"INC";"1533411";"835-669 Erat Avenue";"Vienna";"Wie";"Guernsey";"risus.Nunc.ac@musProinvel.org"
"FD128861-0F83-BFA0-B958-EDE1A46C28E4";"FEUGIAT LOREM";"PC";"";"1-264-278-7183";"351-6205 Enim, St.";"Innisfail";"Alberta";"Brazil";"quis@ornaretortorat.edu"
"F61715BC-2344-F0AE-41C1-1F35005D6701";"EU ENIM";"INDUSTRIES";"INC";"1-848-579-9652";"Ap #179-9836 Ornare Rd.";"Chastre";"Waals-Brabant";"Uzbekistan";"erat.in.consectetuer@fermentum.edu"
"D40E386D-08C9-3773-91F6-132F3D5347A9";"INTEGER MOLLIS INTEGER";"CONSULTING";"";"309-2136";"9413 Sed, Rd.";"Buguma";"Rivers";"Ireland";"eget@ipsumdolorsit.net"
"CDDC2164-D196-63E8-BA46-A349C5AA9943";"ET";"INSTITUTE";"INC";"1-416-692-8705";"5644 Natoque Street";"Atlanta";"Georgia";"Costa Rica";"nulla@tellusidnunc.ca"
"B430A72E-BFF7-D2A0-6F15-AAF0160877F1";"RISUS AT FRINGILLA";"LIMITED";"LLC";"1-535-734-3077";"Ap #502-6332 Risus. Street";"Pointe-Claire";"QC";"Czech Republic";"amet.orci@Donecelementumlorem.co.uk"
"4765CBA4-3323-C59E-6256-7ED5FCA23A02";"AT";"INCORPORATED";"INC";"1-143-374-9911";"Ap #521-700 Fusce Street";"Lafayette";"LA";"Sierra Leone";"quis.accumsan@diamPellentesque.com"
"579F74E3-C995-807D-C4C8-63C2EB633FC2";"PRETIUM ET";"INC.";"INC";"1-789-909-7936";"263-5208 Neque. St.";"Soye";"Namen";"Maldives";"euismod.ac.fermentum@turpisnec.net"
"4E654391-6FC4-8604-4B5C-47DAB65F1B42";"MI ALIQUAM GRAVIDA";"LLC";"LLC";"(448) 184-5435";"Ap #871-3530 Donec Rd.";"?negöl";"Bursa";"Guernsey";"nulla.magna@Uttincidunt.net"
"1FE675D8-AA4E-5772-7949-A1DDC57B6894";"NULLA";"PC";"";"1-362-416-6725";"5655 In Road";"Olathe";"Kansas";"Australia";"amet.consectetuer.adipiscing@faucibusutnulla.ca"
"ABF41F94-8C50-212E-512D-606B1493289D";"IPSUM";"INC.";"INC";"1922259";"P.O. Box 510, 4063 Adipiscing Rd.";"Dreux";"CE";"Germany";"urna.suscipit.nonummy@eutempor.com"
"6885B822-0D01-0AF1-87F4-8FCA6ECBD697";"ALIQUAM AUCTOR";"LLC";"LLC";"318-0498";"P.O. Box 140, 4868 Velit. St.";"Blumenau";"Santa Catarina";"Comoros";"bibendum.sed.est@nuncullamcorpereu.edu"
"C2F34508-B01A-D147-326E-AF12AA55BD65";"MI ALIQUAM";"CORP.";"CO";"339-0512";"9365 Pellentesque Rd.";"Berlin";"BE";"Svalbard and Jan Mayen Islands";"Donec.tempor.est@maurisrhoncus.org"
"C19763F8-5C1F-34C3-8A11-5E75C51E5542";"INTEGER SEM ELIT";"CORPORATION";"CO";"214-6423";"Ap #548-905 Adipiscing, Av.";"Vienna";"Wie";"Monaco";"tempor.arcu.Vestibulum@Aenean.com"
"07C503AC-70F1-691C-7AF8-4E9DAD61B507";"MAECENAS MI";"LLC";"LLC";"1-462-387-2077";"Ap #990-1857 Aliquam Road";"Orhangazi";"Bursa";"Iceland";"in@Nunclaoreetlectus.net"
"237B814D-4177-6533-E88E-76662518B247";"ALIQUET";"FOUNDATION";"";"(483) 128-2211";"5947 Vestibulum Rd.";"Épinal";"LO";"Vanuatu";"tortor.Integer.aliquam@non.net"
"F058EE9C-73F1-FDBB-647C-682DE0EE9DB7";"DONEC LUCTUS";"LLP";"LLC";"516-0682";"9026 Aenean St.";"Tilburg";"N.";"Brazil";"facilisis.Suspendisse.commodo@malesuada.edu"
"A8FCC9DF-9572-6110-CDD7-D514D99043AC";"MASSA";"PC";"";"788-4301";"861-3105 Nisi Ave";"Lexington";"KY";"Montserrat";"mauris.Integer@lacusEtiambibendum.edu"
"21F99009-6483-98C4-7A2D-80818627F479";"DIS";"INDUSTRIES";"INC";"1-284-494-3450";"570-9942 Dolor Rd.";"Alacant";"CV";"Zimbabwe";"ante.Maecenas.mi@sitamet.co.uk"
"52D73D58-63EE-40EA-905E-A871D6491F05";"AT RISUS NUNC";"INSTITUTE";"INC";"206-6044";"P.O. Box 649, 3479 Neque. Road";"Valéncia";"Comunitat Valenciana";"Trinidad and Tobago";"luctus.sit@Integer.edu"
"97297CE0-D979-1EB8-D880-2BF7BC4C953C";"NULLAM FEUGIAT";"LIMITED";"LLC";"(898) 130-8897";"P.O. Box 696, 6292 Enim. Ave";"Montes Claros";"Minas Gerais";"New Caledonia";"massa.Suspendisse.eleifend@CuraePhasellus.co.uk"
"FE790712-1EC6-6B9B-17EC-82D5A3091E0C";"EU";"LTD";"LLC";"940-8188";"119-7052 Sed Rd.";"Katowice";"Sl?skie";"Grenada";"semper@malesuadavelvenenatis.ca"
"406B1D52-D86D-FDD1-E3EF-8E3B9311EAB7";"ID RISUS";"ASSOCIATES";"";"1-100-191-0396";"P.O. Box 793, 2717 Curabitur St.";"Nanton";"Alberta";"Afghanistan";"vestibulum.massa@magnis.com"
"E4F9DEA0-D208-A222-A17F-3A2F5557FECB";"ALIQUAM EU";"FOUNDATION";"";"879-2197";"621-5419 Non Rd.";"Hamburg";"Hamburg";"Canada";"non.enim.commodo@nislsem.com"
"8816DF4B-AD01-7CCA-ABEF-AA5B12150CA3";"VIVAMUS NISI MAURIS";"ASSOCIATES";"";"411-5038";"920-3877 Ante. Road";"Zierikzee";"Zeeland";"Mongolia";"aliquam.eros@vestibulummassarutrum.co.uk"
"A6FF6D66-78C0-965D-2C11-5B504B538923";"TURPIS EGESTAS ALIQUAM";"LTD";"LLC";"1-828-984-2545";"4890 Fringilla Rd.";"Anglet";"AQ";"Christmas Island";"magna@dolordapibusgravida.org"
"4807E283-9EFC-4492-5F1C-132A718BF2DC";"IN HENDRERIT CONSECTETUER";"CORP.";"CO";"945-2770";"465-1533 Orci Street";"Duque de Caxias";"RJ";"Maldives";"rutrum.urna@luctus.net"
"1DFE6AEF-8AEC-79F8-DC11-32C76E02A4F7";"CRAS EU";"LIMITED";"LLC";"(633) 123-0900";"5790 Pede, Street";"Ajax";"ON";"Chile";"morbi.tristique.senectus@diam.ca"
"09843BA9-8822-F5C7-88E2-5E34C167EE7C";"MAURIS";"INCORPORATED";"INC";"741-3586";"P.O. Box 985, 1427 Congue St.";"Wagga Wagga";"New South Wales";"Faroe Islands";"nibh.vulputate.mauris@diam.net"
"0EA92570-D815-D71F-CA8B-3B3A27FE7CEB";"DOLOR";"LLC";"LLC";"659-5088";"P.O. Box 674, 1181 Tortor, Av.";"Llangollen";"DE";"Mali";"Donec.nibh.Quisque@quispedeSuspendisse.com"
"70568786-2106-4A43-F684-3D44E6A664CF";"VESTIBULUM ACCUMSAN NEQUE";"ASSOCIATES";"";"653-8620";"P.O. Box 896, 2647 At Ave";"Grave";"Noord Brabant";"Grenada";"molestie@arcuVestibulumut.com"
"F7FA305E-D29D-3892-A2C9-29BE2609C47D";"ULLAMCORPER NISL ARCU";"PC";"";"(387) 124-7366";"887-619 Phasellus Av.";"Houston";"BC";"Holy See (Vatican City State)";"odio.Etiam@euduiCum.com"
"F9547D19-29FB-EB0F-C3DC-AFD9D2E31B7E";"FELIS PURUS";"INDUSTRIES";"INC";"488-2460";"426-862 Eleifend Street";"Lublin";"Lubelskie";"Guam";"Sed@arcuSedeu.edu"
"0ADCF3E4-DB64-A021-DEBF-C8EE36DBCCE8";"NUNC MAURIS MORBI";"INC.";"INC";"869-4976";"Ap #928-5115 Turpis Street";"Pi?a";"WP";"Djibouti";"pede.Praesent.eu@Quisque.edu"
"B7595A68-4A48-2A77-A6E0-1EC158800B4C";"PULVINAR ARCU ET";"CONSULTING";"";"840-4669";"7071 Ac Ave";"Burnaby";"British Columbia";"Bulgaria";"Nullam.suscipit@elit.net"
"8701BC13-D8A8-8A80-4EB1-178C6B8178D2";"NATOQUE";"LTD";"LLC";"1-244-202-4296";"2334 Leo. Rd.";"Romano d'Ezzelino";"Veneto";"Bouvet Island";"Cum@euismod.ca"
"BCF3700B-96EB-7D7D-261F-C8AC9584F220";"NON";"CORPORATION";"CO";"300-8047";"Ap #885-335 Lobortis. Av.";"Buckingham";"BK";"Malawi";"Duis.gravida.Praesent@NullamnislMaecenas.net"
"771C72F3-47FA-2F93-5A02-B8222B123798";"VESTIBULUM";"INC.";"INC";"1-850-612-9285";"P.O. Box 346, 8016 Nunc Street";"Paranaguá";"PR";"Macedonia";"non@nullaInteger.net"
"028BA225-9937-8E25-22FD-7C2063EF093E";"IPSUM NUNC ID";"LIMITED";"LLC";"986-6634";"Ap #430-7960 Ipsum Street";"Höchst";"Vorarlberg";"Mauritius";"feugiat@natoquepenatibuset.ca"
"9F73C3F9-F7E2-FC4B-9ABF-6083DAD30DD6";"PHASELLUS DOLOR ELIT";"LLC";"LLC";"(791) 482-6820";"P.O. Box 820, 9558 Purus. St.";"Sonnino";"LAZ";"New Caledonia";"commodo@pede.co.uk"
"0A10215A-8CF0-1090-8320-BA066D1B0419";"NULLAM VITAE DIAM";"LIMITED";"LLC";"363-5126";"980-7189 Suscipit Rd.";"Belfast";"U";"Cayman Islands";"odio.semper.cursus@diamSeddiam.ca"
"EC2064B0-43AD-2A26-D84F-AA38D859A9AA";"DAPIBUS";"INDUSTRIES";"INC";"(791) 570-3786";"3176 Augue. St.";"San Rafael";"A";"Palau";"mollis.Phasellus.libero@iaculis.edu"
"69541C4A-BAFD-6FA2-327A-86D2EC1C0CBB";"TORTOR";"CONSULTING";"";"457-9111";"P.O. Box 445, 6467 Pellentesque, St.";"Argenteuil";"Île-de-France";"South Sudan";"dictum.ultricies.ligula@aliquetliberoInteger.co.uk"
"8B87CE77-9A66-A692-7820-2485D6EA24CA";"IN";"LLP";"LLC";"380-1348";"8605 Morbi Avenue";"Knoxville";"Tennessee";"Viet Nam";"luctus.et.ultrices@sit.org"
"0E8A6868-B753-FD28-804A-B5356E1C3DA9";"NUNC";"CORP.";"CO";"1-522-543-7295";"911-4283 Morbi St.";"Thunder Bay";"Ontario";"Saudi Arabia";"at.egestas.a@consectetuercursus.org"
"E267108D-E692-DAAA-5FB0-1FCD7A023D75";"MOLLIS NON CURSUS";"INDUSTRIES";"INC";"688-9497";"Ap #385-7904 Ridiculus Ave";"Ranst";"AN";"Lithuania";"Curabitur.consequat@sapien.org"
"9218DA34-3CEB-F7C9-D8AE-E94085E8782F";"ULLAMCORPER EU";"LTD";"LLC";"333-8635";"327-4503 Proin Avenue";"Gorinchem";"Z.";"San Marino";"sit.amet.consectetuer@nislQuisquefringilla.net"
"A5FFE46E-EEE6-64D6-2D58-75F889B07A11";"AT FRINGILLA PURUS";"LIMITED";"LLC";"644-9216";"6468 Posuere, Rd.";"Cork";"M";"South Georgia and The South Sandwich Islands";"dapibus.quam.quis@Morbimetus.com"
"2DD6BE42-8622-A8DF-07BD-089DBB479534";"AC";"INCORPORATED";"INC";"927-2123";"717-6341 Convallis, Road";"Wyoming";"Wyoming";"Greece";"Morbi.metus.Vivamus@ac.edu"
"2F70E0FE-8E39-D3D3-EAA9-A667FBB8D0DE";"NUNC ID ENIM";"LTD";"LLC";"1-789-235-0188";"Ap #817-3050 Lacus. Rd.";"Murray Bridge";"SA";"Bahrain";"sit.amet@Nuncmauris.org"
"44EC00CD-5F7E-096F-0266-8FD9994B5F24";"FAMES AC";"LLC";"LLC";"(996) 106-3854";"725-8907 Non, St.";"Smoky Lake";"Alberta";"Ukraine";"in@aliquetlobortisnisi.ca"
"32E01702-D58D-4D08-F65D-85270816BE93";"MI";"ASSOCIATES";"";"1-460-920-8679";"Ap #783-6006 Dapibus Street";"Belfast";"U";"Barbados";"egestas.ligula.Nullam@mipedenonummy.edu"
"B0BF1CB9-1EBF-1D3F-FA8C-EFCCC52CB015";"DAPIBUS GRAVIDA";"INDUSTRIES";"INC";"1-603-492-8268";"2781 Tempor Avenue";"Lions Bay";"BC";"Central African Republic";"massa.lobortis.ultrices@fermentum.co.uk"
"776A9DB9-4004-688B-9359-5658D4C9CF7F";"NAM AC";"ASSOCIATES";"";"1664316";"4789 Donec Road";"Belfast";"U";"Singapore";"velit@interdumCurabitur.com"
"16C28022-DC50-9CB1-9427-EE4D64D97371";"ULTRICES POSUERE";"INCORPORATED";"INC";"881-8676";"Ap #921-5985 Est. St.";"Portsoy";"Banffshire";"United States Minor Outlying Islands";"a@Donecluctus.edu"
"25ADBD1B-9231-F6A2-7447-495775FD56B9";"QUISQUE NONUMMY";"LIMITED";"LLC";"644-4593";"137-6195 Aliquet Av.";"Grey County";"ON";"Djibouti";"elit.elit.fermentum@etnetus.com"
"022507A8-1525-6E53-9CDE-0949E57D680C";"SAPIEN AENEAN MASSA";"LLP";"LLC";"832-9892";"412-6335 Lacus. St.";"Istanbul";"Ist";"Kiribati";"Fusce.diam@turpisAliquam.net"
"7FE43449-19BF-6C8F-E103-CBA7BEBEF51E";"SEM SEMPER ERAT";"FOUNDATION";"";"225-5484";"Ap #901-3271 Orci Rd.";"Lewiston";"ME";"Christmas Island";"elit.Nulla@velitAliquam.co.uk"
"A486F1A5-AE88-1C31-33BE-BF0D67A14299";"LIBERO ET TRISTIQUE";"PC";"";"359-4889";"Ap #807-7547 Rutrum Av.";"Hawera";"NI";"French Guiana";"urna.Nunc.quis@ultrices.ca"
"36AE1C70-4192-0DE5-DA61-F508810C3FDD";"IN MAGNA PHASELLUS";"ASSOCIATES";"";"913-3633";"2053 Eu St.";"Kraków";"Ma?opolskie";"Côte D'Ivoire (Ivory Coast)";"eget.venenatis@Nulla.com"
"D7075EAA-A064-27BF-318F-84E5ED12EE32";"MORBI TRISTIQUE SENECTUS";"ASSOCIATES";"";"681-8854";"9827 Sit Road";"Kozhikode";"KL";"Thailand";"ridiculus@aliquetPhasellusfermentum.com"
"DB675773-5C0D-DEAD-4677-606F6239BC81";"SAPIEN NUNC PULVINAR";"INC.";"INC";"812-2434";"P.O. Box 106, 1470 A Avenue";"Santa Maria";"RS";"Angola";"blandit.enim.consequat@lacus.net"
"50022924-0BBC-6C8E-BF50-7BE00482E5E4";"IN TEMPUS EU";"INCORPORATED";"INC";"315-9556";"332-3533 Nec, Av.";"Alexandria";"Dunbartonshire";"Kiribati";"molestie.tellus@magnaUt.edu"
"5BDAF665-EAB9-3159-9082-99DEB291EE28";"SODALES AT VELIT";"COMPANY";"CO";"1-646-435-4960";"723 Augue, Avenue";"Bridgeport";"CT";"Hong Kong";"Suspendisse.dui@pharetraQuisque.net"
"9B7E45EF-74EE-2441-DC03-AB129F1A6318";"MONTES";"LLP";"LLC";"1-770-784-3498";"P.O. Box 632, 3389 Hendrerit Ave";"Worms";"RP";"Trinidad and Tobago";"nisi.nibh.lacinia@Donec.org"
"2AAF6F28-1403-EFB4-DCFF-A1AD0FA79364";"IMPERDIET ULLAMCORPER DUIS";"FOUNDATION";"";"(892) 162-4189";"825-8719 Natoque Avenue";"Aserrí";"San José";"Grenada";"blandit@Nullam.co.uk"
"A76E098A-AD98-7BDC-5D46-ED1E5B98C874";"CONVALLIS";"CONSULTING";"";"303-4720";"7809 Non Av.";"Gboko";"BE";"Cocos (Keeling) Islands";"fermentum.vel@Nunc.net"
"EED09728-2AE6-01AF-6450-E1A1E33C944C";"LIBERO";"INSTITUTE";"INC";"882-4188";"P.O. Box 804, 143 Dui. Rd.";"Nottingham";"Nottinghamshire";"Syria";"tellus.non@orciadipiscing.org"
"70305690-B19C-D4AB-203A-E4821D622F88";"ELIT ELIT";"COMPANY";"CO";"1-687-677-3065";"614-1497 Ante Rd.";"Soma";"Man";"Congo (Brazzaville)";"semper.pretium@aduiCras.ca"
"F167B7AA-6B94-5260-3E06-64A3A2FB0898";"AMET CONSECTETUER";"CONSULTING";"";"306-5589";"217-1880 Duis Ave";"Thames";"North Island";"Christmas Island";"mollis.Duis@eu.net"
"54FB454F-ED52-B637-C181-EFBCB5F196FD";"NETUS";"INCORPORATED";"INC";"1-676-610-8796";"P.O. Box 523, 8186 Massa. St.";"Luziânia";"GO";"Armenia";"erat@Donecporttitor.net"
"D2F41CE5-6287-40ED-5912-ED996FDD53AE";"NULLA";"CORPORATION";"CO";"1-338-430-0564";"Ap #725-4661 Urna Rd.";"Retie";"AN";"Chad";"orci@urnaVivamusmolestie.edu"
"FDEBB763-82FF-822D-0ECC-07A70D26770B";"ODIO AUCTOR";"INCORPORATED";"INC";"1-265-441-4671";"Ap #732-2749 Non, Street";"Buren";"Gl";"Qatar";"pede.Cras@sitametrisus.com"
"C464DE49-D763-E732-4FF6-DDFA5E1715DD";"ORCI";"COMPANY";"CO";"594-3801";"2290 Montes, Av.";"Kumbakonam";"TN";"Poland";"Fusce.aliquet@mattisornarelectus.org"
"F92F59FC-36C1-A16F-6B35-3462F9612883";"SED PHARETRA FELIS";"CORPORATION";"CO";"(591) 968-8331";"Ap #996-8292 Imperdiet Road";"Bydgoszcz";"Kujawsko-pomorskie";"Venezuela";"sociis.natoque@quis.co.uk"
"59A5DABC-6715-AD80-89D0-B96A99ECAA26";"PEDE";"INCORPORATED";"INC";"1-572-342-4108";"P.O. Box 282, 4204 Fringilla Road";"Alcobendas";"MA";"Equatorial Guinea";"Nullam@aliquamenim.ca"
"59825D51-5513-256A-4654-669FD152702F";"ET";"LIMITED";"LLC";"410-5430";"9078 Fusce Road";"Oviedo";"AS";"Costa Rica";"nibh.Aliquam.ornare@eteuismodet.net"
"3F7A96D3-23D1-224A-5FD6-7385D6C35912";"MUS PROIN";"LTD";"LLC";"(294) 624-4961";"338-588 Felis. Rd.";"Solapur";"MH";"Canada";"magna.Cras.convallis@magnisdis.net"
"199A7679-B32F-4E9A-64A1-23BC653EEEDC";"CONVALLIS LIGULA";"INDUSTRIES";"INC";"1-206-249-7456";"P.O. Box 876, 3630 Ornare, Av.";"Armidale";"NSW";"Denmark";"eu.sem@inconsectetueripsum.net"
"9FB6E185-B78A-B82D-BFF1-469C76CB3E9F";"TINCIDUNT";"CONSULTING";"";"481-7803";"P.O. Box 855, 5736 Luctus St.";"Anchorage";"Alaska";"United Arab Emirates";"nec.tempus.scelerisque@eratSed.ca"
"3B35396C-DD05-8CAD-79A5-ADBD7B171B63";"ENIM SED NULLA";"COMPANY";"CO";"1-574-866-8408";"Ap #324-9474 Eget Av.";"Geelong";"Victoria";"Cook Islands";"tellus.lorem.eu@Aenean.net"
"779C027B-6E77-D1D0-0123-8CB23771EA06";"NUNC";"LLP";"LLC";"511-9105";"Ap #896-2517 Ligula. St.";"?zmit";"Kocaeli";"Guinea";"fermentum@non.co.uk"
"063C0DDB-7524-7513-CBF4-8492356A6953";"DOLOR DOLOR TEMPUS";"CORPORATION";"CO";"1-586-904-6883";"6267 Nec Rd.";"Timaru";"SI";"Cuba";"consectetuer.adipiscing.elit@Nulla.ca"
"2571F2E3-1DAF-E26E-81E2-78111C733067";"VESTIBULUM ANTE";"CORPORATION";"CO";"265-5155";"Ap #426-5460 Mollis Ave";"Hamilton";"North Island";"Botswana";"dictum@Vivamus.org"
"F9630CA6-99FC-7E8D-88C7-E5927DE54A99";"AMET CONSECTETUER";"INDUSTRIES";"INC";"965-9960";"P.O. Box 687, 2556 Vestibulum St.";"Anjou";"Quebec";"Virgin Islands, United States";"sit.amet.nulla@natoque.ca"
"7C066682-A1F1-BC53-2759-BF729F1E3785";"ARCU";"CORPORATION";"CO";"1932415";"9339 Aliquam Street";"Leamington";"ON";"Timor-Leste";"Aliquam.tincidunt@placeratCrasdictum.net"
"C7299C72-7E3F-3C76-360E-740E63AE2D98";"VELIT";"INCORPORATED";"INC";"1-537-669-2866";"Ap #610-7505 Aliquet Rd.";"Henderson";"Nevada";"Congo, the Democratic Republic of the";"ornare.lectus.ante@tinciduntadipiscingMauris.com"
"B5BF9569-4701-E8F3-F15D-080C9A88213D";"FRINGILLA";"CORP.";"CO";"748-9542";"Ap #737-3614 Non, Rd.";"Middelburg";"Zeeland";"Taiwan";"pharetra@scelerisquenequeNullam.net"
"CC1024C6-07BD-EA71-A0D3-4E11DC5DBA05";"ADIPISCING";"COMPANY";"CO";"1-268-384-6823";"Ap #739-5828 Aliquet Av.";"Sarreguemines";"Lorraine";"Guernsey";"tempus@variusorci.edu"
"2A04A6C0-A3C0-2873-E9BF-09584B1D8000";"MAURIS SIT AMET";"INSTITUTE";"INC";"653-7706";"7747 Cursus Road";"Stamford";"Connecticut";"Macao";"Nam.interdum.enim@fermentum.ca"
"30D13329-6B2E-08DB-9B1B-A5288D3BF935";"MAGNIS DIS";"INSTITUTE";"INC";"375-7960";"237-476 Mattis St.";"Vienna";"Wie";"Nauru";"Donec@vel.org"
"2B9C358C-0292-DA3A-A00E-4B5A3098D203";"AUCTOR";"INC.";"INC";"1-871-250-1005";"636-4576 Sem Street";"Nanterre";"IL";"Turkmenistan";"parturient.montes@ac.com"
"58B5E50D-65E6-6C4F-A1B8-8FF62F6168E5";"FACILISI SED";"CONSULTING";"";"1-886-321-9004";"1286 Ornare. Street";"Katowice";"Sl?skie";"Grenada";"pharetra@luctus.net"
"9A8FB288-E23F-C520-1D9E-B850049CB9CE";"INTERDUM";"LIMITED";"LLC";"1-139-838-0196";"571-6460 Malesuada Rd.";"Vienna";"Wie";"Peru";"Sed.eu.nibh@blanditNam.edu"
"569BB8B1-5CA8-7343-B9C3-E164CAAD5D20";"FEUGIAT SED";"INCORPORATED";"INC";"1-936-656-2164";"P.O. Box 539, 2434 Eu, St.";"Radom";"MA";"Bonaire, Sint Eustatius and Saba";"nulla.ante@conubianostraper.co.uk"
"E70BB58D-3677-5220-7E68-BDBACB1C5132";"NISI MAGNA SED";"LIMITED";"LLC";"(859) 125-9232";"2967 A, Road";"Vienna";"Vienna";"Bahamas";"scelerisque@malesuada.com"
"FAD33E34-3ABF-FC31-DDFD-556054713BAE";"NON VESTIBULUM";"LIMITED";"LLC";"285-5276";"123-4057 Aliquam Ave";"San Diego";"California";"Greece";"ultrices@Curabitur.ca"
"F02375A1-8C90-E2C8-D6E2-612E7FABEED4";"VITAE ORCI PHASELLUS";"PC";"";"799-4906";"1293 Placerat, Road";"Kawerau";"North Island";"Mauritius";"mattis.velit@ullamcorpereueuismod.net"
"5D57C674-B111-E779-2646-E334EAF6161D";"EST MAURIS EU";"LIMITED";"LLC";"638-8129";"P.O. Box 576, 1369 Risus. Street";"Ulhasnagar";"Maharastra";"Azerbaijan";"arcu.Vestibulum.ut@Cum.ca"
"BA1D8C60-D8E0-905B-6475-5E363F60E7AE";"NEQUE";"INDUSTRIES";"INC";"1-317-574-3313";"Ap #123-815 Fringilla Rd.";"Newmarket";"Ontario";"United States Minor Outlying Islands";"semper.erat.in@odio.ca"
"2AA1BBD1-332E-C432-75FA-380EBE5A4E80";"UT";"COMPANY";"CO";"478-4401";"224-8457 Penatibus Road";"Getafe";"Madrid";"Mayotte";"tristique.neque@eutelluseu.edu"
"1548F09C-99C6-9C5C-D7B4-56FC69329F90";"IN CONDIMENTUM DONEC";"LLP";"LLC";"304-8175";"272-9077 Posuere, St.";"Bauchi";"BA";"Singapore";"sit.amet.consectetuer@dolor.com"
"6BC91702-68D2-5D4E-E7BA-77EC3058D479";"RIDICULUS MUS PROIN";"LTD";"LLC";"1-484-329-5718";"743-4671 Dictum St.";"Elbl?g";"Warmi?sko-mazurskie";"Saudi Arabia";"pede@ante.net"
"7AC4A1F8-A310-E337-073C-ED45D48BABEF";"DIAM LOREM AUCTOR";"INC.";"INC";"1989257";"Ap #353-123 Quisque Rd.";"Guadalupe";"San José";"United States";"Etiam.vestibulum@Crasvehiculaaliquet.co.uk"
"6D756633-ADC4-40D9-5095-9EC7824B34B9";"INTEGER";"PC";"";"1-226-774-4644";"846-8082 Lectus Rd.";"Szczecin";"ZP";"Norfolk Island";"lorem@eleifendvitae.net"
"A3EF0620-1796-7CF0-7755-F597A581F361";"ELIT";"ASSOCIATES";"";"1-851-520-1938";"Ap #574-5700 Non Street";"Jerez de la Frontera";"Andalucía";"Pitcairn Islands";"ullamcorper.viverra@pellentesquetellus.net"
"C9A5B0FF-4BB7-B902-B4CB-615245F71E78";"FERMENTUM FERMENTUM ARCU";"INSTITUTE";"INC";"1720606";"Ap #389-8061 A Avenue";"Southaven";"Mississippi";"Norway";"tellus.Aenean@leo.com"
"4B372E7F-9F3D-AAAA-B76B-BF1B681923EB";"ARCU VESTIBULUM";"INC.";"INC";"1-469-561-2796";"Ap #913-2509 Libero Rd.";"Naarden";"N.";"Cape Verde";"lacinia@Curabiturut.edu"
"3F3BF3C0-AF3D-F1E2-9C94-528A7BA9E51C";"ELEIFEND";"LIMITED";"LLC";"1-228-938-7438";"Ap #297-9705 Sed Av.";"Mérignac";"AQ";"Wallis and Futuna";"Nunc.commodo.auctor@Aliquam.net"
"89175256-2C54-CC46-0423-BB57085A18B5";"VENENATIS LACUS ETIAM";"LTD";"LLC";"(611) 121-7289";"P.O. Box 656, 8215 Nullam Av.";"Zierikzee";"Zeeland";"Chad";"natoque@mollisduiin.ca"
"F72A8318-B791-6212-52DA-7B324CB4A33A";"IN FELIS NULLA";"LLC";"LLC";"898-7688";"Ap #387-5162 Vel Road";"Nevers";"BO";"Macedonia";"erat.volutpat@Crasdolor.org"
"100DC3BB-DF69-02BA-B989-FFED5903F36C";"MI AC MATTIS";"INC.";"INC";"1-680-778-2161";"Ap #966-3397 Dictum Av.";"Kansas City";"MO";"Western Sahara";"neque@sapien.ca"
"B762D397-2596-33DC-B69E-0D2ED6F8FD01";"IN SODALES";"COMPANY";"CO";"1776885";"507-2977 Quam. Ave";"Sylvan Lake";"AB";"Vanuatu";"et.magnis@Nuncsollicitudincommodo.co.uk"
"BDE84E5B-B242-C03D-33C8-DBC47CED5CB0";"AT ARCU VESTIBULUM";"LLP";"LLC";"715-4903";"427-8758 Aliquam St.";"Terme";"Sam";"Namibia";"tortor.Nunc.commodo@egestasblanditNam.ca"
"7DBF32A9-C1CE-C285-D579-6D2350FEA5A3";"ELIT ELIT";"CORP.";"CO";"872-8529";"626-174 Sed Av.";"Valéncia";"Comunitat Valenciana";"Ireland";"pede@Duissitamet.ca"
"F479BA5F-927F-8128-E858-D49D18938512";"VESTIBULUM UT";"LIMITED";"LLC";"1-849-548-1563";"P.O. Box 564, 5280 Lectus Ave";"Turrialba";"Cartago";"Japan";"in.magna@Vivamus.org"
"D18CEB58-74C1-2E39-C0CF-A5158C087A6A";"NEC";"ASSOCIATES";"";"672-7441";"P.O. Box 660, 6641 A, St.";"Belfast";"Ulster";"Mexico";"sit@tellusSuspendisse.org"
"1D080336-4975-EBE8-6009-C82C43626FF0";"SAPIEN NUNC";"CONSULTING";"";"1965693";"8201 Sem St.";"Beerse";"AN";"Suriname";"Quisque.ornare@arcuVestibulumante.net"
"4EC5445A-CE9F-DF3C-7FFF-B61DC5250683";"ELEIFEND CRAS SED";"INDUSTRIES";"INC";"1-550-526-8626";"P.O. Box 810, 6360 Dui. St.";"Millport";"BU";"Iraq";"at@sagittisfelis.org"
"62A1D648-BB4D-641B-4CDE-E06D391A91AD";"ELIT ETIAM";"LLP";"LLC";"571-4579";"748-8175 Ipsum Av.";"Flushing";"Zeeland";"Macedonia";"interdum.libero@sagittisNullamvitae.org"
"D882AE90-E6CA-F65B-43DA-99A9831A2FD4";"MOLLIS PHASELLUS LIBERO";"LIMITED";"LLC";"966-4925";"P.O. Box 947, 5170 Elit St.";"Aurora";"ON";"Romania";"metus@turpisvitae.net"
"A3806C79-9B09-1060-2B06-D18F7357D36B";"MAURIS MAGNA";"COMPANY";"CO";"1-238-991-6958";"Ap #569-4634 Eu St.";"Bihain";"Luxemburg";"Micronesia";"fermentum.metus@Morbiquisurna.com"
"3DE2D5BA-0D06-FF08-7DBB-1F850A7B21C5";"SEM PELLENTESQUE UT";"LTD";"LLC";"(625) 129-0518";"208-1032 Rutrum Avenue";"Dublin";"L";"Dominica";"enim@Crasdolor.net"
"B3CB7688-A541-4A03-7750-B3FFDB8D77B4";"EGESTAS A SCELERISQUE";"INCORPORATED";"INC";"932-6791";"3917 Sed St.";"Maiduguri";"Borno";"Namibia";"euismod.est.arcu@aliquetmetus.co.uk"
"8326CCCE-692C-6BA5-25EA-455AC77DAFBC";"PURUS NULLAM";"CORP.";"CO";"900-0411";"Ap #139-3697 Tellus Ave";"Vienna";"Vienna";"Bulgaria";"id.enim.Curabitur@tellusfaucibus.org"
"410D3273-EBBE-1199-4991-959885D7609F";"ORNARE FACILISIS EGET";"INDUSTRIES";"INC";"921-9445";"4493 Dui Ave";"Villers-le-Peuplier";"Luik";"Turkmenistan";"facilisis.non@odioNaminterdum.co.uk"
"7A8DAD81-F2EA-4AD5-CF23-9C4F41FAD2F4";"SAPIEN";"LTD";"LLC";"271-8716";"Ap #773-4356 Non, Road";"Culemborg";"Gl";"Samoa";"tincidunt@posuerecubiliaCurae.com"
"E3AA9248-ADE3-1EC8-7299-D3A3ED2C6C96";"EUISMOD";"FOUNDATION";"";"501-2205";"1270 Nulla Rd.";"Hamburg";"HH";"Bolivia";"dapibus.ligula@sit.net"
"C8FCD33B-0865-8308-C349-8EC64217A831";"EGET NISI";"LTD";"LLC";"1-576-207-4377";"745-270 Pede Av.";"Cumberland";"ON";"Saint Vincent and The Grenadines";"malesuada@orciluctuset.edu"
"60A36FEC-BC36-5C53-055A-178F93D8B8A0";"NULLAM VITAE";"LIMITED";"LLC";"1-240-469-0813";"P.O. Box 276, 5985 Elit. Street";"Russell";"ON";"Tunisia";"ultrices.a@volutpat.org"
"0212C237-5360-E6C4-EE06-B9BBC4B2F7D8";"ENIM";"LIMITED";"LLC";"391-1655";"P.O. Box 508, 3524 Donec Rd.";"Viran?ehir";"?a";"Falkland Islands";"eu.ligula@auctorvitae.com"
"9F86E2F6-B740-94B2-80DC-649B598F9138";"PURUS AC";"ASSOCIATES";"";"1-375-565-9548";"P.O. Box 802, 7265 Ipsum Av.";"Vienna";"Wie";"Chile";"turpis.vitae@Praesenteu.org"
"EA20F180-7108-147A-F89A-49C948CCD869";"IPSUM SODALES";"COMPANY";"CO";"1-584-676-5190";"P.O. Box 475, 3152 Phasellus Rd.";"San Rafael";"Cartago";"Panama";"nunc@pretiumet.com"
"38781F20-F703-C6CE-CFD9-379FAD56F91B";"PEDE";"LLC";"LLC";"984-7322";"3843 Dis Avenue";"Höchst";"Vorarlberg";"Guyana";"leo@velit.net"
"422E4FA8-FD01-718B-1AB6-3826F751C07D";"ET NUNC";"CORPORATION";"CO";"1-572-284-3127";"Ap #979-1307 Purus, St.";"Mogi das Cruzes";"São Paulo";"Mexico";"Nulla.eget@adipiscingenimmi.net"
"6DEEC0EA-F5D7-1590-E81F-C611F242CBA2";"NATOQUE PENATIBUS";"INC.";"INC";"1993064";"4751 Eu, Street";"Tulsa";"OK";"United States Minor Outlying Islands";"cursus@vulputate.net"
"7A3A5843-5F4B-BB43-74AB-116F18CD0366";"MI LACINIA MATTIS";"LTD";"LLC";"1-200-203-0011";"136-8943 Tellus, Avenue";"Orhangazi";"Bursa";"Malawi";"ornare.egestas.ligula@adipiscingelitEtiam.net"
"1C0945DB-34E1-C054-A4A3-093851983C6B";"DUI";"INSTITUTE";"INC";"467-0095";"Ap #505-1829 Vel Avenue";"Shawville";"Quebec";"Wallis and Futuna";"Ut.tincidunt.orci@dolorsit.co.uk"
"DE440A05-9137-0CF5-8F80-E2874F3C6BAA";"ELIT";"PC";"";"1-510-743-5735";"Ap #932-1137 In St.";"Girona";"CA";"Colombia";"enim.consequat.purus@Curabiturmassa.edu"
"EF66CFF9-7294-6E6B-4B96-C011D85851FA";"LACUS ALIQUAM RUTRUM";"LLC";"LLC";"718-5073";"Ap #836-4165 Gravida Rd.";"Murdochville";"Quebec";"Morocco";"Donec.sollicitudin@dapibus.org"
"8D295E82-6C36-49B0-9428-CDDA6FDDCD5A";"TEMPUS";"ASSOCIATES";"";"655-2563";"Ap #671-2684 Cursus Street";"Goderich";"ON";"Angola";"elit.Curabitur.sed@ametdiameu.co.uk"
"D4C1F726-6A42-5046-4235-1A24F74F2361";"DICTUM MI";"CORPORATION";"CO";"1-674-278-9153";"3918 Et Street";"Belfast";"U";"Gambia";"natoque@pharetraut.edu"
"44E32360-C5B6-2B0E-EB02-72CBF84583AC";"SUSPENDISSE";"LIMITED";"LLC";"1-760-572-1355";"9867 Phasellus Av.";"Vienna";"Wie";"Palestine, State of";"Pellentesque.ultricies@In.edu"
"00438C33-2AEC-F529-A3A4-36E025833C0D";"NULLA EGET METUS";"INC.";"INC";"1961702";"3682 Facilisis Av.";"Sint-Pieters-Woluwe";"BU";"French Polynesia";"risus@Nunc.ca"
"81FD6356-B4A5-9A37-CF0E-EB69FA000EF2";"ANTE IPSUM";"LIMITED";"LLC";"1929498";"400-8150 Aliquet. Rd.";"Jhansi";"UP";"New Zealand";"id.nunc.interdum@actellus.org"
"4F60D162-4769-BEBB-27A1-B0D12B4333F9";"ENIM CONDIMENTUM";"COMPANY";"CO";"1-435-422-8688";"Ap #163-411 Vitae, Road";"Schagen";"N.";"Brunei";"semper.auctor@facilisis.com"
"C536A1FB-B43A-D8B9-4471-2226C3BA12F8";"EGET VOLUTPAT";"ASSOCIATES";"";"293-4087";"P.O. Box 772, 354 Proin St.";"Colorado Springs";"Colorado";"France";"Suspendisse.aliquet@sit.com"
"D5CF19CE-4B66-435F-3B87-1156D65CF63C";"URNA ET";"CORPORATION";"CO";"451-9437";"813-5378 Mauris Road";"Vienna";"Wie";"Brazil";"ut.sem@nequeNullam.edu"
"1C556039-9197-7468-63C4-B85404C147D4";"JUSTO";"INC.";"INC";"257-4214";"885-1796 Id Rd.";"Bastia";"CO";"Kuwait";"molestie.Sed.id@nibhsit.org"
"B7ED24F4-F3F3-D4F2-100D-A9110626CEDC";"ENIM MI TEMPOR";"LIMITED";"LLC";"1-447-946-6275";"9606 Orci, Ave";"Concepción";"SJ";"Honduras";"a.auctor@adipiscingnonluctus.net"
"86BA2F14-8947-56B1-4742-343005F2C7E7";"ELEIFEND NEC";"LTD";"LLC";"1665805";"576-680 Nec, Av.";"Wha Ti";"NT";"Bouvet Island";"Phasellus.vitae@interdumfeugiatSed.org"
"F5BD7DCE-B2D3-78FB-6A26-1DAC30281DDE";"AC ELEIFEND VITAE";"INSTITUTE";"INC";"882-7009";"P.O. Box 738, 4362 Risus. Road";"Liverpool";"New South Wales";"Greenland";"vestibulum.massa@acarcu.edu"
"58DA0B3E-1706-7D7E-1027-DEF9C63D6F9B";"VIVERRA";"COMPANY";"CO";"1-163-613-3915";"Ap #655-2702 Neque. Rd.";"Vigo";"Galicia";"Andorra";"pede.blandit@Nullam.co.uk"
"B0C7E9F8-992E-FEA3-C9C9-9DCEDA32A088";"TURPIS";"COMPANY";"CO";"1223181";"P.O. Box 233, 7930 Ullamcorper. Street";"Aparecida de Goiânia";"GO";"Comoros";"libero.et@dolordapibus.ca"
"26D23EF9-74E4-0C6B-91FF-56178A6F5703";"NEC DIAM DUIS";"FOUNDATION";"";"826-2444";"256-7704 Elit. Av.";"Den Helder";"Noord Holland";"Indonesia";"volutpat.Nulla@in.co.uk"
"E869A850-A976-5445-3F69-5EAF9883D811";"LACUS PEDE SAGITTIS";"INCORPORATED";"INC";"1-130-266-8298";"P.O. Box 646, 5316 Pede Rd.";"Anamur";"Mersin";"Turkmenistan";"cursus.diam@sed.ca"
"2C124F89-0177-2C1C-72AB-B61FDBEF7F77";"NULLA SEMPER TELLUS";"CORPORATION";"CO";"339-7340";"P.O. Box 794, 6415 In Avenue";"Bia?ystok";"Podlaskie";"Thailand";"imperdiet.dictum.magna@diam.edu"
"BE4F46CC-27EC-0107-9E28-16D919A8F126";"NON ENIM COMMODO";"LTD";"LLC";"909-5226";"Ap #490-1191 Justo Av.";"Banchory";"Kincardineshire";"Belize";"faucibus.orci@enim.org"
"2195763F-13FB-F24E-3413-E84F236B89BA";"VITAE SEMPER";"LLC";"LLC";"667-8758";"P.O. Box 929, 6871 Imperdiet Street";"Bama";"Borno";"Comoros";"Fusce@leoVivamusnibh.ca"
"BE928D80-14D4-0EA9-10A9-3460068E0004";"SEMPER NAM TEMPOR";"INSTITUTE";"INC";"1-475-763-1980";"Ap #939-2036 Et Rd.";"Valley East";"Ontario";"Italy";"sodales@erosnon.ca"
"B2641FEA-F175-BB94-D047-59EDBFCA5CFA";"RUTRUM MAGNA";"CORP.";"CO";"824-8168";"Ap #932-7133 Nullam St.";"Evansville";"Indiana";"Morocco";"Integer.id.magna@mieleifendegestas.org"
"4F245824-F698-EE39-8F0D-B660DA968656";"VEL QUAM";"ASSOCIATES";"";"1-318-412-5779";"2661 Dolor, Rd.";"Culemborg";"Gelderland";"Bonaire, Sint Eustatius and Saba";"et@Vivamusmolestiedapibus.co.uk"
"F82BB954-758E-5E50-F3C2-9F919210C753";"SOCIOSQU AD";"INSTITUTE";"INC";"553-6503";"735-8886 Odio St.";"Mezzana";"TAA";"Lesotho";"molestie@eget.net"
"D33B2A8D-B314-B497-E07D-F1923FE4A4B5";"MOLLIS VITAE";"LLP";"LLC";"431-6256";"Ap #801-8327 Laoreet, St.";"San Pablo";"Heredia";"Saint Helena, Ascension and Tristan da Cunha";"dictum@tempus.com"
"6220C7B3-96C7-0B72-B1A5-67AD90CE6AB7";"INTEGER EU LACUS";"COMPANY";"CO";"231-7169";"Ap #297-5014 Aliquam Ave";"Montebello";"QC";"Djibouti";"tincidunt@massaVestibulumaccumsan.com"
"34D8C513-6603-55FD-A668-4408F09421ED";"NULLAM UT NISI";"LIMITED";"LLC";"666-6854";"Ap #600-9460 Fringilla Street";"Tauranga";"North Island";"Benin";"neque.Sed.eget@posuere.net"
"D7C2D974-0EA8-05D5-EBD0-71B9318514A8";"SIT AMET";"INC.";"INC";"1-276-720-9707";"P.O. Box 233, 9304 Vehicula Rd.";"Flint";"Michigan";"Taiwan";"vitae@blanditmattisCras.co.uk"
"0BCC5B48-7A70-1F56-5660-75B45388B11B";"PENATIBUS ET MAGNIS";"CORP.";"CO";"588-2468";"Ap #498-7445 Eget Rd.";"New Plymouth";"NI";"Tunisia";"iaculis.quis@Vivamus.edu"
"0ECB8720-DBD4-DF97-B70B-12D2A6F0AE96";"MASSA VESTIBULUM";"LLP";"LLC";"398-1550";"Ap #563-7794 Amet, St.";"Vienna";"Wie";"Wallis and Futuna";"Phasellus.dolor.elit@nonsollicitudin.net"
"01C8284E-FCF8-AF51-92CF-6DCA5A7363E2";"VIVERRA";"FOUNDATION";"";"1-218-756-7238";"858-6349 Tempor Rd.";"Mataró";"Catalunya";"Antarctica";"ac@sedhendrerit.org"
"A21BFEC2-13B5-F633-5CC5-CDE8717FCA31";"NULLA MAGNA MALESUADA";"LTD";"LLC";"1-312-666-6010";"5059 Hendrerit. Rd.";"M?lin";"Waals-Brabant";"Mayotte";"et.netus@malesuadafringilla.com"
"06D726B1-441D-8BB1-3687-6082B7F909CB";"COMMODO AT LIBERO";"LIMITED";"LLC";"1-814-708-6717";"Ap #487-2395 Mollis. Rd.";"Roxburgh";"Roxburghshire";"Cyprus";"aliquet.lobortis.nisi@feugiatLoremipsum.co.uk"
"B9BF6E02-1AB4-DFAE-00C3-F6452F65D815";"UT MOLESTIE IN";"LTD";"LLC";"1-769-577-0136";"Ap #982-6780 Euismod Av.";"Townsville";"QLD";"Bahamas";"dolor.egestas@utsem.edu"
"85415D88-2BAD-FAF6-7D2D-F5E9B6344B99";"AMET CONSECTETUER";"CORP.";"CO";"(395) 362-0217";"6411 Diam Road";"Guápiles";"Limón";"Sri Lanka";"et.tristique.pellentesque@fringilla.org"
"84663057-AF0C-0F5E-7088-3870BCBF5917";"RUTRUM";"ASSOCIATES";"";"973-0984";"4920 Nibh Av.";"Upper Hutt";"NI";"Ireland";"bibendum.fermentum.metus@placerataugueSed.net"
"73992767-EFBC-9D95-6145-8200F9B42540";"ARCU";"ASSOCIATES";"";"438-2312";"451-7638 Blandit Rd.";"Essex";"VT";"Iraq";"aliquam.iaculis@tempusrisus.co.uk"
"5DA9B565-9B21-977B-709C-85F011AD60BD";"SED SEM";"CORPORATION";"CO";"489-3385";"Ap #616-6074 Scelerisque, Rd.";"Orlando";"FL";"Mexico";"egestas.nunc@mollis.com"
"EC05AA5B-97C1-0191-437F-3FA74C35064B";"VULPUTATE MAURIS SAGITTIS";"LLC";"LLC";"1-248-348-0571";"Ap #936-9813 Molestie Av.";"Forchtenstein";"Bgl";"Curaçao";"vel.est.tempor@sitametconsectetuer.co.uk"
"AFF45AA0-A6DF-1CA4-7B92-6F930DA1F0C8";"MASSA RUTRUM";"INC.";"INC";"(696) 408-7152";"Ap #427-1417 Ligula. Rd.";"New Plymouth";"NI";"Russian Federation";"mi@fringillapurusmauris.co.uk"
"CBB7AA0A-71AA-6DE3-4EDC-56BC249B33CC";"ERAT ETIAM";"PC";"";"229-2987";"Ap #698-5662 Feugiat Av.";"Istanbul";"Ist";"Costa Rica";"Ut@porttitorscelerisqueneque.net"
"236FE9FE-C958-FAF0-9A03-E5DBEA05C32A";"SODALES PURUS";"LTD";"LLC";"1-800-550-6070";"Ap #223-6603 Eu Av.";"Dublin";"L";"Costa Rica";"amet.lorem.semper@VivamusrhoncusDonec.co.uk"
"88D874EC-00D6-24FF-1F2B-8F3756D320D0";"PEDE";"LLP";"LLC";"1-818-836-4386";"P.O. Box 611, 1921 Pellentesque. Road";"Istanbul";"Ist";"Japan";"non.cursus.non@lectusjustoeu.net"
"CCFA7EFF-87D5-A4FD-597A-36DCB82E5FA3";"LEO";"LLC";"LLC";"351-7031";"727-3450 Magna Av.";"Sasaram";"Bihar";"Paraguay";"Quisque@lobortismaurisSuspendisse.org"
"54CA4BA0-37B8-28E4-610D-581F44319066";"METUS";"FOUNDATION";"";"737-8649";"2829 Sed Street";"San Pietro Mussolino";"VEN";"Armenia";"tempor@Duiscursusdiam.co.uk"
"81B21EC5-AED8-3E39-38A8-5AFB03128B65";"JUSTO EU";"LTD";"LLC";"400-4800";"7507 Sapien. Rd.";"Temuka";"SI";"Bolivia";"commodo.at.libero@gravida.edu"
"97FAA21C-A813-73DF-68A3-95F7DAD54B04";"MAURIS NULLA INTEGER";"PC";"";"507-2246";"347-3917 Rutrum, St.";"Winterswijk";"Gelderland";"Kyrgyzstan";"arcu.Morbi@fermentumrisusat.net"
"3CFE8D76-A1BC-9688-4992-4191D21FAF63";"ELEIFEND NEC MALESUADA";"LLC";"LLC";"1-929-295-8976";"4763 Eu Avenue";"Eindhoven";"Noord Brabant";"French Guiana";"sed@turpisAliquam.net"
"2E45882E-2807-1493-D8FD-E1A8C96E9A71";"SUSPENDISSE";"CONSULTING";"";"1-626-605-8877";"756-1590 Lobortis Rd.";"Russell";"Ontario";"Palestine, State of";"et.risus.Quisque@Praesenteu.co.uk"
"943B80F1-A52B-8D4A-5346-3845B5549782";"AT";"INDUSTRIES";"INC";"(859) 195-9991";"P.O. Box 700, 4305 Ut, Rd.";"Toru?";"KP";"Angola";"mollis.Integer.tincidunt@Quisquetinciduntpede.org"
"8056E49B-88F4-95DB-935D-30BDC1E60B1B";"ELEIFEND";"LIMITED";"LLC";"1-568-628-0971";"772-6020 Urna Ave";"Granada";"Andalucía";"Kazakhstan";"risus@Donecelementum.com"
"6EC6892C-ABEE-7588-E98A-6C7EDFDABAE5";"CONGUE IN SCELERISQUE";"FOUNDATION";"";"993-6837";"P.O. Box 196, 509 Sapien Road";"Sachs Harbour";"Northwest Territories";"Maldives";"Aliquam@nonummy.org"
"0C4EB898-A70C-F78C-26FD-6ED47E6DFAAA";"ERAT SED";"LIMITED";"LLC";"1776204";"P.O. Box 112, 5513 Non Street";"Warszawa";"MA";"New Zealand";"in.sodales.elit@Utsemper.co.uk"
"47273BC6-8DAE-4A89-1C52-80C887FEFA29";"MOLESTIE";"CORP.";"CO";"1-426-416-2906";"Ap #534-3832 Pellentesque Road";"Istanbul";"Istanbul";"Saudi Arabia";"augue@vel.com"
"9F8A43CB-9773-6E61-4384-E2722BD6B99D";"LOREM IPSUM";"CONSULTING";"";"1-231-897-7302";"292-8098 Taciti Ave";"Algeciras";"Andalucía";"Niger";"eros.turpis.non@mi.com"
"6A51B0B3-9AF7-1419-85EB-E286ACAFAC67";"ULTRICIES ORNARE";"LTD";"LLC";"1-861-706-4146";"9279 Arcu. St.";"Alajuela";"A";"Tonga";"purus.Nullam.scelerisque@ipsumcursusvestibulum.edu"
"102A09B9-A04B-4EC9-5796-1173A2E32B81";"EST AC FACILISIS";"COMPANY";"CO";"568-2106";"7286 Sapien Av.";"San Isidro";"San José";"Barbados";"enim.condimentum@purusMaecenas.edu"
"E8EC913B-C649-AF49-7E8D-A4F973DC15C5";"IPSUM PHASELLUS VITAE";"INC.";"INC";"783-2767";"380-3935 Non St.";"Maintal";"Hesse";"Korea, South";"Proin.sed@musAeneaneget.net"
"F369996E-567E-29A0-A9D7-CAC9065AE8EF";"ORNARE IN";"INC.";"INC";"1-344-368-0389";"2689 Ullamcorper. Avenue";"Bludenz";"Vorarlberg";"Åland Islands";"nec.enim@sit.net"
"016E7F7A-76F0-E9FE-A62D-9444D03DEC42";"ET";"INSTITUTE";"INC";"585-8851";"P.O. Box 632, 8562 Duis St.";"Vienna";"Vienna";"Viet Nam";"id.erat@quis.net"
"426A1470-211F-0D48-098F-D5182A95E1F6";"SUSPENDISSE SAGITTIS NULLAM";"LIMITED";"LLC";"298-1849";"Ap #385-3722 Nunc, Rd.";"Hyères";"Provence-Alpes-Côte d'Azur";"Cyprus";"arcu@accumsaninterdum.com"
"82FEFE05-7D96-0DF9-513E-3C4F05A4ADAB";"EGET VOLUTPAT ORNARE";"INC.";"INC";"820-4452";"P.O. Box 224, 2063 Morbi Rd.";"Cork";"Munster";"United Arab Emirates";"litora@arcueu.co.uk"
"0957D450-8DC9-C54C-BAA9-F7D5013FE059";"ARCU IACULIS ENIM";"ASSOCIATES";"";"(899) 184-2268";"568 Accumsan Road";"Mirzapur-cum-Vindhyachal";"UP";"Zimbabwe";"non@orciconsectetuer.org"
"F1B7FCB6-D3DD-D4DE-79CB-A3611F41F1B8";"PENATIBUS";"INC.";"INC";"547-5714";"Ap #256-3595 Dolor Rd.";"Belfast";"Ulster";"Philippines";"rutrum@sit.com"
"C3E43423-2ACD-13B2-5FF2-A0B1C1410ADB";"VITAE RISUS DUIS";"CORP.";"CO";"759-1304";"789-3815 In Av.";"Pozant?";"Adana";"Papua New Guinea";"ultrices.posuere@pede.ca"
"AC89B593-03AC-B066-69DE-3B1A4C9C3848";"AMET CONSECTETUER";"FOUNDATION";"";"1-563-937-0934";"5455 Faucibus Av.";"Roio del Sangro";"Abruzzo";"Laos";"metus.Vivamus.euismod@bibendumfermentum.co.uk"
"46D83125-F7F2-2081-8121-67F83CB8AE33";"PRAESENT INTERDUM LIGULA";"ASSOCIATES";"";"1-553-951-0662";"962-5268 Sed, Av.";"Sainte-Flavie";"QC";"Andorra";"mi.lorem.vehicula@ornareIn.com"
"0828A643-1560-9AD9-7953-5E0C09214146";"NON";"ASSOCIATES";"";"753-4685";"P.O. Box 910, 8256 In Ave";"Castel Guelfo di Bologna";"Emilia-Romagna";"Greece";"Nulla@velitdui.ca"
"6353CB4D-9929-BD25-4EE1-10F5ABB14776";"SCELERISQUE";"CONSULTING";"";"1-212-592-1095";"436-8597 Et, St.";"Springfield";"MA";"Pakistan";"cursus.Nunc.mauris@nulla.net"
"2172BDFB-FF3E-2A68-064B-4DAC507958F9";"ORNARE SAGITTIS FELIS";"INC.";"INC";"(806) 152-3791";"P.O. Box 332, 590 Phasellus Rd.";"Gorinchem";"Z.";"Antarctica";"sit.amet@eratnequenon.co.uk"
"D116B674-4B1E-4D95-12C2-3BE4873C14BE";"ENIM NON";"FOUNDATION";"";"301-1037";"P.O. Box 324, 7767 Duis Ave";"Lagos";"LA";"Western Sahara";"Etiam.vestibulum@at.edu"
"ABB50530-27E3-0F16-1B2F-64042C73C593";"SAGITTIS LOBORTIS";"CORP.";"CO";"412-5092";"Ap #747-3872 Eleifend Road";"Flushing";"Zeeland";"Luxembourg";"fermentum@ullamcorperDuis.com"
"1A4E41E2-41AE-735B-4D0B-87CDDDCAA4E0";"SAPIEN CRAS DOLOR";"FOUNDATION";"";"1-177-579-5460";"P.O. Box 805, 4866 Dictum Avenue";"Évreux";"Haute-Normandie";"Tunisia";"Donec.est@diamvelarcu.net"
"E4F4962E-71BA-A8A8-E1E5-AB8510E3B576";"QUAM VEL SAPIEN";"ASSOCIATES";"";"772-2996";"P.O. Box 350, 3573 Nunc. Ave";"Galway";"C";"Kiribati";"sed.turpis.nec@eros.edu"
"9060B6C6-D380-5AEF-0667-DB133EC4859A";"NEQUE NULLAM";"LIMITED";"LLC";"1-190-884-4791";"Ap #767-8136 Posuere St.";"Cambrai";"Nord-Pas-de-Calais";"Christmas Island";"non.lorem@Nullamvelit.net"
"34BC8DC1-ECC8-95BD-9298-AB9B4B65E834";"ID";"LLP";"LLC";"822-6573";"627-5489 Sed Road";"Keumiee";"NA";"Suriname";"adipiscing.Mauris@elitCurabitursed.ca"
"AB3D9B41-9078-504A-BF39-791CE052935E";"DICTUM MAGNA";"INC.";"INC";"329-7561";"969-1649 Pellentesque St.";"Huesca";"Aragón";"Thailand";"dui.nec@Mauris.ca"
"2CF010C7-5980-3BEF-0888-55CBA7D32D7A";"URNA";"COMPANY";"CO";"1146660";"452-3585 Suspendisse Rd.";"Harlow";"ES";"Australia";"tempus@fermentumvel.net"
"5E57E98A-830B-CEAD-629C-C50FD594E461";"METUS FACILISIS";"LLP";"LLC";"1-244-493-9579";"631-2731 Natoque Road";"San José";"San José";"Palau";"dapibus.rutrum.justo@Vivamus.com"
"EEB60090-3925-F6EC-5DE3-23DA11C5B159";"NEQUE";"LLP";"LLC";"279-8689";"P.O. Box 421, 9234 Sagittis. Avenue";"K?dzierzyn-Ko?le";"OP";"Jamaica";"Vivamus@etpedeNunc.ca"
"08EB2DE9-82A6-901E-C4DA-DC324BE9FAD9";"JUSTO";"LTD";"LLC";"400-9517";"P.O. Box 289, 5909 Mattis St.";"Ravenstein";"N.";"Madagascar";"dictum@est.ca"
"6A381912-48CA-1F0D-A9BB-71C2DDE127C8";"SIT";"LTD";"LLC";"670-3716";"7995 Nascetur St.";"Belo Horizonte";"Minas Gerais";"Vanuatu";"arcu.Curabitur@FuscefeugiatLorem.ca"
"2C27DF28-DAFE-47E2-837D-A750EB632B69";"NULLA";"PC";"";"(858) 196-3770";"Ap #275-2897 Sit Rd.";"Carapicuíba";"SP";"Tonga";"Morbi.metus@inmagnaPhasellus.co.uk"
"18FE4337-9A3F-0255-76EC-A88E0DE10F58";"INTEGER EU";"LIMITED";"LLC";"1-272-938-2595";"1664 Molestie Road";"San Rafael";"A";"Oman";"dui.quis@nunc.co.uk"
"B3406085-49C4-923C-E167-CFABD2C0828A";"ENIM MAURIS QUIS";"FOUNDATION";"";"470-3877";"239-6170 Risus. Avenue";"Kontich";"Antwerpen";"French Polynesia";"orci.adipiscing@eleifendnunc.co.uk"
"76B7A755-F44D-0752-D712-F47415916FBA";"CRAS PELLENTESQUE SED";"LTD";"LLC";"1-432-962-3110";"792-8251 Pellentesque Street";"Vienna";"Wie";"Viet Nam";"Duis@inaliquetlobortis.net"
"3A8298DC-87A6-CB49-D96A-363FB4C8ED8F";"AUGUE MALESUADA";"LLC";"LLC";"1-404-325-3803";"737 Ligula Street";"Mielec";"Podkarpackie";"Saint Kitts and Nevis";"sem.consequat.nec@Nullaegetmetus.co.uk"
"26EF8191-A7BA-2B54-DA16-720FDC60DB01";"SED LEO CRAS";"INDUSTRIES";"INC";"1-653-513-0518";"406-4692 Ipsum Av.";"Vitrolles";"Provence-Alpes-Côte d'Azur";"Guinea-Bissau";"Cum@Maurisnon.com"
"980E0E38-A019-1A33-BEB7-03CBBDD0022A";"PHARETRA QUISQUE AC";"LIMITED";"LLC";"766-1966";"9400 Sit Road";"Katsina";"Katsina";"Ecuador";"sapien@Inmipede.ca"
"6D8C58B2-0C4B-BFB8-8743-5C70145E2735";"DONEC EST";"CORP.";"CO";"1778183";"Ap #142-7205 Dapibus Rd.";"Russell";"ON";"El Salvador";"neque.Morbi.quis@vestibulum.co.uk"
"7D299D3C-3B43-BED5-44E0-6B06AA2909B3";"VEL";"LLC";"LLC";"430-1117";"7713 Molestie St.";"Bloomington";"MN";"Pakistan";"rhoncus@accumsanlaoreet.net"
"647FDA63-91D5-579C-531F-02A2F8B304D5";"UT NULLA";"LLC";"LLC";"345-5854";"Ap #533-3185 Velit. St.";"Vienna";"Vienna";"Saint Kitts and Nevis";"luctus@nonmagnaNam.co.uk"
"A7C1375E-F0F2-9D28-370E-AB6AC7386778";"NEC";"INSTITUTE";"INC";"254-5526";"8339 Nulla. Av.";"Funtua";"Katsina";"New Caledonia";"augue@odioNam.ca"
"8F97FCA8-EE51-9016-A47A-7DB1ED63E28F";"NULLA EGET";"LTD";"LLC";"1-324-727-6820";"6011 Sed Rd.";"Bregenz";"Vbg";"Trinidad and Tobago";"nulla@penatibuset.net"
"3EA7E208-A595-57C0-499E-88830FA7C96B";"JUSTO";"LTD";"LLC";"644-3753";"587-2343 In Rd.";"Dublin";"Leinster";"Gambia";"sit@et.net"
"E3AA9211-925A-EF81-107C-D1D943C17208";"LECTUS";"CONSULTING";"";"1-129-514-4435";"117-656 Nec Ave";"Mauá";"São Paulo";"Equatorial Guinea";"diam.at@eratvel.net"
"2B393F20-5D33-BCD0-F6CA-27A70025A19C";"MAURIS VEL TURPIS";"INCORPORATED";"INC";"317-7500";"Ap #756-8527 Aenean Street";"Dunedin";"South Island";"Bolivia";"euismod@at.edu"
"838EBA93-F781-E4F2-A297-442D59C5A111";"MAGNA";"LIMITED";"LLC";"834-1855";"7615 Fringilla St.";"West Jordan";"Utah";"New Zealand";"ornare.lectus.justo@magna.net"
"111D1EE5-1279-35FC-AF24-1D67E65F310E";"PEDE SUSPENDISSE DUI";"LIMITED";"LLC";"1-915-760-8068";"798-1845 Ridiculus Avenue";"Anchorage";"AK";"Netherlands";"egestas.a@feugiatmetussit.ca"
"DCFECCD6-5E04-1E70-340D-2F8D2392E07B";"MAURIS IPSUM PORTA";"CORPORATION";"CO";"1-624-315-9233";"Ap #950-1415 Risus Rd.";"Torchiarolo";"Puglia";"Guinea";"metus.facilisis.lorem@orcilobortis.org"
"46EA080D-158C-1E6F-234F-3AD9D75F1332";"PRAESENT";"INC.";"INC";"1902052";"2332 Et Rd.";"Dublin";"Leinster";"Netherlands";"Nulla.interdum.Curabitur@CurabiturdictumPhasellus.ca"
"54C92842-F6D3-0EF6-BB4C-101050C86592";"ODIO ALIQUAM VULPUTATE";"LLC";"LLC";"988-5707";"Ap #122-1354 Mi Street";"Izmir";"?zmir";"Guadeloupe";"tempor.erat@Mauris.com"
"C5B5070A-5A4C-7786-91A9-AEBF055045C0";"SEM";"INSTITUTE";"INC";"306-9957";"837-9681 Velit Rd.";"Mondolfo";"MAR";"Taiwan";"Cras@anteNunc.edu"
"E3479D72-2024-2021-4799-589DA00860AE";"SCELERISQUE";"INSTITUTE";"INC";"1-768-834-0904";"Ap #251-8344 Tincidunt. Av.";"Burhaniye";"Bal";"Madagascar";"a.neque.Nullam@netusetmalesuada.net"
"43F41DDC-1593-C25A-68D0-0706CC26854F";"LACUS PEDE SAGITTIS";"LLP";"LLC";"1-745-664-4951";"Ap #858-2670 Ante St.";"Sète";"Languedoc-Roussillon";"Ghana";"ridiculus.mus.Proin@leo.com"
"A2918E0D-09DC-8C5C-151E-9CE8AD1B33C8";"ELIT PRETIUM ET";"LLP";"LLC";"1792422";"Ap #722-6507 Fermentum St.";"Huppaye";"WB";"Poland";"molestie.sodales.Mauris@consequatdolor.edu"
"04C5C0A6-D9BC-6B27-1A95-EC6487F60484";"LUCTUS ET";"COMPANY";"CO";"1-118-348-4018";"944-2014 Felis. St.";"Koningshooikt";"Antwerpen";"Bahrain";"semper@ipsum.edu"
"8B93095F-AB3D-B8AC-FE34-B58361153647";"FACILISIS FACILISIS MAGNA";"LLC";"LLC";"688-0106";"P.O. Box 851, 2232 Sed Road";"Hamburg";"Hamburg";"South Africa";"purus@lectusNullam.ca"
"DDA7320C-01F8-3AA3-1F51-3B75748DA7FD";"A";"INDUSTRIES";"INC";"1-501-720-3659";"6014 Risus. Road";"Columbus";"OH";"Palau";"Donec@aliquam.ca"
"E921647F-A12E-4BBC-39B5-6F0197799FDE";"MAURIS";"LTD";"LLC";"580-7623";"P.O. Box 591, 586 Imperdiet, Road";"Sint-Kruis";"West-Vlaanderen";"Japan";"quam.Pellentesque@ultriciesdignissim.net"
"A743923B-C002-911A-9AB4-999057B25DE8";"NUNC";"CONSULTING";"";"1-553-328-2311";"2740 Risus. Road";"Ketchikan";"Alaska";"Bahamas";"Sed@mi.ca"
"46DEEA6E-0E2B-D709-8A29-10B074E9BB02";"A";"CONSULTING";"";"1-187-420-9331";"Ap #132-6424 Sed Avenue";"Ogbomosho";"Oyo";"Palau";"sit.amet.dapibus@nonnisiAenean.net"
"9FEA467B-D0CC-E99E-6A87-658954DF2C82";"VELIT EGET LAOREET";"PC";"";"845-1807";"7984 Enim. Ave";"Baricella";"Emilia-Romagna";"Croatia";"Phasellus@Sedeu.com"
"DEBADA51-239B-0057-2D7C-95A343836596";"QUISQUE LIBERO";"LIMITED";"LLC";"983-7536";"P.O. Box 612, 605 Sem, Road";"Arsiè";"Veneto";"Moldova";"tortor@dui.co.uk"
"E1A14F9C-1B08-CEC0-B407-03AFF62D2E17";"VITAE ODIO SAGITTIS";"ASSOCIATES";"";"1-631-384-1446";"127-8693 Lobortis St.";"Bangor";"Maine";"Dominica";"dui@Quisquenonummyipsum.net"
"6649B43C-1830-032E-3FEB-CA63EFB3A59B";"CONDIMENTUM";"LIMITED";"LLC";"1-620-840-8910";"Ap #892-1290 Ut Avenue";"Rocca San Felice";"Campania";"Japan";"Cras.vehicula.aliquet@blandit.edu"
"636E74EF-A408-1699-FE9C-4C2ABDC37944";"ORCI LUCTUS ET";"COMPANY";"CO";"1-941-643-5746";"Ap #175-6937 At St.";"Casper";"WY";"Monaco";"sed.leo@nascetur.org"
"BD7624DE-93DF-0E8E-AD2C-C1C7320282AD";"DOLOR NONUMMY AC";"INCORPORATED";"INC";"1-245-379-9212";"781-8925 Velit St.";"Matamata";"North Island";"Wallis and Futuna";"conubia@semper.co.uk"
"A6AEEEBF-E5FF-C20E-507D-E5639E01DDE7";"PURUS NULLAM";"LLC";"LLC";"533-9133";"Ap #999-378 Sociis Road";"Brandon";"Manitoba";"Uganda";"commodo@mauriseuelit.co.uk"
"A63CA9AD-18AB-DC98-290A-42E2885C900D";"ODIO ALIQUAM VULPUTATE";"COMPANY";"CO";"399-3996";"1884 Ipsum Street";"Murdochville";"QC";"Norway";"in@sociis.edu"
"A922C52F-C179-8BFE-089B-D20EBE8B9B4D";"LIGULA NULLAM FEUGIAT";"LLC";"LLC";"367-3394";"P.O. Box 683, 3795 Pharetra Rd.";"Richmond";"Virginia";"Swaziland";"ad@enimNuncut.co.uk"
"C1B55AE1-CD3A-8075-20A1-69EDBC17D9A7";"PURUS MAURIS";"LIMITED";"LLC";"(499) 526-9522";"P.O. Box 824, 3086 Vivamus Road";"Heredia";"H";"Greenland";"vel@necmalesuada.net"
"53996953-21FF-B8DE-C689-4C58BFFE6489";"LEO ELEMENTUM";"LIMITED";"LLC";"731-9167";"179-8452 Consequat Avenue";"Galway";"Connacht";"French Southern Territories";"tellus@Pellentesquehabitantmorbi.org"
"ECB86161-1592-752B-02E1-046C1E329DC6";"LACUS ALIQUAM";"INSTITUTE";"INC";"1-646-877-5102";"Ap #868-6911 Orci Ave";"Colombo";"Paraná";"Brazil";"sagittis.Duis@pulvinar.com"
"5F46AA30-EA3A-8B76-C4A3-D550B5E5943C";"METUS AENEAN";"INC.";"INC";"1173879";"P.O. Box 142, 1906 Nulla Av.";"Dublin";"L";"Libya";"id.libero.Donec@sagittis.com"
"D93F50A9-5ED5-1DD1-CFA9-AA0FD91937C4";"QUIS";"CONSULTING";"";"1-345-721-6042";"P.O. Box 665, 5065 Diam St.";"Vienna";"Wie";"Saint Kitts and Nevis";"vehicula.et.rutrum@Duis.com"
"F5D73AEC-8128-DB2A-5122-CAF1922C1455";"NEC ANTE BLANDIT";"INSTITUTE";"INC";"1-600-637-6670";"942-4135 Vel Ave";"Midlands";"Ontario";"Mayotte";"est.arcu.ac@seddictum.net"
"1888C5D7-8096-8F0D-E104-543DA42CC8FC";"PEDE";"INCORPORATED";"INC";"1895194";"P.O. Box 813, 6746 Nunc Road";"Sluis";"Zl";"Madagascar";"neque.Sed@Vestibulumut.com"
"7561309C-C829-88B2-1357-7B5167736112";"PORTTITOR TELLUS NON";"LTD";"LLC";"211-7520";"7181 Sagittis Ave";"Sokoto";"Sokoto";"Western Sahara";"et@dolornonummy.net"
"FDCF7785-5E21-09ED-F230-A7CE93D2E331";"SIT AMET CONSECTETUER";"INC.";"INC";"368-6949";"4678 In Road";"Ettelgem";"WV";"Botswana";"sem@vestibulum.edu"
"8FA86230-311B-4F68-5B30-AEA2A163658B";"ARCU ET PEDE";"LIMITED";"LLC";"1-147-297-0955";"Ap #143-9938 Auctor, St.";"Lanester";"Bretagne";"Nigeria";"nulla.Donec.non@faucibuslectus.org"
"6CE98558-8B7B-065E-9777-85A8A3566D23";"TINCIDUNT ADIPISCING";"INC.";"INC";"517-5963";"888-3643 Semper Rd.";"Mercedes";"Heredia";"Luxembourg";"et.ultrices.posuere@semelitpharetra.org"
"3B3BE751-5E1A-8DA8-770F-EF8B45B8F486";"EGET";"ASSOCIATES";"";"1-313-288-6148";"515-7479 Non Street";"Keith";"BA";"Zambia";"ligula@egetlacusMauris.net"
"4C08FD2D-DE95-ED15-9081-18CF67985874";"UT LACUS";"LLP";"LLC";"1-872-910-9641";"582-3140 Magna Street";"Galway";"Connacht";"Bahamas";"vitae@in.net"
"26E6C2F9-D70D-98A2-4537-F1266D508622";"AENEAN";"INC.";"INC";"1-657-888-9494";"716-8286 Pharetra Rd.";"Greater Sudbury";"Ontario";"Barbados";"aliquam.adipiscing.lacus@euismod.ca"
"75C11099-0D73-ED13-FA3D-F682A6856E88";"METUS";"INC.";"INC";"850-2767";"Ap #525-338 In Avenue";"Dunkerque";"Nord-Pas-de-Calais";"Montenegro";"Suspendisse.dui@atvelitCras.ca"
"FA07D5E7-3A96-DA81-0F1C-9663C2C4585D";"IPSUM";"INCORPORATED";"INC";"(291) 881-2155";"P.O. Box 857, 3320 Et, St.";"Calle Blancos";"SJ";"French Guiana";"lacinia.orci@fringillamilacinia.net"
"13147174-BBBF-A188-A4E2-F155BA08ED6B";"MASSA LOBORTIS";"COMPANY";"CO";"1102788";"557-4088 Elit Rd.";"Luik";"LU";"American Samoa";"magna@ante.org"
"97EFF239-2D2C-67C5-B190-BF953B92AAB7";"ULTRICES";"PC";"";"858-1083";"8040 Malesuada. Road";"Clovenfords";"Selkirkshire";"Algeria";"egestas.blandit.Nam@dictum.com"
"002E79C7-F899-8E7D-19E5-9010B97CCDB5";"VELIT SED MALESUADA";"INSTITUTE";"INC";"1-126-562-2788";"P.O. Box 391, 1799 Et, Ave";"Kester";"VB";"Malta";"Ut.semper.pretium@Maurisvelturpis.net"
"C5C1FA41-9384-0010-A592-5F265F19949A";"FAUCIBUS ORCI";"LLP";"LLC";"523-3692";"883-2563 Auctor Av.";"Gjoa Haven";"NU";"Congo (Brazzaville)";"et.ultrices.posuere@hymenaeos.org"
"191A50A6-0150-5703-0159-1B6147133988";"TINCIDUNT PEDE";"LIMITED";"LLC";"812-1778";"P.O. Box 234, 9173 Volutpat St.";"Saint-Herblain";"PA";"Heard Island and Mcdonald Islands";"Fusce.aliquam.enim@nibh.edu"
"72E2EE71-0893-9BA9-D6C6-BD27E7DFB2EE";"FAUCIBUS";"CORP.";"CO";"1-956-496-2563";"816-5561 Arcu. Avenue";"Evansville";"Indiana";"France";"nascetur.ridiculus.mus@suscipitestac.edu"
"29AD38BE-ECDD-D43A-DDDE-477BB9822004";"ORNARE EGESTAS LIGULA";"CONSULTING";"";"1-190-854-7953";"Ap #327-9910 Fringilla Ave";"Pune";"MH";"Serbia";"accumsan.convallis@Nunc.net"
"35CB0159-483F-569F-0CF0-E9AE9D43F1CC";"VELIT SED";"CORPORATION";"CO";"920-1246";"Ap #363-342 Cursus. St.";"Halisahar";"West Bengal";"United Kingdom (Great Britain)";"Proin.mi.Aliquam@enim.edu"
"C9788CA9-843C-1553-F25B-5850B6619A45";"POSUERE ENIM";"PC";"";"1-152-258-6625";"P.O. Box 620, 3419 Risus. Street";"Osasco";"São Paulo";"Liechtenstein";"massa.lobortis.ultrices@ultriciesadipiscingenim.com"
"7C3636F9-D2DE-8A7C-1B2E-F979984276C7";"NUNC";"COMPANY";"CO";"917-9658";"Ap #417-5474 Dis Rd.";"Dar?ca";"Koc";"Spain";"nisl.elementum.purus@Aliquameratvolutpat.com"
"86B39872-C435-F6F4-8576-B332AF8A4A95";"LOBORTIS";"LLP";"LLC";"1-879-639-2480";"Ap #756-3994 Ornare Rd.";"Queenstown";"South Island";"Central African Republic";"fringilla@fermentum.co.uk"
"1E7D1F2B-2A07-6A3C-C36F-6D7DCC39F53D";"ULLAMCORPER DUIS CURSUS";"ASSOCIATES";"";"1-917-393-5448";"566-702 Nam Ave";"Wellingborough";"NT";"Aruba";"ullamcorper@tincidunt.com"
"7125AF76-6955-BFDB-A06E-0E7CF2E3F58A";"PARTURIENT MONTES";"COMPANY";"CO";"(290) 511-0842";"863-7430 Ut Rd.";"Fuenlabrada";"MA";"Sierra Leone";"luctus.ut.pellentesque@sodalesMaurisblandit.com"
"40A0A41D-291A-FA90-DFF0-B36575005514";"FUSCE";"COMPANY";"CO";"446-3780";"8918 Mauris St.";"Veere";"Zl";"Guernsey";"Sed@massa.org"
"EF62BA0D-D938-7B89-51A4-64E8977516DB";"ALIQUET PHASELLUS FERMENTUM";"CORPORATION";"CO";"1-469-395-2253";"P.O. Box 248, 6447 Elit. Rd.";"Waiheke Island";"NI";"Egypt";"lectus@urna.net"
"B51E0A16-68BE-FACF-988B-BC90B031B1D7";"MI";"INC.";"INC";"525-3164";"167-3839 Ut Rd.";"Raurkela";"OR";"Saint Kitts and Nevis";"sed@Suspendissenon.ca"
"D08390C4-BB1D-EE83-A02F-CA645919310A";"AMET METUS";"FOUNDATION";"";"1544443";"Ap #345-5434 Elementum Street";"Canoas";"RS";"Martinique";"ad.litora@magnisdisparturient.ca"
"6520C749-8BB9-62F5-F713-81C75DD7A07B";"SUSCIPIT NONUMMY";"LLP";"LLC";"987-2788";"7347 Pede. Avenue";"Lokeren";"OV";"Montserrat";"amet.nulla.Donec@nonloremvitae.edu"
"2CAC840A-F4C2-2EE5-B41F-D8C4A8438172";"AC LIBERO";"CONSULTING";"";"1-423-903-5848";"5655 Vestibulum St.";"Wetaskiwin";"AB";"Italy";"tincidunt.congue.turpis@massa.com"
"2426E62C-FC99-C1DC-2CBB-8C3E5D9869F5";"SIT AMET";"COMPANY";"CO";"768-0630";"822-569 Pharetra St.";"Berlin";"BE";"Iraq";"risus.odio.auctor@eu.com"
"5FAACD5A-2AFE-335C-D751-4247C0B6D495";"SED EU";"INDUSTRIES";"INC";"1-656-415-7355";"Ap #973-9044 Eget Rd.";"Siquirres";"Limón";"Cameroon";"diam.Duis@sempercursusInteger.org"
"0AF6B84C-00DB-2E5A-4FE2-9F9200672F94";"PELLENTESQUE";"ASSOCIATES";"";"(582) 177-0552";"Ap #707-2782 Mauris Street";"Terneuzen";"Zeeland";"Åland Islands";"justo.faucibus@sollicitudinadipiscingligula.co.uk"
"8BF6BEE1-9535-7F6D-D80C-560D12948DF9";"LACINIA MATTIS INTEGER";"FOUNDATION";"";"1-208-686-0271";"Ap #552-4870 Habitant Street";"Putignano";"Puglia";"Antarctica";"Etiam@enimEtiam.com"
"82E86A62-9179-0EEF-4AB3-2A729DEC7312";"ET";"INSTITUTE";"INC";"1463888";"5918 Vel St.";"Belfast";"U";"Kyrgyzstan";"metus.Aenean@ultricesposuerecubilia.net"
"3C5E8C4E-1015-BCF5-4890-F746C2092A86";"EST MOLLIS NON";"INDUSTRIES";"INC";"936-4999";"357-5532 Aenean Rd.";"Konin";"Wielkopolskie";"Austria";"tortor.dictum.eu@nec.net"
"81318086-85E9-4262-9EF1-DB6CA5490E89";"AUCTOR QUIS TRISTIQUE";"INDUSTRIES";"INC";"1-480-339-0780";"684-3787 Tristique Rd.";"Cannes";"Provence-Alpes-Côte d'Azur";"Tanzania";"quis.lectus@magnaa.com"
"C0DCD3CD-C891-962C-41C9-C65CED871ED5";"VITAE";"LLP";"LLC";"1-602-515-1185";"P.O. Box 284, 8851 Id St.";"Katowice";"Sl?skie";"Northern Mariana Islands";"lorem@acfacilisis.org"
"CBCCDECD-94A3-D4E1-5412-EE94CFEF2E3E";"AT LIBERO";"CORP.";"CO";"1-958-641-1726";"374-971 In Avenue";"Mersin";"Mersin";"Botswana";"sagittis.semper@dignissimlacus.edu"
"08533C65-0994-E2FF-A83D-95397A81007B";"NATOQUE PENATIBUS ET";"CORPORATION";"CO";"606-6716";"P.O. Box 633, 902 Arcu. Avenue";"Ife";"Osun";"Algeria";"dolor.Quisque.tincidunt@ligula.com"
"544AA7E1-7334-0408-1B6A-5E5D028F3393";"ELIT";"INC.";"INC";"521-4755";"P.O. Box 283, 7956 Blandit Av.";"Istanbul";"Ist";"French Southern Territories";"risus.varius@lobortis.co.uk"
"30258D82-F634-7F31-BF20-6031012409A5";"QUAM";"LLP";"LLC";"1-253-682-6480";"Ap #357-8130 Cursus. Rd.";"Berlin";"Berlin";"Malta";"eu@sedleoCras.com"
"185DA0B0-CE54-BB98-A722-C846388ECE7C";"LAOREET POSUERE ENIM";"INDUSTRIES";"INC";"435-8054";"Ap #513-3747 Aliquam St.";"Berlin";"Berlin";"Netherlands";"sem.mollis@rutrumeuultrices.org"
"BD9C14D0-2D13-9084-8584-3CFA3D825F64";"PURUS";"CONSULTING";"";"1-566-491-1794";"Ap #105-9183 Eget, Rd.";"Rio de Janeiro";"RJ";"Dominica";"id@orciUtsagittis.com"
"C5AC70A4-E411-8110-B93F-D1FAADA6EEAE";"SUSPENDISSE";"LLP";"LLC";"1-572-413-3454";"5286 Scelerisque Road";"Lienz";"Tir";"South Sudan";"vulputate.velit@scelerisque.net"
"7AE1D086-30FA-169A-5628-2D6E3A53361F";"CURSUS A ENIM";"LIMITED";"LLC";"958-3661";"594 Pellentesque Av.";"Pike Creek";"Delaware";"Kenya";"facilisis@orcilacus.net"
"4EB1CC1B-EBBB-4EC5-A483-547FE31C1F9D";"ANTE IPSUM";"INCORPORATED";"INC";"1-155-232-4345";"6901 Pharetra. Street";"Wanganui";"NI";"South Sudan";"egestas.a@maurisaliquam.com"
"F61AA6E6-9E15-E686-6B80-93D80ADE3341";"QUISQUE VARIUS";"FOUNDATION";"";"1-168-301-9570";"999 Erat St.";"Wanganui";"North Island";"Azerbaijan";"Ut.tincidunt@pede.org"
"52E62D6D-A807-CB66-1442-7E46F6FC7146";"NON HENDRERIT ID";"INC.";"INC";"(258) 129-0678";"601-6458 Quisque Av.";"Lowestoft";"Suffolk";"Åland Islands";"nonummy.ultricies.ornare@habitant.ca"
"5450D513-2DBF-D5DC-6DEC-4D5E6ADA083B";"AC URNA";"PC";"";"(992) 509-2517";"546-1586 Elit, Rd.";"Colchester";"Vermont";"Saudi Arabia";"neque.sed@Crasdictumultricies.org"
"973F17C3-8AEB-7123-2169-FC7F68EED94C";"AMET ORCI UT";"PC";"";"763-9825";"784-4030 Mauris Rd.";"Blehen";"Luik";"Bhutan";"rhoncus.Donec.est@libero.com"
"8610C775-1F4F-329C-294F-EBBE7A1C19FC";"EGESTAS";"LIMITED";"LLC";"1-300-483-5502";"622-3487 Dolor. Ave";"Nova Iguaçu";"Rio de Janeiro";"Saint Lucia";"malesuada@acmattis.net"
"06621A12-8B6E-D04C-5905-749B1A53A071";"ELIT PRETIUM ET";"LTD";"LLC";"1-488-807-0862";"Ap #734-5834 Euismod Road";"San Vicente";"San José";"Sweden";"risus.Duis.a@Sed.com"
"73F0A06B-20AB-E2BF-8DB5-570974B639DB";"ID RISUS";"LTD";"LLC";"278-9770";"4669 Id, Road";"Taupo";"North Island";"Qatar";"interdum.ligula@enimdiamvel.co.uk"
"6CD0C62A-4F08-5E9A-6A43-7583FB805FF1";"URNA";"CORPORATION";"CO";"1-302-985-2248";"9751 Porttitor Avenue";"Sokoto";"Sokoto";"Tonga";"amet@Etiamgravida.ca"
"F26E635A-58BF-3E22-B606-8CBC741EB844";"EU ELEIFEND NEC";"FOUNDATION";"";"329-9922";"Ap #414-7253 In Av.";"Sikar";"RJ";"Portugal";"elit@adipiscingelit.edu"
"287B4072-E002-792A-7EDC-0DAE015A8755";"CONSECTETUER";"PC";"";"1-564-720-5016";"275-5658 Nonummy Av.";"Donosti";"Euskadi";"Malawi";"amet@lacus.co.uk"
"7D3F7417-FA67-E67A-500F-080B82229B31";"MORBI ACCUMSAN LAOREET";"INCORPORATED";"INC";"873-1358";"P.O. Box 828, 7618 Proin Road";"Funtua";"KT";"Antarctica";"egestas@penatibusetmagnis.net"
"A2AB3562-5D74-720A-C41B-4E53AE104AFC";"SED TORTOR";"FOUNDATION";"";"532-7934";"Ap #132-1409 Nulla Av.";"Tarragona";"Catalunya";"Gabon";"dapibus@quispedeSuspendisse.co.uk"
"C2A120D6-7B76-6EFD-B05D-D5B36C0FC28C";"ORNARE";"PC";"";"1-718-214-9889";"891-512 Est. St.";"Siedlce";"Mazowieckie";"Guyana";"nascetur.ridiculus@posuere.co.uk"
"1190422B-A0BA-9C70-B73C-ED304744A1F2";"VIVAMUS SIT AMET";"INDUSTRIES";"INC";"1-175-309-9481";"P.O. Box 124, 9589 Nunc Av.";"Terneuzen";"Zl";"Heard Island and Mcdonald Islands";"Nullam.vitae.diam@enimsitamet.co.uk"
"EFB5704B-69A3-B0CA-CF6C-27323D17C106";"PELLENTESQUE EGET";"INDUSTRIES";"INC";"1-466-774-4828";"Ap #131-8705 Nulla Av.";"Cork";"M";"Sudan";"amet.diam.eu@tellus.org"
"090A97E5-BC83-B873-FFF3-A1B1FC89AF8B";"EROS";"LLC";"LLC";"764-2379";"P.O. Box 404, 140 Et, Avenue";"Hertford";"Hertfordshire";"Algeria";"orci.Ut@eratvolutpat.net"
"26140520-2FB3-620B-01C5-F7CE218D57A5";"DOLOR NULLA SEMPER";"LIMITED";"LLC";"(793) 869-5045";"P.O. Box 380, 3611 Nascetur Road";"Bidar";"Karnataka";"Norfolk Island";"amet.metus@sedorcilobortis.org"
"D5A485D0-DD83-E6C2-234B-E20BB99C94AA";"ID MOLLIS";"FOUNDATION";"";"969-3113";"Ap #367-2448 Elit, Avenue";"Harrisburg";"Pennsylvania";"Albania";"mattis.Integer.eu@pede.com"
"4092EFCA-D6DE-0686-1C17-821F1F8AB912";"DONEC EGESTAS ALIQUAM";"LLC";"LLC";"1-806-820-3473";"P.O. Box 193, 3869 Nullam St.";"Bursa";"Bur";"Mauritius";"consectetuer.cursus@Maurismolestiepharetra.org"
"405EF3E8-E965-EBC8-CE99-61220A642095";"AUGUE EU TEMPOR";"LLC";"LLC";"1-833-998-7092";"P.O. Box 919, 9169 Nam St.";"Vienna";"Vienna";"Swaziland";"quis.lectus@Fuscediam.com"
"3E18A352-F750-7D14-F629-A4BC6B8AB2EF";"AC ARCU NUNC";"INSTITUTE";"INC";"1-948-695-7082";"2413 Mus. Road";"Gulfport";"MS";"Guernsey";"iaculis.nec.eleifend@enim.co.uk"
"3462F2F1-99E2-11F2-392F-D8253CA4858E";"DONEC";"INC.";"INC";"1-915-314-4501";"1364 Quisque Av.";"Cobourg";"Ontario";"Cyprus";"dolor.Nulla@tristiqueneque.net"
"07F69F52-F42C-8526-A7B8-BAF501C9BDEE";"DONEC";"INCORPORATED";"INC";"954-6007";"196-1530 Morbi Rd.";"Den Helder";"Noord Holland";"Myanmar";"gravida.Aliquam@dictumultricies.edu"
"8A5721A0-5581-40E2-BE5C-757E85B04D83";"DIGNISSIM LACUS";"PC";"";"1-253-537-4748";"Ap #761-2779 Sed Street";"S?upsk";"PM";"Sweden";"tincidunt@enimNuncut.edu"
"9C619800-2AF3-A887-444E-770986D481DD";"TORQUENT";"INDUSTRIES";"INC";"1-435-704-8967";"726-9168 Sagittis Street";"Zutendaal";"L.";"Andorra";"Nunc@ligulaconsectetuer.com"
"0467CCA3-34B3-002C-364A-F90E2230D40F";"SAPIEN IMPERDIET ORNARE";"CONSULTING";"";"1-614-865-4863";"P.O. Box 947, 5996 Ornare Rd.";"Galway";"Connacht";"Bulgaria";"amet@nisiAeneaneget.ca"
"B009AD7F-2FAE-E2A0-D649-397A7C206769";"PURUS DUIS ELEMENTUM";"CORPORATION";"CO";"1-441-217-7604";"P.O. Box 196, 6727 Ante Avenue";"Berlin";"Berlin";"Saint Pierre and Miquelon";"lacinia.at.iaculis@pellentesqueSeddictum.org"
"3FF1D322-8795-EBBA-A723-6886606F291C";"ENIM";"INCORPORATED";"INC";"1-244-861-6610";"233-6112 Nascetur Av.";"Oevel";"AN";"Iraq";"tempor.bibendum@eget.co.uk"
"EF99D303-C0F9-A3F5-9C37-CFC692974191";"VARIUS NAM PORTTITOR";"FOUNDATION";"";"459-4604";"P.O. Box 572, 8254 Magna Av.";"Olsztyn";"Warmi?sko-mazurskie";"Central African Republic";"Donec.tincidunt@purusgravidasagittis.edu"
"C1D339AE-72B5-9D84-07D9-6A5B6E51F367";"QUAM";"INDUSTRIES";"INC";"753-5166";"P.O. Box 512, 8107 Ultricies Ave";"Redruth";"Cornwall";"Iceland";"bibendum@purus.co.uk"
"7D09FFE5-DB25-8808-050F-3A134243C034";"AMET RISUS";"INDUSTRIES";"INC";"977-6567";"773-4787 Porttitor Avenue";"Hamburg";"Hamburg";"Cayman Islands";"neque.non@lacusAliquam.ca"
"DE65270D-DB9F-04B7-1509-036BB1874EA2";"AMET RISUS";"LIMITED";"LLC";"(876) 134-9370";"373-7501 Risus. Rd.";"?anl?urfa";"?anl?urfa";"Samoa";"lectus@interdum.co.uk"
"98238124-0B70-0D83-FAD9-7DA4F7C84B22";"PARTURIENT MONTES NASCETUR";"FOUNDATION";"";"1-446-522-4655";"P.O. Box 546, 2790 Donec St.";"Vienna";"Wie";"Tunisia";"sit.amet@ipsumleoelementum.com"
"9D7149F4-F209-D5D8-13B7-A8E0F32BE047";"QUAM VEL";"INDUSTRIES";"INC";"443-1969";"221-101 Proin St.";"Vezin";"NA";"Aruba";"sociosqu@gravidasit.ca"
"B886C2D4-45BB-9255-6045-B69214616C87";"ORCI";"ASSOCIATES";"";"1-123-528-2684";"Ap #210-6145 Libero. Ave";"Barrackpur";"WB";"Kuwait";"amet.ante@mitemporlorem.com"
"102408FF-429D-31A6-EE73-14CA6DFA75CC";"SUSPENDISSE";"CORPORATION";"CO";"1-676-912-9720";"Ap #819-7950 Integer Road";"Rohtak";"Haryana";"Angola";"elit@Aliquamvulputate.net"
"6E8A652A-7CC1-2607-CCE7-E717CC29C32C";"AUGUE MALESUADA";"PC";"";"667-9315";"2841 Ante Road";"Brescia";"Lombardia";"Saint Martin";"Praesent.interdum@Fuscedolor.edu"
"E2427243-7EEC-1FB0-D13C-25BE8D628379";"NEC LUCTUS";"LLC";"LLC";"417-0466";"Ap #418-2983 Augue, St.";"Belfast";"U";"Honduras";"Nunc.ac.sem@Nam.edu"
"F26B19C0-3F6C-D93A-FBCE-21B8D758BA8E";"MAURIS IPSUM PORTA";"PC";"";"544-6327";"Ap #557-9191 Vivamus St.";"Sint-Lambrechts-Woluwe";"Brussels Hoofdstedelijk Gewest";"Argentina";"libero@fermentumfermentum.co.uk"
"6A49114D-CBB5-8173-D828-32BF126F709B";"EU";"INCORPORATED";"INC";"329-4566";"Ap #605-512 Lorem Rd.";"Paternopoli";"CAM";"Poland";"tempor@dictumsapienAenean.ca"
"E02A2C29-4053-45A9-0555-8214722D38EC";"SIT AMET MASSA";"INSTITUTE";"INC";"1-441-534-9924";"557-3956 Nibh St.";"M?nster";"NW";"Czech Republic";"Nulla.facilisis.Suspendisse@anteipsumprimis.com"
"6775A869-4655-83C7-EDCE-4FB0AF0C9B85";"SEM UT";"LIMITED";"LLC";"1-536-224-1269";"Ap #820-955 Aliquet Street";"Vienna";"Wie";"Venezuela";"libero.dui@ut.org"
"042051F9-12F2-F728-00E2-449CD5B00385";"LACUS ALIQUAM";"LLP";"LLC";"490-1804";"P.O. Box 451, 9341 Purus. Road";"Torrevieja";"CV";"Netherlands";"In.faucibus.Morbi@malesuada.co.uk"
"E0F7ECB8-D6E4-04C8-3072-B5D97EB809A5";"LOREM UT";"LIMITED";"LLC";"839-6560";"2960 Pulvinar Ave";"Dublin";"Leinster";"New Zealand";"ac.nulla@antebibendumullamcorper.com"
"EE9C5A56-A373-EF6B-C335-20FC9C222008";"CONSEQUAT NEC MOLLIS";"INC.";"INC";"932-1678";"Ap #720-1090 Imperdiet, Avenue";"Concepción";"San José";"Armenia";"Sed@sem.edu"
"950C8BC0-0130-C3F5-2CFA-B65049BFAC90";"TORTOR INTEGER ALIQUAM";"COMPANY";"CO";"1-856-374-9685";"P.O. Box 109, 467 Urna. Street";"Parramatta";"NSW";"Falkland Islands";"leo.Vivamus.nibh@dolorsitamet.net"
"575DEB90-1A7E-DD67-6502-F1BA099F050F";"TRISTIQUE";"INDUSTRIES";"INC";"1-664-231-7250";"Ap #895-4868 Sed, Ave";"Columbus";"Ohio";"Sint Maarten";"arcu@vestibulumnec.net"
"56F73159-D969-AB87-B957-1B4164C01D6F";"SOLLICITUDIN ADIPISCING LIGULA";"PC";"";"262-5185";"Ap #901-9782 Orci Street";"Dublin";"Leinster";"Tajikistan";"Cum@sollicitudin.com"
"76A3FB30-BB58-648E-ACBE-2A84898D0546";"NON ENIM COMMODO";"INC.";"INC";"1-404-885-0671";"P.O. Box 246, 9680 Donec Street";"Passau";"BY";"Mauritania";"mi.lacinia.mattis@dignissim.net"
"C3334F6A-9A3E-7E9F-0B44-689F298A9DFE";"NISI SEM SEMPER";"LLC";"LLC";"507-9875";"P.O. Box 981, 4974 Diam. Road";"Wollongong";"New South Wales";"Tokelau";"lorem@Nullam.com"
"ADDA04EB-A00C-6A0E-55B5-A671348526F6";"SEM";"CORPORATION";"CO";"1-873-330-8863";"3565 Tincidunt Av.";"Sevilla";"Andalucía";"Iraq";"Nunc.lectus@augue.co.uk"
"C06DDD99-C411-3CD8-974D-89E1329A51CE";"NASCETUR";"INDUSTRIES";"INC";"1-980-892-4751";"Ap #282-7569 Proin Ave";"Karimnagar";"Andhra Pradesh";"New Caledonia";"erat@nuncid.net"
"725A0519-F8B3-973B-469E-B5551EDE2855";"INTERDUM";"LIMITED";"LLC";"745-3027";"Ap #682-6101 Cras St.";"Omaha";"NE";"Sierra Leone";"velit.Sed@auguemalesuadamalesuada.edu"
"62E32B32-0DE4-92C2-BA7E-66F70287D924";"NEQUE MORBI QUIS";"LTD";"LLC";"1-839-723-7910";"P.O. Box 318, 8781 Felis St.";"San Isidro de El General";"San José";"Ecuador";"dignissim.lacus@sapienmolestie.org"
"7E8F4181-2ED1-E22B-B958-654881206330";"QUISQUE TINCIDUNT";"FOUNDATION";"";"616-4427";"P.O. Box 542, 7449 Congue. Rd.";"Châteauroux";"CE";"Taiwan";"vel.arcu.eu@odioAliquam.org"
"6A40F921-8790-CC44-DC81-89CC58FC86B2";"PEDE SAGITTIS AUGUE";"INCORPORATED";"INC";"(629) 160-4798";"4215 Ac Rd.";"Dijon";"Bourgogne";"Guam";"Aliquam.rutrum@Aliquam.ca"
"8DA800D7-0001-E39E-FDDE-2D6B9DD642BB";"DONEC FRINGILLA DONEC";"INCORPORATED";"INC";"791-4816";"P.O. Box 514, 5615 Aliquam Rd.";"High Wycombe";"BK";"Timor-Leste";"Proin@quismassa.org"
"8668FD33-12BC-32C7-BA42-85750FBE37DF";"CUM SOCIIS NATOQUE";"INCORPORATED";"INC";"1-180-376-8679";"P.O. Box 295, 8290 Mauris Street";"Kingston";"Ontario";"Djibouti";"dictum@justo.ca"
"9ED001AD-BFE1-7581-A69D-4331EA818A49";"ADIPISCING LIGULA AENEAN";"ASSOCIATES";"";"528-9241";"4440 Magnis St.";"Diadema";"SP";"Macedonia";"Phasellus.elit.pede@etrutrumnon.com"
"060D6E3A-324A-48FF-495B-17E886F51AA2";"JUSTO NEC ANTE";"CORPORATION";"CO";"1-246-708-8866";"P.O. Box 937, 8132 Eleifend St.";"Osasco";"São Paulo";"Israel";"ac.mattis@Naminterdumenim.com"
"DDAA3F74-6024-6606-A839-9286164C2E52";"LOREM IPSUM";"INDUSTRIES";"INC";"1-738-206-6622";"P.O. Box 719, 2175 Eget Avenue";"Oviedo";"AS";"Iraq";"at.fringilla.purus@estmauris.co.uk"
"6B2F2A45-287D-F0FF-876C-6C1E83CF3047";"PORTTITOR SCELERISQUE NEQUE";"INDUSTRIES";"INC";"822-7093";"Ap #808-7692 Diam. Street";"Camaçari";"BA";"Kuwait";"congue@aneque.net"
"04AA1676-CEA8-4247-01AE-6200B46F4D9A";"ADIPISCING LOBORTIS";"LLC";"LLC";"992-7018";"1973 Suspendisse Street";"Amsterdam";"Noord Holland";"Norfolk Island";"auctor@tinciduntnibhPhasellus.org"
"3CFAAF5D-66E2-12D8-0342-87481C3E7521";"DUI LECTUS";"COMPANY";"CO";"680-1266";"904-3024 Magna. Avenue";"Hervey Bay";"QLD";"Slovakia";"pharetra.nibh@lectus.ca"
"527389E2-899C-F2C5-626B-C597B7DB60A8";"LACUS ETIAM";"ASSOCIATES";"";"(842) 157-9392";"154 Integer Ave";"Kendal";"Westmorland";"Israel";"nonummy@risus.co.uk"
"780CFAFD-CB17-ECD6-9817-41E9D111A698";"MAGNA";"INC.";"INC";"648-6412";"7799 Pellentesque Av.";"Rockford";"Illinois";"Pakistan";"consectetuer.adipiscing.elit@eu.net"
"49A1A6A7-1DBD-1F96-F01C-37FA89AB87C6";"CRAS LOREM LOREM";"PC";"";"642-4618";"403-5523 Vitae Road";"Colorno";"ERM";"Equatorial Guinea";"Vestibulum@justosit.edu"
"88759E07-D59A-6D76-0F82-4D53EFD37012";"A FACILISIS NON";"ASSOCIATES";"";"232-1247";"8409 Malesuada Av.";"Hulst";"Zeeland";"British Indian Ocean Territory";"lectus@dolor.com"
"9E1F104E-FBB0-8D8E-73E3-C929EF252B8A";"MAECENAS ORNARE EGESTAS";"INSTITUTE";"INC";"689-3392";"Ap #625-7839 Tristique Ave";"Mâcon";"Bourgogne";"Sierra Leone";"dapibus.rutrum.justo@nisi.ca"
"F886DE83-5DBA-106F-2F3C-51C3BA9992F3";"AT";"INCORPORATED";"INC";"617-6916";"P.O. Box 325, 956 Nec Ave";"Sant'Egidio del Monte Albino";"CAM";"Puerto Rico";"mus.Proin@amalesuadaid.org"
"8BAF4C37-A295-1C9B-7F24-65A9F06B0CE2";"SED";"CORPORATION";"CO";"346-6615";"223-8394 Elementum, Street";"Gore";"SI";"United Arab Emirates";"urna@Proin.edu"
"231BDDED-C20A-302F-0703-451B1487A133";"LACUS";"LIMITED";"LLC";"607-9634";"817-5805 Erat Rd.";"Satara";"Maharastra";"Ukraine";"enim.nec.tempus@tinciduntvehicula.edu"
"160D82AC-D3E9-0387-9117-1BC897872708";"FAUCIBUS ORCI";"LIMITED";"LLC";"204-1100";"P.O. Box 947, 4523 Sed Rd.";"Taupo";"NI";"Belgium";"Duis.mi@purusNullam.net"
"59C4E258-B1F9-0A17-3DF5-92A69D9555CB";"DONEC FEUGIAT";"INCORPORATED";"INC";"921-3695";"Ap #799-739 Libero. Av.";"Hamburg";"HH";"Guam";"in.aliquet@arcuet.edu"
"DDC00EFA-7CC4-1DF5-A27E-F37F4CDB3F95";"DONEC";"INC.";"INC";"460-7007";"Ap #367-784 Donec Ave";"Ranchi";"Jharkhand";"Saint Pierre and Miquelon";"sapien.molestie.orci@gravidanunc.ca"
"183CB8E4-29A5-D4CD-5A97-314801020B97";"EU";"LTD";"LLC";"1-689-503-0915";"662-3464 Orci Avenue";"La Roche-sur-Yon";"Pays de la Loire";"Thailand";"lorem.tristique.aliquet@Donectempuslorem.edu"
"674EE189-3963-0953-297C-683120596649";"MOLESTIE ORCI";"ASSOCIATES";"";"643-9859";"Ap #107-4462 Pede. Av.";"Thames";"NI";"Senegal";"nisi.Mauris@Suspendisse.edu"
"EA42EEF3-8A0E-76BF-DAD6-55463AB8A872";"LUCTUS";"CORP.";"CO";"451-5034";"7365 Ridiculus St.";"Tire";"?zmir";"Puerto Rico";"Pellentesque.ultricies@mi.edu"
"AC06FB5E-DAE7-1B49-ED4C-B2A3780B70C4";"ODIO ALIQUAM VULPUTATE";"FOUNDATION";"";"1-716-218-9989";"585-3256 Aliquam Av.";"Kayseri";"Kayseri";"Reunion";"a.dui.Cras@tinciduntDonec.edu"
"5B077110-8D3D-462B-8F12-E957CC655B96";"EST NUNC";"CORP.";"CO";"1-215-635-6949";"P.O. Box 998, 5031 Sociis Ave";"Parkland County";"AB";"Myanmar";"eu.enim.Etiam@Suspendissesagittis.com"
"C8879AEB-F3CE-1334-D3FC-241E636439C5";"SUSCIPIT NONUMMY";"CORP.";"CO";"1-933-633-4205";"740-7776 Mauris. Av.";"Piracicaba";"São Paulo";"Turks and Caicos Islands";"orci.quis.lectus@mipede.ca"
"5D9065B1-AE2A-CD5A-470A-248438C457AE";"ALIQUET";"CORP.";"CO";"518-9733";"505-9185 Dis Road";"Porirua";"North Island";"Tokelau";"at@vitaepurus.net"
"D7698891-ACD7-3806-3E9C-52A7C2B6535D";"URNA";"CONSULTING";"";"588-1065";"481-455 Sed, Road";"Fort Collins";"Colorado";"Angola";"molestie.orci@molestie.net"
"0F4F5FB9-4C2C-E01B-9CE7-F50892ED4874";"ALIQUAM";"PC";"";"1-953-412-4380";"603-207 Dapibus Avenue";"Irvine";"AY";"Kiribati";"non.vestibulum@sit.org"
"03F75311-0B30-A2A8-362C-46C2C35F4662";"CURSUS";"COMPANY";"CO";"1277749";"7721 Molestie Street";"Nalinnes";"Henegouwen";"South Sudan";"Aliquam@vehicularisus.com"
"53F76E20-7FD2-0870-7D27-8FB9E4E40014";"MAURIS UT";"INSTITUTE";"INC";"1-924-455-3369";"865-1960 Ac Street";"Waiuku";"NI";"Uruguay";"velit.justo.nec@semsemper.net"
"7D8FD655-3EEA-51C7-A2E1-EC26B887BB79";"DAPIBUS QUAM";"LTD";"LLC";"1-562-498-5134";"P.O. Box 559, 9377 Posuere St.";"Munger";"BR";"Gabon";"erat.volutpat@risus.edu"
"5E598A5C-CAE1-3D26-1E48-0B5014AE0A74";"DOLOR NULLA";"CORPORATION";"CO";"1-808-219-6583";"P.O. Box 605, 5990 Turpis. Avenue";"Belfast";"U";"Guam";"dui.Cum@Namconsequat.edu"
"57F61703-3214-6621-1702-6FE268936521";"SOLLICITUDIN";"COMPANY";"CO";"(287) 911-2447";"9259 A St.";"Boulogne-Billancourt";"IL";"Thailand";"eu.nulla@Phasellus.ca"
"25FDD440-9078-CB39-31EA-26A0FD7FC12D";"EU NULLA AT";"ASSOCIATES";"";"1-475-994-7624";"602-4193 Vivamus Ave";"San Pedro";"San José";"Mauritius";"consectetuer@posuerevulputate.co.uk"
"79644337-107D-9E1C-DA24-7348ECAB8A11";"SEM";"CORPORATION";"CO";"1-147-422-2161";"Ap #426-1804 Parturient Rd.";"Tokoroa";"NI";"Saint Martin";"fermentum.convallis.ligula@idmollisnec.org"
"18827BD1-FA37-490D-8666-3B9FEE8F3807";"NISI MAURIS";"ASSOCIATES";"";"1-560-554-1099";"P.O. Box 888, 6740 Lacus. Street";"Mobile";"Alabama";"Cuba";"erat@vitae.co.uk"
"2D98AD5D-5978-1807-62EC-DAE8728A2771";"UT TINCIDUNT ORCI";"FOUNDATION";"";"581-3320";"Ap #288-3467 Cubilia Rd.";"Mogi das Cruzes";"SP";"Azerbaijan";"tellus.Suspendisse@amet.com"
"50551355-B9A9-8443-374B-9D93A5ED165C";"FACILISIS EGET";"CONSULTING";"";"(312) 182-8218";"P.O. Box 377, 1112 Eu, Rd.";"Istanbul";"Istanbul";"Morocco";"fermentum.vel.mauris@malesuadavel.org"
"D1AE6078-FC9D-DE67-A437-50185148E467";"LOREM UT ALIQUAM";"CONSULTING";"";"1-635-591-3660";"P.O. Box 223, 2697 Ante Ave";"Kano";"KN";"Curaçao";"enim.Etiam.gravida@mauris.co.uk"
"6A76C233-54AE-4C49-B790-55EBBE470329";"CONSEQUAT";"CORP.";"CO";"1-309-379-4815";"7949 Vulputate, Av.";"Lanark County";"Ontario";"Greenland";"Cras.interdum.Nunc@eudui.net"
"FDE57B8C-4F8A-C361-C3C6-6D427F17528C";"MASSA MAURIS VESTIBULUM";"INDUSTRIES";"INC";"1-322-971-4381";"Ap #578-4917 Tempus St.";"Norfolk County";"ON";"Cocos (Keeling) Islands";"pharetra.nibh.Aliquam@congue.co.uk"
"32E20DF3-C5BE-A389-1CE5-490E7806B5AA";"AUGUE EU TEMPOR";"LLC";"LLC";"1-318-325-3120";"P.O. Box 811, 4158 Aenean St.";"Badajoz";"EX";"Ireland";"malesuada.Integer@egestasAliquamfringilla.com"
"E1826DA6-8D1D-3EB8-8017-4773E31F1382";"MAURIS ALIQUAM EU";"PC";"";"575-3831";"Ap #737-2853 Urna Road";"Ravenstein";"N.";"Macao";"lacus.Cras@egetlaoreetposuere.com"
"B0F301D3-549C-C0ED-FCE8-D503711BE871";"NULLA";"LTD";"LLC";"1-552-792-1553";"7853 A Street";"Bremerhaven";"HB";"Cyprus";"ipsum.dolor@et.net"
"E055C46C-5B82-DD57-1B5C-679CDFC07F1B";"SIT AMET DAPIBUS";"FOUNDATION";"";"292-0951";"148-1478 Fringilla Road";"Springfield";"Illinois";"Norfolk Island";"cursus@Inatpede.com"
"5E9C68A0-AD82-C5E9-BE75-11C0504D7506";"NUNC IN AT";"INCORPORATED";"INC";"995-1721";"558-1940 Mollis Ave";"Hillsboro";"Oregon";"Bonaire, Sint Eustatius and Saba";"lorem.auctor@eu.ca"
"CAB55F65-2F88-657B-22E7-C54DDFD66027";"ELIT ELIT FERMENTUM";"COMPANY";"CO";"514-6747";"Ap #624-9931 In, Street";"San Rafael Abajo";"SJ";"Israel";"non.justo@amet.co.uk"
"1F211F37-DBA4-D324-BAC4-05B25680E1E2";"ORCI IN CONSEQUAT";"INSTITUTE";"INC";"227-3356";"5041 Ullamcorper Ave";"Coquitlam";"British Columbia";"Wallis and Futuna";"turpis@ametconsectetueradipiscing.ca"
"51B54D37-2290-65AE-40D6-D2294CDC9021";"ET EUISMOD";"COMPANY";"CO";"1-307-559-2633";"Ap #347-5789 Commodo St.";"New Plymouth";"North Island";"Saint Lucia";"est.mollis@nec.org"
"F2D2827B-F3DB-4654-A0A8-19061F489B16";"CONSECTETUER IPSUM NUNC";"CORP.";"CO";"1-104-813-3908";"Ap #618-5598 Id St.";"Desteldonk";"OV";"Guadeloupe";"Sed.neque.Sed@dictum.ca"
"3FED7DBB-C55C-FD6E-70E1-63DB61FDF989";"PURUS MAECENAS LIBERO";"PC";"";"247-4883";"498-6471 Velit. St.";"Sagamu";"Ogun";"Seychelles";"Proin@laoreetposuere.org"
"81427373-00F9-53A3-EA78-8FD2821ABDB0";"CONSEQUAT NEC MOLLIS";"INC.";"INC";"1-520-618-0440";"4942 A, Rd.";"Cumberland";"ON";"Western Sahara";"eget.massa.Suspendisse@NullamnislMaecenas.ca"
"A8187B7D-7F62-282F-1C02-3B380AE4A909";"ALIQUET";"INDUSTRIES";"INC";"1-129-980-1009";"P.O. Box 613, 7894 Vivamus Street";"Burgos";"CL";"Iran";"tristique@quam.edu"
"D5C6201E-BE7E-0846-9120-AFD2C5602730";"DOLOR";"INSTITUTE";"INC";"472-0179";"P.O. Box 192, 1197 Nullam Road";"Vienna";"Wie";"Northern Mariana Islands";"aliquet.diam@vulputaterisusa.com"
"851BAD07-0B0A-1209-6AF8-C2D41884728C";"IN AT";"PC";"";"1-400-210-8879";"247-5140 Ipsum St.";"La Seyne-sur-Mer";"PR";"Gabon";"malesuada@Aliquam.com"
"F6AE7FF0-86D8-2693-9C76-96C52B72ECEB";"ET NETUS";"LLP";"LLC";"801-3983";"8103 Penatibus Rd.";"Topeka";"KS";"Ecuador";"egestas.hendrerit@euultrices.edu"
"53EAB809-7666-D27A-4EDF-722F392FC89E";"TURPIS";"INCORPORATED";"INC";"674-2309";"P.O. Box 957, 1268 Ac Avenue";"Maiduguri";"Borno";"Sudan";"eget.nisi.dictum@orci.com"
"D3207601-5820-5B25-E6E1-6D4D75FC4A83";"IPSUM";"ASSOCIATES";"";"(590) 252-7030";"3618 Tempus St.";"Kapuskasing";"Ontario";"San Marino";"pharetra.sed@eros.ca"
"977F30DC-4872-C15D-4E07-A2BE8C32745A";"MI TEMPOR";"FOUNDATION";"";"1-432-755-8472";"P.O. Box 916, 2155 Magna. Road";"Castelló";"Comunitat Valenciana";"Botswana";"morbi.tristique@Suspendisseacmetus.net"
"C14B6CC9-11D0-AB2B-E10B-41EE24E94B5C";"EST NUNC ULLAMCORPER";"CORP.";"CO";"(611) 405-2431";"Ap #943-2544 Donec Avenue";"Ogbomosho";"Oyo";"Morocco";"Nullam@eteros.org"
"1CE0222D-83D7-214D-E525-105FCA2F762F";"PELLENTESQUE HABITANT MORBI";"CORP.";"CO";"363-3556";"4067 Quis Street";"Berlin";"Berlin";"Aruba";"porttitor.eros.nec@ullamcorper.com"
"26B6B126-277B-CF33-E764-00693817C154";"ID ENIM CURABITUR";"LTD";"LLC";"1-712-617-9579";"Ap #424-4344 A St.";"Farrukhabad-cum-Fatehgarh";"Uttar Pradesh";"San Marino";"ante@lobortis.com"
"670FBF88-4B66-E328-8262-1A61F7E5311F";"CURSUS";"COMPANY";"CO";"629-3474";"498-8917 Congue. Rd.";"Spijkenisse";"Z.";"Portugal";"non.ante.bibendum@Mauris.net"
"36A36ACF-1F4B-D87B-F79B-D7766F90F272";"EGESTAS";"LTD";"LLC";"914-0743";"8051 Velit. Avenue";"Cawdor";"NA";"South Sudan";"sed.sapien.Nunc@ipsum.net"
"D4FB42C6-1346-7757-C807-6741A2BA9F2E";"PLACERAT";"ASSOCIATES";"";"790-7822";"Ap #151-3478 Lobortis Ave";"Gmunden";"Upper Austria";"Andorra";"magna.Ut.tincidunt@id.com"
"C1D1E93C-3ECF-565F-E276-BBC59D58AE20";"NAM LIGULA ELIT";"COMPANY";"CO";"815-4143";"521-5971 Auctor St.";"Calle Blancos";"SJ";"Azerbaijan";"Nunc.sollicitudin.commodo@ut.co.uk"
"4F424ADA-921B-9F0A-0C74-E9C218C70D49";"EGESTAS HENDRERIT";"INC.";"INC";"1-553-828-4918";"7436 Semper Rd.";"Pomarolo";"TAA";"China";"justo@cursusIntegermollis.org"
"5E0A314B-6B3D-4295-6182-6377D81EE53E";"NASCETUR";"INDUSTRIES";"INC";"344-3054";"Ap #341-2850 Egestas, Avenue";"Henderson";"Nevada";"Costa Rica";"justo.sit.amet@dolor.org"
"41B133C6-A727-E4F6-4933-7C67DBD008E3";"IN";"LLC";"LLC";"1860304";"1386 Eleifend Ave";"Abaetetuba";"PA";"French Southern Territories";"Aliquam.fringilla.cursus@uterat.org"
"5B59AC37-1FC8-F9E4-B8BB-FEF07C7BBF22";"VARIUS ULTRICES";"ASSOCIATES";"";"784-8314";"9510 Nisl. St.";"Berlin";"BE";"Western Sahara";"ac.arcu.Nunc@Nam.edu"
"13AF4DBE-5BDF-2A8B-D617-2F8F096C57F4";"SED EU";"LLP";"LLC";"(293) 672-7720";"7840 Pede Avenue";"Heredia";"Heredia";"Macao";"Integer@viverraDonec.ca"
"41703AE3-2F6C-D0CB-8CD6-CC6A4F86BE6F";"MOLESTIE";"INCORPORATED";"INC";"(423) 144-9749";"595-5958 Phasellus Av.";"Sapele";"Delta";"Namibia";"nisi.dictum.augue@aliquameu.com"
"DBAAAC1A-3B2C-0332-4E10-D94F0EB1C87F";"NON";"LTD";"LLC";"1-836-969-6999";"647-8968 Malesuada Road";"Gresham";"OR";"Faroe Islands";"eu.neque@vestibulum.com"
"04FFFD26-B87E-4CD7-BAC7-6E8E4BE26C69";"LOBORTIS QUIS";"CORP.";"CO";"1-186-375-6195";"8275 Turpis. St.";"Bia?a Podlaska";"LU";"Yemen";"enim.Curabitur.massa@Donec.edu"
"8CD49830-9E34-9FE8-793E-5B47BD235DE9";"PULVINAR ARCU ET";"CORPORATION";"CO";"261-1823";"P.O. Box 912, 6298 Diam Ave";"Galway";"C";"Central African Republic";"ac@aceleifend.edu"
"CF4BF850-F53F-FD46-2E28-CA08604B7AED";"TURPIS IN CONDIMENTUM";"LLP";"LLC";"1-101-474-2136";"5307 Consectetuer, St.";"Quinte West";"Ontario";"Comoros";"tellus@Aenean.ca"
"0803C02A-22CE-B65F-7469-6D7952708646";"ARCU";"FOUNDATION";"";"(381) 811-6629";"P.O. Box 356, 8812 Aptent St.";"Cork";"Munster";"Lithuania";"Pellentesque.ut@Crassedleo.com"
"D4B91E27-A9D2-AA95-4DAB-D3568DE05BA1";"ULTRICES POSUERE";"COMPANY";"CO";"1-853-995-7816";"P.O. Box 148, 8720 Donec Av.";"Shawinigan";"QC";"New Zealand";"eget@pedePraesent.org"
"DDE45C32-76F3-B51A-DBBD-1F8FA5499850";"ET ULTRICES";"CORPORATION";"CO";"1-452-995-7868";"Ap #555-4992 Lobortis Avenue";"Vienna";"Vienna";"French Polynesia";"id@vel.net"
"E1579252-0AA7-D892-ABC6-B2BFDC653ECE";"PARTURIENT MONTES";"COMPANY";"CO";"484-5515";"970-9699 Sodales Av.";"Marbella";"Andalucía";"Puerto Rico";"risus@nonnisiAenean.com"
"3BD61BCF-CD14-0BA2-80AC-0EE01F7FCE65";"NATOQUE";"LIMITED";"LLC";"1-150-530-8553";"886-5671 Felis. Rd.";"Karacabey";"Bursa";"Ghana";"odio.tristique@auctorveliteget.com"
"CF55A807-FC0F-C217-2593-EEFBA4BDA970";"LIGULA DONEC LUCTUS";"PC";"";"1-328-745-7890";"P.O. Box 764, 557 Nunc St.";"Lieferinge";"OV";"Portugal";"Cum.sociis@tortorIntegeraliquam.net"
"BEAD0121-BB08-CEBD-E9E0-0C9EF346BF45";"TELLUS";"LIMITED";"LLC";"(914) 151-6304";"Ap #850-8805 Orci Avenue";"Oban";"AR";"Belgium";"neque.sed.sem@atauctorullamcorper.net"
"0C9E0CB4-BB7C-B5CF-2EFA-57DD4201CDCB";"LACINIA ORCI";"INC.";"INC";"729-0201";"Ap #428-4768 Velit Street";"Hamburg";"HH";"Reunion";"taciti@Nam.co.uk"
"A1F28425-AF29-0BEF-C757-FF9D21B03FDB";"MAURIS IPSUM";"COMPANY";"CO";"1-640-852-7312";"465-9947 Aenean Rd.";"Orangeville";"Ontario";"Azerbaijan";"amet.orci@pedesagittis.org"
"9B06D296-8926-53C7-9F36-2E04C70C90AB";"TORTOR NUNC COMMODO";"LLC";"LLC";"1-351-361-5129";"9929 Quisque Avenue";"Galway";"Connacht";"Bosnia and Herzegovina";"habitant@Suspendissecommodo.com"
"30B6172B-ABD2-1997-E39F-CA9372A98D25";"INTEGER MOLLIS";"INC.";"INC";"(612) 188-0368";"P.O. Box 931, 9743 Quis, Ave";"Santa Coloma de Gramenet";"CA";"Montserrat";"convallis.est@rutrum.ca"
"E8D71135-70F5-DD39-48E4-3B3284FA2176";"TORTOR NUNC";"INDUSTRIES";"INC";"361-6577";"517-5536 Molestie St.";"Toulon";"Provence-Alpes-Côte d'Azur";"Maldives";"elit@justo.edu"
"C5C39F03-A2FA-0F95-AEC1-A0627A17E607";"ADIPISCING MAURIS";"LLC";"LLC";"419-9896";"P.O. Box 150, 2173 Cras Rd.";"Homburg";"SL";"Macao";"pede@consectetueradipiscing.ca"
"B3CF83D2-D6A6-7BDB-09D5-FFD002714B33";"EGET ODIO ALIQUAM";"INCORPORATED";"INC";"249-4883";"2014 Aliquet Av.";"Wanganui";"NI";"Jordan";"Cras.sed.leo@elitpharetra.com"
"FB47059F-74AA-F172-F23D-371DCB453D87";"AUCTOR";"CORP.";"CO";"1-479-757-8588";"8741 Nunc Avenue";"Wardha";"Maharastra";"Sint Maarten";"vulputate.ullamcorper.magna@laoreetlibero.com"
"512FB315-DAEA-E99B-318B-32F17ED32AF6";"IN HENDRERIT CONSECTETUER";"ASSOCIATES";"";"1-198-186-5824";"P.O. Box 557, 777 Diam Avenue";"Keumiee";"NA";"Grenada";"quis.massa.Mauris@nislNullaeu.edu"
"E3AD9ABC-7EE0-E8A8-D495-BDAC652AB40E";"NON SOLLICITUDIN A";"LLC";"LLC";"825-2066";"304-1617 Praesent St.";"Dublin";"Leinster";"Laos";"ullamcorper.Duis@disparturientmontes.ca"
"ED9205A7-FD0E-C4CB-2133-58101FA16A3E";"UT LACUS";"INDUSTRIES";"INC";"487-5375";"586-5939 Sapien Avenue";"Cairns";"QLD";"Japan";"tellus.lorem.eu@Aliquamrutrum.org"
"4C69C1EC-234C-F6E4-7076-FB98D46B6731";"DOLOR DOLOR";"INC.";"INC";"1-216-252-3052";"907-5842 Metus. Rd.";"Liévin";"Nord-Pas-de-Calais";"Malawi";"dictum.mi@libero.net"
"A4373B23-29B7-49F9-3277-924E3B610A1C";"PELLENTESQUE HABITANT MORBI";"PC";"";"1-551-999-7087";"Ap #394-5326 Rutrum Street";"Fahler";"Alberta";"New Caledonia";"massa.non.ante@felis.org"
"C79C631F-C3C9-47FB-8FF0-6CF0BB8B4FAB";"EGESTAS RHONCUS PROIN";"FOUNDATION";"";"1-443-859-9395";"338-8182 Eu Ave";"Sapele";"Delta";"Kazakhstan";"Phasellus@sedfacilisisvitae.net"
"DCB9B4C3-EE32-E46E-0D19-0D643BB69202";"PELLENTESQUE";"LTD";"LLC";"1-734-633-8665";"4971 Nec Rd.";"Picton";"South Island";"Faroe Islands";"magna@montes.net"
"91EAE069-6001-8EF0-D275-C70289827B96";"ANTE BLANDIT VIVERRA";"LLC";"LLC";"1-376-223-6185";"491 Ligula. Street";"Radom";"Mazowieckie";"Saint Kitts and Nevis";"ac@quis.co.uk"
"BAA3B683-187F-CDFA-079E-30E98BE13649";"MOLESTIE TORTOR NIBH";"PC";"";"945-7796";"3661 Hendrerit Rd.";"Lagundo/Algund";"TAA";"Mayotte";"enim.sit.amet@velarcu.ca"
"AB0E3605-DE39-176F-0D15-2E4BF7DE5AE6";"FRINGILLA EST";"INC.";"INC";"1980475";"P.O. Box 539, 6521 Lacus St.";"Khandwa";"Madhya Pradesh";"Norway";"vel.venenatis@Maurisnon.com"
"7ECFDD77-78A6-7B74-84FA-464ECEE4A242";"LACUS";"LIMITED";"LLC";"1-736-331-0519";"Ap #671-5938 Dui. Av.";"Vienna";"Wie";"Saint Pierre and Miquelon";"tincidunt.aliquam.arcu@idante.com"
"CDCC0FF1-29A5-EB39-F3E1-A96B3F4DFF38";"MASSA SUSPENDISSE";"PC";"";"1-442-996-0517";"4965 Nam Avenue";"Bursa";"Bursa";"Malaysia";"tincidunt.nibh.Phasellus@egestasrhoncusProin.edu"
"1B5A9A6C-6484-92B1-6194-A98A013AB166";"ERAT EGET";"COMPANY";"CO";"(592) 288-7622";"Ap #134-8720 Lorem Street";"Iowa City";"IA";"Panama";"a.scelerisque@non.ca"
"B466C624-97B7-AAD5-CD7C-078B66FDE645";"FERMENTUM CONVALLIS LIGULA";"LLP";"LLC";"(598) 209-7595";"217-7780 Morbi St.";"Herentals";"Antwerpen";"Guernsey";"id@odio.edu"
"57495168-E715-3939-9EE8-3407695E6F75";"LACUS QUISQUE PURUS";"INDUSTRIES";"INC";"1-190-953-9422";"2878 Luctus Road";"Cork";"Munster";"United States";"diam.Pellentesque.habitant@tincidunt.co.uk"
"BB111D5A-51F3-96B5-D630-BC4556720602";"SUSCIPIT EST";"CORPORATION";"CO";"1-288-954-0929";"Ap #795-3710 Mauris Rd.";"Bremerhaven";"Bremen";"Suriname";"litora.torquent@estmaurisrhoncus.org"
"4FFDE437-E540-60C7-E6D6-95443D5F050D";"DOLOR DOLOR TEMPUS";"LTD";"LLC";"433-6082";"P.O. Box 366, 521 Consectetuer Road";"Cartagena";"Murcia";"Qatar";"magnis@massaVestibulum.org"
"DADDFD06-9B8F-E3EF-F8FF-2B42B533F3C3";"SCELERISQUE";"LLP";"LLC";"1-602-345-7691";"Ap #644-7647 A, Rd.";"Dorval";"Quebec";"Pitcairn Islands";"mi.tempor.lorem@Curabiturconsequatlectus.com"
"84B8C574-9EF3-ED48-94DB-953A16A5A747";"ULTRICIES DIGNISSIM LACUS";"LLC";"LLC";"1-806-668-1766";"Ap #248-9287 Cursus, Rd.";"Villata";"Piemonte";"Korea, North";"et@Curabitur.edu"
"800E8AF7-9AFA-5A07-6DF3-9D8CB1272C3B";"CONGUE";"INCORPORATED";"INC";"1-549-592-8566";"9845 Iaculis St.";"Logan City";"Queensland";"American Samoa";"metus.In@odioEtiam.net"
"06975558-5026-DF18-0A29-3FBA958A21A2";"VEL";"INC.";"INC";"1-958-213-9630";"4357 Amet, Rd.";"Maranguape";"CE";"Barbados";"est.Mauris@ridiculusmusDonec.com"
"C5C4240D-D357-43D8-B505-883C429B6F1B";"DUI IN SODALES";"CORPORATION";"CO";"721-1474";"P.O. Box 872, 5020 Felis Rd.";"P?ock";"MA";"Marshall Islands";"malesuada.fringilla.est@Integertincidunt.ca"
"09AC3F72-B399-A04F-4E6C-D431E68C9605";"TINCIDUNT";"CORPORATION";"CO";"464-0445";"Ap #409-8673 Rutrum. Street";"Opheylissem";"WB";"Brazil";"semper@at.org"
"879097BA-C357-8B55-D117-C700C3535806";"AC FACILISIS";"INCORPORATED";"INC";"1-370-731-6232";"P.O. Box 540, 6426 Augue St.";"Wroc?aw";"DS";"Virgin Islands, British";"malesuada.ut@aodio.co.uk"
"8AB92DA9-D950-4E77-571E-C576A5CE4644";"ARCU ET";"INDUSTRIES";"INC";"1-613-722-0536";"6089 Dapibus Street";"Ternat";"Vlaams-Brabant";"Bulgaria";"Nunc.sed.orci@Praesenteudui.co.uk"
"E5B43053-0165-BDC3-0540-EE5BD68AB026";"CONSECTETUER ADIPISCING";"LTD";"LLC";"(911) 728-9395";"Ap #213-8550 In Road";"Serik";"Antalya";"Armenia";"ipsum@Aliquam.ca"
"F5B4528B-1CB9-1362-9C47-C21B49F0A526";"PHARETRA";"LLC";"LLC";"933-3570";"P.O. Box 410, 6039 Nullam Street";"Joué-lès-Tours";"Centre";"Namibia";"orci.lacus@cursus.net"
"C79D54D8-BFD1-7310-0945-49B17C8492A9";"VEL";"CORPORATION";"CO";"(391) 673-8355";"Ap #188-3272 Nulla Rd.";"Olcenengo";"PIE";"Lebanon";"semper.erat@Morbisit.com"
"5B824592-DCCE-ADE5-0205-6D7988AA8992";"VARIUS ULTRICES";"INCORPORATED";"INC";"(978) 611-5711";"2458 Iaculis, Av.";"Vienna";"Wie";"Saint Martin";"Aenean.sed@metusIn.edu"
"0A962CF7-1CFE-2188-D061-6766E445ED46";"HYMENAEOS";"ASSOCIATES";"";"562-6242";"P.O. Box 836, 157 Proin Ave";"Elx";"Comunitat Valenciana";"New Zealand";"arcu@adipiscingligulaAenean.edu"
"1D79402F-5593-90C4-128B-CEAD52A56804";"SOLLICITUDIN ORCI";"LLP";"LLC";"(252) 165-0815";"Ap #157-1750 Pharetra St.";"Galway";"C";"Fiji";"ac.tellus@Inlorem.edu"
"C8360DA2-51D0-3F91-32FE-535A509B5103";"PEDE SUSPENDISSE DUI";"PC";"";"1-978-640-7136";"4134 Phasellus St.";"Las Palmas";"CN";"Bulgaria";"ultrices@loremegetmollis.net"
"6C430101-6A9E-8997-6A26-53BAF7752A67";"MORBI QUIS URNA";"INSTITUTE";"INC";"1-859-525-7026";"P.O. Box 641, 3014 Justo Rd.";"Duque de Caxias";"Rio de Janeiro";"French Guiana";"lobortis@commodohendrerit.org"
"DF1EB634-F9A7-BF8F-B097-8C2E78C308AA";"MALESUADA";"LLC";"LLC";"1-727-466-8810";"532 Ullamcorper St.";"Legnica";"DS";"Angola";"nulla.Cras.eu@seddictumeleifend.ca"
"070C80CA-A9E1-A18F-982E-856988597882";"URNA";"CORP.";"CO";"942-1734";"Ap #636-673 Lobortis Ave";"Priolo Gargallo";"Sicilia";"Philippines";"id@duiFuscediam.edu"
"C2671D9B-7E13-3501-BB53-3EFCBCCDE5B9";"FRINGILLA PORTTITOR";"PC";"";"562-2647";"724-6037 Et, Rd.";"Maubeuge";"Nord-Pas-de-Calais";"Hong Kong";"ultrices@quislectus.com"
"322EC4EE-B1D1-0174-D7E8-3DB810BB410F";"EU TURPIS";"INCORPORATED";"INC";"798-4590";"P.O. Box 564, 7498 Cum Road";"Crieff";"Perthshire";"Anguilla";"et.ultrices.posuere@ullamcorpervelitin.ca"
"14CA7B76-CCEA-AF24-3F6C-6FBCF14C6C12";"MAGNA";"LIMITED";"LLC";"975-8197";"1985 Aliquam St.";"Terneuzen";"Zl";"Portugal";"aliquet.Proin@eu.org"
"A785D99D-CC58-6823-A6FB-7D363364B588";"LOREM IPSUM";"INC.";"INC";"310-2358";"6839 Vehicula Rd.";"Ribeirão Preto";"SP";"Nigeria";"Integer.id.magna@estacfacilisis.edu"
"749A6171-2FB8-CDA3-C012-6DA8559D0A11";"VIVERRA DONEC TEMPUS";"LLC";"LLC";"359-8678";"Ap #537-857 Mus. Ave";"Clovenfords";"SE";"San Marino";"tincidunt@dolorsit.org"
"2EFBC714-5286-52C7-942F-FC6228C308B9";"LECTUS PEDE";"INCORPORATED";"INC";"445-3442";"1457 Vivamus Av.";"Bettiah";"BR";"Côte D'Ivoire (Ivory Coast)";"semper@Aliquamvulputate.ca"
"5243860A-0FD4-791B-C1A2-877486C8F576";"APTENT";"INDUSTRIES";"INC";"1588029";"3783 Cursus, Road";"Buguma";"Rivers";"Norfolk Island";"magna@purusmauris.ca"
"06C655C9-54C9-557E-20AB-184EE983722E";"GRAVIDA NUNC";"INDUSTRIES";"INC";"1-737-563-2562";"Ap #579-9003 Tortor St.";"Çar?amba";"Samsun";"Niger";"sed@tinciduntvehicularisus.edu"
"7AE03AAD-237F-14F3-342B-E3374ACC48A1";"CRAS";"INCORPORATED";"INC";"796-2689";"8940 Dui. Av.";"Feldkirch";"Vbg";"Saudi Arabia";"scelerisque.neque@aultriciesadipiscing.com"
"5779E50C-7529-8E35-8E28-3852F1F67256";"ALIQUAM";"FOUNDATION";"";"724-2370";"P.O. Box 351, 3273 Euismod Rd.";"Lunel";"Languedoc-Roussillon";"Trinidad and Tobago";"Mauris.vel.turpis@tinciduntvehicularisus.org"
"3750C119-3C86-E185-C1C9-149109210753";"NULLA ANTE";"LLC";"LLC";"491-0419";"1031 Sed Rd.";"Vienna";"Wie";"Brunei";"Phasellus.ornare.Fusce@semper.org"
"E3D9E192-9F84-93C3-09A6-ABB9B1CEEBB5";"VITAE DIAM";"LTD";"LLC";"1-403-729-1553";"1801 Aenean Street";"Belo Horizonte";"MG";"Comoros";"enim.nisl.elementum@sitametmassa.edu"
"3C50F0A7-8ECD-D4BC-449B-BFC2212C7E19";"VIVERRA DONEC";"COMPANY";"CO";"226-3648";"Ap #963-2437 A St.";"Baltimore";"Maryland";"Tunisia";"blandit.mattis.Cras@Inat.org"
"0A6C2E6C-9D41-1419-5123-542EC6B3BEE2";"NISI MAGNA";"PC";"";"1591941";"P.O. Box 301, 1841 Tempus St.";"Cañas";"G";"Netherlands";"non.leo.Vivamus@sit.org"
"710B862B-7526-801B-430A-FFE0B65EFB86";"MORBI";"ASSOCIATES";"";"271-9181";"Ap #554-5343 Vehicula St.";"Erquelinnes";"Henegouwen";"Turkey";"Suspendisse.aliquet@ornaretortor.net"
"4232F098-4D1B-1351-240F-3426D0C8DEAC";"NULLA ANTE";"INDUSTRIES";"INC";"434-6640";"P.O. Box 330, 6577 Donec Rd.";"Bressoux";"LU";"Liberia";"dapibus.gravida@parturientmontes.org"
"FDA23017-8AB0-C13F-B08E-8EFBB0630FE4";"TEMPUS";"FOUNDATION";"";"1-221-260-1327";"454-7476 Convallis Avenue";"Okpoko";"AN";"Botswana";"Vivamus@loremeu.com"
"60B00009-5654-0F99-7A5B-54D7E787ADA8";"ADIPISCING NON";"ASSOCIATES";"";"1-678-793-9268";"844-8891 Dolor St.";"Patalillo";"SJ";"China";"pede.Cum.sociis@felispurusac.com"
"E61E6952-70C9-70E1-F87A-435409E605C0";"FACILISIS MAGNA";"CORP.";"CO";"1-627-574-5349";"Ap #426-6211 Et Avenue";"Kano";"Kano";"Guernsey";"justo@sapien.net"
"60AD5817-AA5C-9418-CE9A-360B8DCA65CA";"ULTRICIES";"INDUSTRIES";"INC";"667-9222";"P.O. Box 244, 7940 Maecenas Avenue";"Ankara";"Ank";"Cocos (Keeling) Islands";"cursus@utmolestie.com"
"6FAF8507-A4ED-5A68-EA8C-DF6BBA3942EE";"MASSA";"LLP";"LLC";"1-558-749-2807";"3746 Eu, St.";"Roxburgh";"Roxburghshire";"Mexico";"Aliquam.adipiscing.lobortis@lorem.net"
"F477E847-0F94-ABFD-F239-AF068E6690B8";"NATOQUE PENATIBUS ET";"PC";"";"286-7234";"6145 Nunc St.";"Sousa";"PB";"Tajikistan";"viverra.Donec.tempus@eudui.net"
"CBCEB212-3F47-E097-2318-CBE88E783154";"MOLLIS INTEGER TINCIDUNT";"INSTITUTE";"INC";"323-0015";"P.O. Box 481, 5454 Risus, Ave";"Casper";"Wyoming";"Philippines";"penatibus@fermentum.ca"
"B52A9231-164F-F314-9D20-C8C352B02E4B";"AMET";"ASSOCIATES";"";"1116747";"1359 Dolor Road";"Wa?brzych";"Dolno?l?skie";"Bosnia and Herzegovina";"augue.scelerisque.mollis@Namporttitor.com"
"25B853B6-9242-BA22-3765-17CA3BFCF194";"AENEAN EGESTAS";"PC";"";"842-4504";"6894 Velit. Rd.";"San Juan de Dios";"SJ";"United Arab Emirates";"aliquam.iaculis.lacus@parturientmontesnascetur.net"
"C25AB4C0-9A84-3A74-F839-176C6D672008";"AMET FAUCIBUS UT";"INCORPORATED";"INC";"290-9590";"8831 A, Av.";"Fayetteville";"Arkansas";"Pakistan";"aliquet.diam.Sed@molestiepharetranibh.ca"
"5DB8220C-47E0-E335-86F0-E42203602BF4";"EROS";"ASSOCIATES";"";"1-772-862-6211";"P.O. Box 448, 7136 Aliquet, Rd.";"Grafton";"New South Wales";"Central African Republic";"faucibus.lectus@pedesagittis.co.uk"
"9332DAA3-5621-8D3B-B5D5-87958BCB6C05";"CONVALLIS";"FOUNDATION";"";"763-1967";"Ap #450-7682 Eros. Rd.";"Kozhikode";"Kerala";"Belize";"velit.Aliquam@ut.org"
"3EC56E18-D3E9-1CBE-361E-05FA44FABD1E";"ORNARE LECTUS";"LLC";"LLC";"329-3044";"P.O. Box 235, 8437 Convallis Avenue";"Lleida";"Catalunya";"Andorra";"et.commodo.at@auctornonfeugiat.com"
"F7C4D4BF-9DF1-BC06-B61B-50BA4DA5DDB7";"TORTOR INTEGER ALIQUAM";"PC";"";"492-5326";"3414 Pede. St.";"Fresno";"CA";"Palau";"amet.diam.eu@arcuMorbisit.ca"
"40384B6F-BED4-605B-03D6-8E91D6426E05";"SODALES NISI";"CORP.";"CO";"758-1235";"P.O. Box 269, 5157 Eget Av.";"Bendigo";"VIC";"Mayotte";"torquent.per@interdumenimnon.org"
"4FD43EB1-A54F-D8CC-B6C3-C3E97F7D0E10";"AUCTOR VITAE";"LIMITED";"LLC";"532-4630";"201-3321 Vestibulum Avenue";"Brahmapur";"Odisha";"Bolivia";"feugiat@vitae.co.uk"
"A52F0628-49ED-676B-54FA-9450F054FC57";"LIBERO DONEC";"INDUSTRIES";"INC";"869-1211";"8593 Sed Street";"Picton";"SI";"Greece";"Morbi.metus.Vivamus@nisidictumaugue.net"
"0716128D-33FC-3E2D-A856-8E84D8988E90";"MI DUIS RISUS";"INDUSTRIES";"INC";"298-0528";"737-432 Cubilia Avenue";"Dublin";"L";"Namibia";"Curabitur@malesuadafames.co.uk"
"BA32E89D-F012-93FC-D6F6-FEA8693E907A";"MOLESTIE PHARETRA";"FOUNDATION";"";"1600588";"112-997 Suspendisse Rd.";"Kraków";"Ma?opolskie";"Angola";"Vivamus@Donecdignissim.net"
"882D2323-643D-06D6-8660-A8D70318A393";"ENIM COMMODO";"FOUNDATION";"";"1-384-303-9680";"123-9428 Lorem, Ave";"Legnica";"Dolno?l?skie";"Bahrain";"risus.odio.auctor@nonegestasa.ca"
"8BCDBAE6-4963-7158-CC73-7A7914D43492";"DOLOR";"FOUNDATION";"";"1-853-535-1424";"175-9590 Mollis Ave";"Indianapolis";"Indiana";"Estonia";"felis.Nulla.tempor@telluseu.org"
"90A5B843-DA1E-EF14-EA51-7F65C8F9DBA4";"MORBI";"LLP";"LLC";"1-539-992-9335";"6842 Dictum Ave";"Parla";"MA";"Luxembourg";"mattis.Integer@aliquetodio.ca"
"0981F460-8439-8C36-62EF-7F1C77C07EBD";"PHASELLUS DAPIBUS";"INDUSTRIES";"INC";"723-0545";"Ap #902-8682 Consectetuer St.";"Worcester";"Massachusetts";"Guinea";"Cras@eratVivamusnisi.com"
"ED7DB36D-0D93-4688-CA27-3D689E5AE0B3";"RISUS DONEC";"CONSULTING";"";"1-709-503-9701";"P.O. Box 891, 1402 Accumsan Av.";"Galbiate";"LOM";"Venezuela";"non.hendrerit.id@Duiselementumdui.ca"
"E0B9A2D2-5A5D-1C55-4EAD-EFC55C487B76";"SEM UT";"INDUSTRIES";"INC";"274-3169";"P.O. Box 334, 7297 Vulputate Avenue";"Berlin";"BE";"Togo";"erat@tempor.org"
"5EC7DD25-8414-BE77-53AE-0F5E5D14FE57";"NEC";"LTD";"LLC";"1-466-609-7339";"442 Lorem Ave";"Oudenburg";"WV";"Sierra Leone";"vitae.aliquam@egestas.edu"
"D742E120-ADB1-101A-C0EF-EF74CF8981FB";"ACCUMSAN";"CORPORATION";"CO";"241-0692";"644-825 Cras Street";"Alacant";"Comunitat Valenciana";"Samoa";"Donec@In.org"
"D10D06F6-BBF9-DAF7-484A-2DD45FB61633";"TURPIS EGESTAS";"ASSOCIATES";"";"1-952-946-3072";"P.O. Box 703, 2666 Vel, Rd.";"Carapicuíba";"SP";"Tokelau";"et@egettincidunt.com"
"509DAE3C-E67A-BB06-5CBF-71E0FE78AD19";"NEC";"LLP";"LLC";"1-933-684-0228";"P.O. Box 201, 8155 Congue, St.";"Siedlce";"MA";"Dominican Republic";"ut.dolor@rutrum.com"
"5C01CA9B-B191-C819-2182-4910B9DC4EB4";"ETIAM GRAVIDA";"ASSOCIATES";"";"1-178-122-5528";"123-2163 Eu Rd.";"Alva";"ST";"Denmark";"Nullam.suscipit@orciPhasellus.org"
"ACCD85FE-F89E-6F3E-F89E-751149A8E983";"DICTUM AUGUE MALESUADA";"LTD";"LLC";"1-460-597-1385";"Ap #122-3396 Sociosqu Street";"Dublin";"L";"Somalia";"eu@idenimCurabitur.edu"
"11E29CD7-AEE5-1F78-2856-E81CEA62862A";"MASSA MAURIS";"CORPORATION";"CO";"353-5728";"5763 Ligula St.";"Galway";"C";"Spain";"vitae.dolor.Donec@eleifendnecmalesuada.com"
"44F41D0B-2C06-F758-046E-9BB4B4324CF2";"LOREM IPSUM";"LIMITED";"LLC";"1635018";"Ap #550-8815 Nisi. St.";"Zwijnaarde";"Oost-Vlaanderen";"Fiji";"Duis.elementum.dui@facilisislorem.net"
"373662E5-F10B-9D66-9757-7723E8D08D13";"LIBERO PROIN MI";"INCORPORATED";"INC";"588-6465";"7731 Amet Rd.";"Vienna";"Wie";"Heard Island and Mcdonald Islands";"ante@conubia.co.uk"
"29DD007E-2F3B-5327-5B4E-F15DF58089D4";"AT AUGUE";"INDUSTRIES";"INC";"1-953-787-0185";"2527 Mauris Road";"Le Petit-Quevilly";"Haute-Normandie";"Maldives";"velit@felis.ca"
"B11259A7-CCE7-6714-154B-C654A1D946E8";"EUISMOD";"LTD";"LLC";"946-0978";"P.O. Box 435, 7392 Odio St.";"Tywyn";"ME";"Morocco";"vulputate.posuere.vulputate@vitaediam.com"
"024325CA-637A-7602-CD18-27BD02F5605B";"QUIS";"LTD";"LLC";"(611) 573-2310";"341-6792 Cursus Ave";"Whangarei";"NI";"Guernsey";"ut@ligulatortor.co.uk"
"71C31922-0ED8-A06D-E55D-CFDC77518484";"MAGNA";"COMPANY";"CO";"1-542-681-8388";"P.O. Box 804, 7975 Magna. St.";"Colchester";"VT";"Serbia";"Quisque@afelis.com"
"17803A7E-9863-59BA-834A-5EE521E1C638";"DIS PARTURIENT MONTES";"PC";"";"1-463-345-7792";"P.O. Box 588, 7060 Elementum, Road";"Waiheke Island";"NI";"Lebanon";"vulputate.eu.odio@dolorFuscemi.net"
"DCBB4979-E3F7-427A-8FAC-0D7FA1E78584";"ULTRICES POSUERE";"INCORPORATED";"INC";"(291) 354-2140";"129 Risus. Av.";"Kielce";"SK";"Central African Republic";"nisi@eueratsemper.com"
"E5217053-EF6D-2C11-7B0D-A31DD8280926";"EGESTAS";"COMPANY";"CO";"613-2742";"1367 Fringilla. Road";"Jolanda di Savoia";"ERM";"Norfolk Island";"elit.elit.fermentum@sodales.edu"
"2F787EA6-CCB6-F422-5D0A-FF144BC4172A";"MI";"CORPORATION";"CO";"1-517-632-0254";"694-4890 Placerat, Av.";"Vienna";"Wie";"Costa Rica";"tempor.erat.neque@aaliquet.co.uk"
"E28DED2D-EDBD-BC9E-7F8D-1B646B15ECB9";"EGESTAS";"CORP.";"CO";"1-347-599-3496";"706 Sed Road";"Galway";"C";"Antarctica";"dolor@nuncnulla.org"
"9AE44B72-3FB2-9DE3-39AB-8E939705B52F";"ET NUNC";"COMPANY";"CO";"1-260-491-7614";"409-7029 Curae; St.";"Stendal";"ST";"Guyana";""
"8FF29E4A-278C-1F09-4C03-38F85A2E97BD";"CONVALLIS";"FOUNDATION";"";"401-7557";"Ap #483-8712 Pellentesque Ave";"Antey-Saint-Andrè";"Valle d'Aosta";"Laos";"sed.libero@Loremipsum.ca"
"7EF83CEA-F226-E9C7-DDFC-89DBA18F10B9";"DONEC FRINGILLA";"CONSULTING";"";"1-386-756-0776";"1868 Maecenas Rd.";"Bremerhaven";"Bremen";"French Polynesia";"Sed.pharetra@lectus.ca"
"B91DD954-797B-61C2-372E-C661ACA904A2";"LECTUS RUTRUM URNA";"INDUSTRIES";"INC";"296-9443";"P.O. Box 243, 363 Mauris Ave";"Edremit";"Bal";"Macao";"hendrerit.consectetuer@lectusjustoeu.edu"
"F85CA5B7-E9EB-14D7-EF2E-CF187C484A59";"NUNC";"INCORPORATED";"INC";"1-348-736-9256";"3931 Magna Avenue";"Veerle";"Antwerpen";"Georgia";"sit.amet@pedePraesent.edu"
"6E6DD3AB-1C76-52E9-540F-DE7D01C963FE";"FACILISIS SUSPENDISSE";"ASSOCIATES";"";"(220) 112-1162";"7417 Dictum St.";"Campinas";"São Paulo";"Malta";"non@consectetuer.edu"
"2A6ED5CA-0A58-77CB-DACE-2D262731A30C";"NON BIBENDUM SED";"CORP.";"CO";"1-829-558-3236";"Ap #908-7503 Nec St.";"Norfolk";"VA";"Uruguay";"ipsum@orcilobortisaugue.com"
"7106CA71-5069-EE9D-CE69-20F11DFA051D";"ORCI";"ASSOCIATES";"";"821-6053";"721-3190 Egestas. Avenue";"Terneuzen";"Zl";"Mexico";"dictum@nonummy.com"
"349B39CC-F009-1ADC-8DD6-FFAC03782EF0";"PROIN NISL SEM";"PC";"";"724-0495";"9450 Malesuada Avenue";"Mackay";"Queensland";"Heard Island and Mcdonald Islands";"dui.Suspendisse@Donecsollicitudinadipiscing.co.uk"
"96FD4B76-5260-7B53-12AD-3870F6547F43";"MAGNA MALESUADA";"INCORPORATED";"INC";"415-6043";"Ap #565-5872 Est. St.";"Bida";"Niger";"Malawi";"bibendum.fermentum@imperdietnon.org"
"CD37A293-2C06-719B-7C1A-122612EB9771";"SED DICTUM ELEIFEND";"LLC";"LLC";"1-781-695-3970";"219-7819 Urna. Road";"Bremerhaven";"HB";"French Guiana";"non@infelisNulla.org"
"CB880AEE-8076-7909-563C-CFF9454F102A";"VIVAMUS MOLESTIE";"LTD";"LLC";"321-8638";"Ap #174-1888 Sem St.";"Tamworth";"NSW";"Niger";"iaculis.enim.sit@lobortismaurisSuspendisse.net"
"1CFCFF65-2BD4-19FF-79B4-28F1A1C99A28";"AMET NULLA";"LLC";"LLC";"469-8838";"P.O. Box 523, 8242 Bibendum St.";"Belfast";"Ulster";"Sao Tome and Principe";"nascetur@turpis.com"
"5B436A43-2233-B731-34EE-39C3A8E71E3B";"QUIS";"LTD";"LLC";"919-0053";"P.O. Box 576, 8022 Enim St.";"Worcester";"Massachusetts";"Korea, North";"dictum@tinciduntaliquamarcu.edu"
"546C7FA3-3010-CA6F-DDFF-0AB2F656DF95";"ELEMENTUM SEM VITAE";"CONSULTING";"";"(305) 183-7792";"P.O. Box 499, 1614 Nisi. Rd.";"Okigwe";"IM";"Heard Island and Mcdonald Islands";"euismod.enim.Etiam@imperdiet.ca"
"6D9C20A2-4C0D-51D4-5935-92554D9BAA3B";"TELLUS NUNC";"CONSULTING";"";"1-558-254-4459";"8898 Sed Road";"Orsara di Puglia";"Puglia";"Wallis and Futuna";"ante@Vivamusnibhdolor.edu"
"FD2FE89C-6AF5-7261-FADE-B2E0B9850B15";"LIBERO ET";"FOUNDATION";"";"826-7814";"P.O. Box 119, 7147 Urna. St.";"Galway";"C";"Estonia";"auctor.non@blanditviverra.net"
"7C85E431-61C4-F6F3-8F39-5300170B154C";"AMET CONSECTETUER";"LTD";"LLC";"320-5707";"P.O. Box 603, 9351 Sollicitudin Street";"Istanbul";"Ist";"Côte D'Ivoire (Ivory Coast)";"ipsum@gravidaPraesent.edu"
"8AA7321F-2F5F-05A8-4C54-3E9BF5FCA74C";"ENIM CONDIMENTUM";"INSTITUTE";"INC";"(997) 442-1606";"P.O. Box 890, 5845 Eu Avenue";"Cedar Rapids";"IA";"Congo (Brazzaville)";"Cras@neccursusa.net"
"7FBFF3F5-EC4B-ED02-ADFA-7FC1921DE4F4";"DONEC FELIS";"ASSOCIATES";"";"1-923-865-3140";"P.O. Box 845, 9929 Pharetra Avenue";"Welland";"ON";"Liechtenstein";"Curabitur@Curabiturutodio.net"
"F1D6FAB3-2AE8-41E9-2F02-28A9BB788FF6";"LACINIA AT";"INCORPORATED";"INC";"(993) 980-0496";"7444 Leo, St.";"Bangor";"ME";"Somalia";"ac.turpis@nislelementumpurus.net"
"CE10D696-4071-479B-9357-C78038B3ABA8";"DUI CRAS";"INDUSTRIES";"INC";"1-307-606-6705";"P.O. Box 103, 9044 Et, Ave";"Rennes";"Bretagne";"South Georgia and The South Sandwich Islands";"eu@magnisdis.co.uk"
"328974FF-BE7F-90CB-CD2A-6BC325696052";"VOLUTPAT NULLA";"INCORPORATED";"INC";"665-2405";"Ap #323-914 Sed Rd.";"Dublin";"L";"Papua New Guinea";"adipiscing@nisiAeneaneget.edu"
"EE443905-1A3B-EA5D-E334-35B205E09225";"LECTUS PEDE";"ASSOCIATES";"";"1-404-879-8414";"6083 Ac St.";"Mercedes";"H";"Bolivia";"Fusce@faucibus.net"
"743F60B0-8871-8BD4-7DCE-059BE8416AD1";"DONEC";"LIMITED";"LLC";"(399) 292-2688";"P.O. Box 716, 306 Ligula. St.";"San Sebastiano al Vesuvio";"Campania";"Korea, North";"consectetuer.ipsum.nunc@dolorFuscemi.edu"
"DB38F43D-AB47-AB78-1DA9-C4287720842F";"INTEGER SEM";"INSTITUTE";"INC";"763-4807";"Ap #992-8598 Tempus, St.";"Kano";"Kano";"Uzbekistan";"vel.lectus.Cum@Loremipsumdolor.org"
"BB7A4F69-2C7D-CF01-A8C9-CC04A091C949";"LIBERO";"INC.";"INC";"706-9890";"419-7376 Primis Road";"Cappelle sul Tavo";"ABR";"Paraguay";"sem.egestas.blandit@anunc.ca"
"7CD43D94-9276-F088-5183-13CFFF54A6CC";"DONEC EST";"FOUNDATION";"";"295-7607";"9644 Sed Rd.";"Frankenthal";"Rhineland-Palatinate";"Mozambique";"nibh.dolor@laoreetposuereenim.edu"
"50AE8CED-5B35-C621-BF71-866EAB29EF29";"CONVALLIS";"PC";"";"1-641-410-9635";"Ap #663-195 Nulla Road";"Igboho";"OY";"Germany";"Sed@ultrices.org"
"A7D5E34E-8ECF-4E8D-FFCA-61C438096307";"FEUGIAT LOREM";"LTD";"LLC";"(978) 114-0395";"4139 Dui. Rd.";"Przemy?l";"PK";"Albania";"nec.imperdiet@risusat.com"
"B99C2774-ABFE-04CD-4B79-61010ABA2139";"NON EGESTAS";"INDUSTRIES";"INC";"(893) 598-9387";"P.O. Box 576, 9430 Mollis. St.";"Cartagena";"MU";"Qatar";"Curabitur@lacinia.co.uk"
"C63C15B2-9A53-AEDE-C495-74E586F9F494";"FACILISIS";"CORP.";"CO";"694-9622";"P.O. Box 173, 8661 In Rd.";"Saint-Laurent";"QC";"Guadeloupe";"posuere.cubilia.Curae@ametconsectetuer.net"
"2E1DE79C-1B2B-85F2-F938-E0D8C354D873";"RISUS QUISQUE LIBERO";"FOUNDATION";"";"686-7240";"1485 Arcu St.";"Pozant?";"Ada";"Colombia";"risus.Nunc@nequeetnunc.edu"
"6658AB05-C39D-80EB-4711-00B8ECBCA709";"DUI";"INC.";"INC";"950-1634";"8576 A, St.";"Thame";"OX";"Saint Martin";"sagittis@adipiscingenim.co.uk"
"486D65EC-1CE0-E35D-357C-022EF9B086A4";"CURSUS";"INCORPORATED";"INC";"1-913-622-8698";"Ap #509-8134 Non, Ave";"Telde";"Canarias";"Grenada";"ipsum.Curabitur@vel.co.uk"
"BDA882DD-25DC-44C5-9708-583C8B8F5F2D";"NULLAM VELIT";"LIMITED";"LLC";"(822) 170-6607";"9956 Nam Avenue";"Hervey Bay";"Queensland";"Antarctica";"Fusce@sapienCras.com"
"27FBF8F6-3C46-3292-79B7-16FDC2515EE4";"LIBERO MAURIS";"PC";"";"1-362-478-7374";"5591 Sapien Street";"Curitiba";"Paraná";"Northern Mariana Islands";"Sed.neque.Sed@dictumProineget.org"
"75E84AB8-E092-6405-7853-9D7A3C9FA4DC";"URNA NEC LUCTUS";"INSTITUTE";"INC";"391-2916";"7238 Nascetur Rd.";"Cork";"Munster";"Niue";"in@purus.co.uk"
"1EDDFDE5-1C0A-0E29-76FD-2FD65010A55B";"SIT AMET";"ASSOCIATES";"";"1-703-284-8047";"Ap #424-7878 Dapibus Street";"Altavilla Irpina";"Campania";"Uruguay";"amet.orci.Ut@magnisdisparturient.org"
"A62056FA-347E-FDB4-15E0-14201D54A264";"IN";"INSTITUTE";"INC";"1-812-207-7842";"Ap #483-2177 Elementum St.";"Crystal Springs";"Alberta";"Samoa";"lobortis.quam.a@feugiattellus.edu"
"B25C4E9F-6EDD-79DC-4362-DC3EFE3AA604";"CONSEQUAT AUCTOR NUNC";"LLP";"LLC";"1-192-491-7512";"Ap #966-8118 Eu St.";"Camrose";"Alberta";"Bulgaria";"Nunc@ametconsectetueradipiscing.com"
"06727D7F-3795-6BDF-228F-9541796C059B";"NEC METUS FACILISIS";"LTD";"LLC";"(346) 133-6013";"P.O. Box 273, 3363 Enim, Road";"Lakewood";"CO";"Saint Helena, Ascension and Tristan da Cunha";"Quisque.tincidunt.pede@nascetur.net"
"0C9CC545-2447-9652-BBAF-58AD64ABD5E9";"AUGUE";"INDUSTRIES";"INC";"1-245-772-1170";"Ap #919-1482 Nec, St.";"Port Augusta";"South Australia";"Cayman Islands";"in@Proinnonmassa.edu"
"D63BF3AB-D447-3B8A-1E3E-488955942B7C";"MOLLIS DUIS";"LLC";"LLC";"842-9419";"Ap #277-8204 Ornare St.";"Duque de Caxias";"RJ";"Afghanistan";"imperdiet.dictum@aliquet.co.uk"
"87814F3C-5B8B-C533-C997-EC75C45F2B75";"AT PEDE";"INC.";"INC";"641-4430";"P.O. Box 138, 8903 Fusce Road";"Uyo";"Akwa Ibom";"Paraguay";"vulputate.mauris.sagittis@magna.ca"
"5970DEA8-6D7F-1353-5A4B-77EE2E733ACE";"ID";"CORPORATION";"CO";"1-159-694-3665";"Ap #535-3117 Arcu. Street";"Eugene";"Oregon";"Haiti";"semper.et@tristiqueaceleifend.ca"
"2416B54E-8140-0A09-E3FD-81414C7A0E74";"AC LIBERO";"INCORPORATED";"INC";"1-974-847-8158";"215-4643 Justo Rd.";"Mesa";"AZ";"French Polynesia";"Maecenas.mi.felis@ultrices.co.uk"
"42418FA4-FC4B-984C-4331-CBB471E30E08";"FAUCIBUS ORCI LUCTUS";"CORPORATION";"CO";"1-325-363-7251";"P.O. Box 628, 3142 Lacus. Avenue";"Melville";"Western Australia";"Reunion";"Duis@enimmi.com"
"FC9E547E-9B37-B7D5-A0BE-162540B677B9";"AUGUE EU TEMPOR";"INC.";"INC";"1-380-376-8524";"Ap #495-410 Vitae St.";"Gda?sk";"Pomorskie";"Saint Martin";"varius.ultrices@at.edu"
"82EE21F6-7FF5-52A8-A68F-B71C8E9D99FC";"NON MASSA NON";"INCORPORATED";"INC";"1-214-462-6056";"P.O. Box 296, 4474 Pellentesque Rd.";"Great Falls";"MT";"Cocos (Keeling) Islands";"eu.ligula.Aenean@ametluctus.co.uk"
"83B86EFF-8B6D-9EAA-4707-88F337E42CBC";"TEMPOR ARCU";"ASSOCIATES";"";"1-453-858-5222";"Ap #125-5896 Luctus St.";"Buguma";"Rivers";"Comoros";"dolor.sit.amet@risusquisdiam.co.uk"
"ACF521B4-2C06-244F-CA34-97F913046434";"TORTOR";"ASSOCIATES";"";"1-252-626-8170";"7893 Lorem, St.";"Maranguape";"CE";"Belize";"Nulla@vitae.net"
"C51D0AD7-1F55-C7DC-DF04-C2E3CBF1EC39";"PELLENTESQUE ULTRICIES DIGNISSIM";"LIMITED";"LLC";"1-479-864-4412";"P.O. Box 607, 8367 Magna, Road";"Terneuzen";"Zeeland";"Palau";"enim@velturpis.com"
"8CA19A24-990D-C846-0EA0-273553F3CEC9";"TEMPOR AUGUE";"LIMITED";"LLC";"615-4775";"741-4214 Tincidunt Road";"Katsina";"Katsina";"Tonga";"at.iaculis@nibh.edu"
"0E42E3A5-3DA0-2E6D-EF2B-97E70AA461A3";"RUTRUM";"CORP.";"CO";"790-5325";"7814 Massa. Street";"Fauglia";"TOS";"Faroe Islands";"aliquam.enim.nec@vitae.org"
"B75E7435-2569-9B3A-AE78-5F287735DADA";"PHASELLUS AT AUGUE";"INSTITUTE";"INC";"(228) 161-9820";"P.O. Box 581, 5571 Elementum, Avenue";"Leganés";"Madrid";"Haiti";"ipsum@lacusAliquam.org"
"10745671-C8E6-DC38-45FA-2CE276BF9CBA";"MI LACINIA";"INSTITUTE";"INC";"1-953-582-1043";"P.O. Box 255, 7913 Tempor Ave";"Colombes";"Île-de-France";"Croatia";"nunc@adipiscinglacus.net"
"65E7CE0E-5618-DD5C-BFB0-7B1DBD25F2E6";"VITAE";"COMPANY";"CO";"1769694";"Ap #812-9631 Pharetra. Road";"Wyoming";"Wyoming";"Paraguay";"eros@ipsumprimisin.net"
"E1FEAC7D-5EB2-F58D-4D81-A6DB258629FA";"SIT";"PC";"";"1820705";"P.O. Box 722, 4423 Bibendum Avenue";"Casper";"Wyoming";"Russian Federation";"aliquet.diam@risus.edu"
"5008F418-7BF8-460F-34DD-C490E197D872";"UT MI DUIS";"LIMITED";"LLC";"1-104-503-7456";"P.O. Box 560, 4597 Arcu Street";"Wagga Wagga";"New South Wales";"Yemen";"erat.semper@leoMorbi.co.uk"
"346E0028-631F-42FE-D0D7-1B30B7335649";"DONEC NIBH";"LLC";"LLC";"1-779-539-0447";"308-5852 Dui St.";"Wabamun";"Alberta";"Panama";"a@nascetur.edu"
"67D5049D-9E59-D430-7FBF-59536D6FF760";"SOCIIS NATOQUE PENATIBUS";"FOUNDATION";"";"(298) 726-2469";"Ap #588-7738 In Rd.";"Rotorua";"NI";"Norfolk Island";"non.feugiat@eu.edu"
"5D52233C-CEE4-9273-6A9F-EAD723C620AA";"GRAVIDA ALIQUAM";"COMPANY";"CO";"1-279-820-7491";"P.O. Box 522, 9852 Tristique Avenue";"San Rafael";"A";"Cape Verde";"et.magnis.dis@liberoMorbiaccumsan.com"
"E4E458B8-DF53-4768-C47A-A3D899847C32";"AENEAN SED PEDE";"COMPANY";"CO";"804-4501";"840-2537 Erat Street";"Palma de Mallorca";"Illes Balears";"Nigeria";"volutpat.Nulla.dignissim@Quisqueac.co.uk"
"0E5B75DC-0066-CE6B-7233-E44D6183DA20";"LIBERO LACUS VARIUS";"ASSOCIATES";"";"1-258-602-4531";"Ap #655-1711 Curabitur St.";"Bossi?re";"NA";"Canada";"imperdiet.erat@scelerisqueneque.org"
"DEAC2CA0-43F8-ED8D-9F6E-3613D31A382C";"EGESTAS NUNC";"LIMITED";"LLC";"1-939-735-4437";"Ap #862-490 Tortor. Av.";"Paderborn";"NW";"French Polynesia";"ligula.Nullam@tellusfaucibus.org"
"E35A2ED3-99B4-84B8-84DF-E4C0895A065B";"SED";"COMPANY";"CO";"1-713-279-5227";"Ap #260-4093 Ac Road";"Bhilai";"Chhattisgarh";"Cape Verde";"Etiam@justo.org"
"FCE5C261-102A-CDD3-649B-FB3651B5AB64";"TORTOR NIBH";"LLP";"LLC";"(286) 137-7628";"Ap #722-2697 Sit St.";"Kelowna";"British Columbia";"Saint Barthélemy";"ac.nulla@tristiquesenectuset.com"
"22BB56F5-6D5F-3D17-1E47-0493B0248FE0";"NEC TEMPUS MAURIS";"CONSULTING";"";"1-433-434-6235";"714-2899 Morbi Rd.";"Hulst";"Zeeland";"Antarctica";"Duis.volutpat.nunc@a.ca"
"44D5A9FF-5E0B-F45A-38F7-1F0333132867";"DUI";"INCORPORATED";"INC";"1696047";"Ap #637-5161 Phasellus Av.";"Penrith";"NSW";"Brunei";"lacus@ipsumdolor.co.uk"
"E3E484B0-890B-FAC4-0933-8E7F2E6F4BBA";"IN";"FOUNDATION";"";"1-375-869-3663";"6784 Urna Rd.";"Tucson";"AZ";"South Africa";"metus@Nullafacilisi.edu"
"DC2D4751-707A-3213-051B-F4817A82B156";"EST";"CORP.";"CO";"1437144";"6218 Facilisis Rd.";"Hawera";"North Island";"Nicaragua";"massa@Integertincidunt.ca"
"82CE5B7B-56FA-00E6-77FA-7B55E8E5F8F2";"ALIQUAM ADIPISCING LOBORTIS";"CORP.";"CO";"1-736-976-0862";"2960 Nibh Rd.";"?mamo?lu";"Ada";"Virgin Islands, United States";"ante.blandit@Suspendisseacmetus.org"
"09C4B01B-D604-299C-B853-859E0342F4B0";"EU";"INDUSTRIES";"INC";"1-251-724-2699";"P.O. Box 613, 9745 Tellus. Avenue";"Wa?brzych";"DS";"Venezuela";"euismod.urna.Nullam@pharetra.net"
"D1F771F7-ED74-834D-E85A-9FB9E9B135BA";"IN";"LLC";"LLC";"1-280-273-5616";"746-8670 Egestas Avenue";"Wick";"Caithness";"Singapore";"diam.Duis@diamat.com"
"8052CA14-E911-2183-1F08-ECF841EBD420";"TELLUS SEM";"LLC";"LLC";"1-190-292-4883";"365-9024 Primis St.";"Caruaru";"Pernambuco";"Costa Rica";"purus.mauris@sitamet.com"
"E95270FE-D362-AE3A-30AD-3D219225F212";"ORCI";"INC.";"INC";"(747) 184-9653";"8139 Ac St.";"Columbus";"Ohio";"Papua New Guinea";"primis.in@sit.co.uk"
"BE95DD76-8164-8CF2-F2FD-D7CDCAD0433D";"AC MATTIS ORNARE";"INSTITUTE";"INC";"445-0273";"4313 Rutrum Street";"Varanasi";"Uttar Pradesh";"Cook Islands";"justo@dictumeuplacerat.ca"
"EACD48B7-BD30-36A0-DA4D-0C55E863795F";"A";"LLC";"LLC";"1-452-703-8757";"P.O. Box 702, 6401 Vitae, St.";"Betim";"MG";"Benin";"amet.dapibus@erat.com"
"6F3BED9C-3306-6C85-84B2-B7A73A2109E4";"LIBERO AT AUCTOR";"PC";"";"1-542-437-1822";"P.O. Box 320, 1831 Ut Avenue";"Minitonas";"Manitoba";"Yemen";"mattis@arcu.ca"
"ACBBFF88-BD21-34CE-879B-741668C965A7";"UT QUAM";"LTD";"LLC";"1-163-125-1509";"Ap #287-7344 Nam St.";"Istanbul";"Ist";"Viet Nam";"risus.odio@enim.com"
"EE8B8FD5-E3DA-34B8-42A6-13F7792E1D17";"NUNC";"INC.";"INC";"1-193-700-0983";"364-4739 Faucibus Rd.";"Ajmer";"RJ";"Pitcairn Islands";"ullamcorper@viverraDonectempus.ca"
"8D009676-BC7C-B990-02C8-21608BDEDFC5";"LUCTUS";"FOUNDATION";"";"1-729-206-6043";"701-9946 Id, St.";"Moustier-sur-Sambre";"NA";"Yemen";"sit@Suspendissesagittis.org"
"05BEC68A-83E4-5018-6A50-8B42FB32F4BC";"QUIS DIAM";"CORP.";"CO";"1-167-823-7517";"P.O. Box 903, 1639 Montes, Rd.";"Radom";"MA";"Congo (Brazzaville)";"urna.nec@Donec.net"
"9FE8F12F-5418-8520-D68D-422877F7F8E4";"DIAM PROIN";"INSTITUTE";"INC";"375-3773";"P.O. Box 245, 4286 Bibendum. Road";"Haguenau";"Alsace";"Malawi";"feugiat.tellus.lorem@Proin.edu"
"B9402438-ADA9-019C-39BE-723814C69340";"FELIS";"INCORPORATED";"INC";"1-779-737-3540";"1248 Magna St.";"Weyburn";"Saskatchewan";"Cayman Islands";"facilisis.vitae@mollis.ca"
"594CFD5C-04C6-632D-9B16-4C84BB3098B9";"NUNC INTERDUM FEUGIAT";"CONSULTING";"";"390-8312";"389-6668 Vivamus Av.";"Cleveland";"OH";"Hong Kong";"malesuada.Integer@rutrummagna.co.uk"
"3209760A-1AD9-13C7-FEC0-B88E6B6898D2";"AMET FAUCIBUS UT";"CORPORATION";"CO";"401-9111";"P.O. Box 805, 511 Tincidunt, Av.";"Dublin";"L";"Greece";"lobortis@ametluctusvulputate.ca"
"A83D6C92-CED4-6E39-51DD-62EF40AD131B";"NEQUE SED SEM";"LLP";"LLC";"1-348-310-2491";"Ap #692-4069 In Street";"Istanbul";"Ist";"Sweden";"orci.Phasellus.dapibus@Quisque.edu"
"30A34D2F-4B80-1FEC-BB28-4C9F2D4983F3";"MAGNA SUSPENDISSE";"PC";"";"781-4565";"P.O. Box 384, 3670 Adipiscing, Road";"Kingston";"Ontario";"Slovakia";"aliquet@diam.ca"
"5B9B441C-0C7E-4E21-B6C1-89C68302D004";"EUISMOD";"CONSULTING";"";"418-5900";"P.O. Box 269, 2317 Tristique Street";"Vienna";"Vienna";"Vanuatu";"dolor@velit.com"
"BED74B90-15E4-6B1F-6CEC-A86C7A696602";"RISUS QUISQUE";"INSTITUTE";"INC";"466-3099";"Ap #240-9751 Nisl Ave";"Drancy";"Île-de-France";"Solomon Islands";"blandit@luctusutpellentesque.com"
"0244F4BD-4DF0-3B2E-53FA-B56E5F1C2D75";"BLANDIT";"ASSOCIATES";"";"1-602-991-6523";"198-7299 Mi Street";"Lagos";"LA";"Isle of Man";"condimentum.eget@interdum.co.uk"
"C385A2DB-5752-D2A4-4614-E8F1D66E80F3";"AENEAN";"LTD";"LLC";"387-9129";"P.O. Box 803, 1868 Cras Avenue";"Lauro de Freitas";"BA";"Gambia";"aliquam.eu@sollicitudinorcisem.org"
"A815E6EF-2F9F-42EC-F215-B2B47A2EA915";"NULLA DIGNISSIM MAECENAS";"INC.";"INC";"1-273-831-0513";"P.O. Box 751, 9065 Nisi. Rd.";"Concepción";"San José";"Argentina";"Donec.tincidunt@estmaurisrhoncus.net"
"36569187-0833-1E4E-F945-245286F9566A";"QUIS";"CONSULTING";"";"1-855-676-7912";"4259 Risus. St.";"Mielec";"Podkarpackie";"Chile";"metus.sit.amet@egestas.org"
"2545C7FE-8008-6512-1DB1-BD423E96623C";"URNA NULLAM";"CORP.";"CO";"(772) 179-9656";"7573 Turpis Ave";"Fogo";"NL";"Antigua and Barbuda";"sagittis@mauris.com"
"49A639A2-117A-C912-4941-AAE390798915";"PORTTITOR";"COMPANY";"CO";"813-4301";"301-5188 Nonummy Rd.";"Eugene";"Oregon";"Saint Vincent and The Grenadines";"luctus@gravidamaurisut.org"
"301243B5-EF63-FB46-E698-5FE29413EBFB";"ID RISUS QUIS";"COMPANY";"CO";"(591) 582-4616";"P.O. Box 689, 2386 Facilisis Avenue";"Marbella";"Andalucía";"Dominica";"faucibus.leo@vestibulummassarutrum.com"
"06718E11-D899-3D7B-7CDD-7DA3D5E95B5B";"LUCTUS FELIS";"INDUSTRIES";"INC";"923-4273";"2494 Felis. Rd.";"Grave";"Noord Brabant";"Philippines";"eget.magna@sem.org"
"0D040534-69FE-FC9A-CCDA-ACB8982F9550";"TELLUS IMPERDIET NON";"CONSULTING";"";"1-465-767-7613";"3921 Scelerisque Avenue";"Clydebank";"DN";"Venezuela";"semper@Donecatarcu.ca"
"3E866B32-AC0C-D87D-2EE6-3B3C4B1F5947";"NON CURSUS NON";"INDUSTRIES";"INC";"1-230-227-4664";"504-3347 Felis Road";"Grafton";"NSW";"Malta";"a.scelerisque.sed@nonummyipsum.org"
"C7328D27-BD0D-10B2-B17D-95C05379F3E0";"AUCTOR";"INCORPORATED";"INC";"602-9662";"Ap #624-2807 At, Avenue";"Maracanaú";"Ceará";"Guinea-Bissau";"cursus@utdolor.co.uk"
"ADFBB2FC-CC7C-1D50-0F67-B0C9F6FAA3CD";"PLACERAT AUGUE";"LIMITED";"LLC";"554-5249";"Ap #181-4074 Vestibulum Ave";"Belfast";"U";"Fiji";"lorem.eu@urnajusto.co.uk"
"30DE7F73-71E4-B484-5CA5-178D8236717C";"SED EST NUNC";"CORP.";"CO";"1-510-343-9223";"P.O. Box 367, 366 Augue Ave";"Tauranga";"NI";"Eritrea";"Integer.vitae@ipsumdolorsit.com"
"9CA8E538-B2D3-7232-7EE9-0EBEC0166D88";"ANTE";"CONSULTING";"";"1-687-879-7161";"P.O. Box 833, 3888 Massa. Avenue";"Reims";"CH";"Viet Nam";"mollis.vitae.posuere@adipiscingelitCurabitur.co.uk"
"D2D37EC8-E7BB-6231-30E3-FB72FEE595C7";"MORBI VEHICULA PELLENTESQUE";"PC";"";"831-3672";"P.O. Box 343, 4982 Mollis St.";"Eugene";"Oregon";"Saudi Arabia";"Cras.eget.nisi@loremacrisus.org"
"02005409-EAFC-DAC6-847F-4DEF3D5EC301";"FELIS PURUS AC";"LIMITED";"LLC";"1-128-445-5481";"9103 Aenean Road";"Canoas";"Rio Grande do Sul";"Sri Lanka";"eu@erat.net"
"CA2930DF-E1D3-B63D-16AC-7B65B993DA25";"FRINGILLA";"CONSULTING";"";"1-703-596-3095";"P.O. Box 177, 2971 Proin Avenue";"Paranaguá";"PR";"Haiti";"Phasellus@estarcuac.com"
"AC82707B-1834-6B5F-3B43-D9F119115A07";"FRINGILLA";"LLC";"LLC";"397-5155";"Ap #401-1577 Mauris, St.";"Konin";"WP";"San Marino";"massa@nullaIn.net"
"1341775C-DBC0-F872-BAD1-45AA48AFAF3A";"QUIS URNA NUNC";"LLC";"LLC";"1-616-908-3904";"412-1975 Et Road";"Vienna";"Wie";"Trinidad and Tobago";"dui.semper@Crasvehicula.co.uk"
"4001F279-8E32-9BD5-E891-7C02C41230C3";"ULTRICES";"FOUNDATION";"";"1-627-757-9132";"6321 Scelerisque Avenue";"Timaru";"SI";"Andorra";"justo.Praesent@penatibus.org"
"C9F46394-925A-637F-5061-99EB4D52BCDC";"ARCU";"PC";"";"498-2809";"956-6594 In St.";"Belém";"Pará";"Heard Island and Mcdonald Islands";"at.risus.Nunc@sapienNuncpulvinar.org"
"97BA8161-9BC5-F35F-EC05-E474612FDEAE";"VEL MAURIS";"INSTITUTE";"INC";"1-255-543-1838";"P.O. Box 198, 5270 Auctor Rd.";"Santa Cruz de Tenerife";"CN";"South Africa";"Aenean.sed@euenim.ca"
"7AE82BFD-614B-E1F6-EC72-0D5896892A84";"GRAVIDA";"INCORPORATED";"INC";"326-9291";"2239 Bibendum Rd.";"Bareilly";"Uttar Pradesh";"Lithuania";"nonummy.ipsum.non@vitaeorciPhasellus.edu"
"C74E414C-9F77-D38C-2908-E5E4C1BACDF4";"METUS VIVAMUS EUISMOD";"LTD";"LLC";"1863853";"Ap #378-6954 Eget, St.";"Lakeshore";"Ontario";"Guatemala";"sit.amet.consectetuer@tortorNunccommodo.edu"
"DF9E81A3-EC18-27C8-EDCE-5F9B52C2596E";"INTERDUM";"CONSULTING";"";"209-8386";"2963 Est, Avenue";"Vitória da Conquista";"BA";"Western Sahara";"leo.in.lobortis@natoquepenatibus.ca"
"4FAB5ACF-A357-A171-32B3-6DA90FF4EA88";"VEL ARCU";"PC";"";"1-660-873-4858";"P.O. Box 477, 1276 Tortor St.";"Bonvicino";"Piemonte";"Svalbard and Jan Mayen Islands";"Pellentesque.ultricies.dignissim@Vestibulumanteipsum.org"
"E2EFAEFC-4D85-7A8E-2987-A706921093F7";"AT PRETIUM ALIQUET";"CONSULTING";"";"1-504-260-8863";"Ap #779-6025 Vel St.";"Grand Island";"NE";"Norfolk Island";"sagittis.augue.eu@sociosqu.co.uk"
"3825C1B5-C785-DA74-352D-F5761645B7DD";"LUCTUS IPSUM";"FOUNDATION";"";"1-860-968-5472";"2247 Nisi St.";"Kent";"British Columbia";"Taiwan";"Sed.eget.lacus@Maecenas.net"
"156DDA5B-12CA-7A73-FBBF-8290A7A39E46";"AUGUE EU";"CONSULTING";"";"1-729-884-5789";"9616 Donec Road";"Mérignac";"AQ";"Uzbekistan";"tincidunt.adipiscing@fermentum.org"
"5C2CF4FD-33F6-42C9-8E56-4E3E486DCE37";"METUS FACILISIS";"CORPORATION";"CO";"862-3812";"728-7392 Ligula. Street";"Van";"Van";"Guinea";"egestas@id.co.uk"
"8F509908-F361-3AF9-4A9B-10145BC13885";"DUI CUM";"CORPORATION";"CO";"1-542-216-0866";"P.O. Box 855, 5296 Pede Rd.";"Girona";"CA";"South Sudan";"non@dui.ca"
"4E4156D6-1D02-1B83-5C1A-2DD088EABF20";"MALESUADA VEL CONVALLIS";"LLC";"LLC";"1-141-158-4211";"4494 Dictum St.";"Guadalupe";"SJ";"Afghanistan";"Duis@blanditviverraDonec.net"
"5152EF01-3056-046C-F10C-872BD75A74DF";"IPSUM SODALES PURUS";"INC.";"INC";"(240) 165-6500";"P.O. Box 807, 2668 Dictum Av.";"Kawerau";"North Island";"Malaysia";"ac@ametloremsemper.edu"
"1DAEB87E-C8F6-2FD3-1461-17A79FAE47CA";"DUIS VOLUTPAT";"INDUSTRIES";"INC";"1-864-825-4001";"2233 Senectus Rd.";"Hervey Bay";"Queensland";"Bouvet Island";"nec.ligula.consectetuer@egestashendrerit.ca"
"5EF8A42C-6D68-C257-D9D5-6FD827AE8020";"PEDE ET";"LLP";"LLC";"(362) 193-8750";"Ap #683-1798 Ut, Street";"Murdochville";"QC";"Nigeria";"tristique.neque.venenatis@egetmassa.org"
"D5B6B804-0B1E-11DE-A891-F6BEED3921B3";"METUS IN";"INDUSTRIES";"INC";"1-749-929-7172";"Ap #775-1185 Mauris Av.";"Castres";"Midi-Pyrénées";"Suriname";"nibh.lacinia@eget.org"
"28BCDB7D-6166-75AC-5C54-23D77846EA88";"NONUMMY FUSCE";"COMPANY";"CO";"271-3046";"Ap #173-864 Faucibus St.";"Kano";"KN";"Ireland";"Proin.vel@Fuscemollis.ca"
"B0D7B27D-E4CF-0AC4-D602-36A83C5CE66C";"MAURIS SAPIEN CURSUS";"PC";"";"426-3145";"247-607 Cursus Av.";"Balclutha";"South Island";"Nepal";"tempus.non.lacinia@milorem.ca"
"564F221E-4821-DDE0-8634-F17B78A43E16";"ENIM SED";"LLP";"LLC";"1266053";"Ap #643-1785 Tortor Street";"Jonesboro";"AK";"Lesotho";"nulla.at.sem@semperet.com"
"DA78BD44-6E1D-36EC-DD66-C9C89B98504D";"NON SOLLICITUDIN A";"FOUNDATION";"";"1839174";"P.O. Box 450, 8614 In Rd.";"Gravataí";"Rio Grande do Sul";"Cook Islands";"eget.ipsum@risusMorbi.co.uk"
"43C27725-8B79-2EAC-9961-F8AA722BD89E";"ORCI TINCIDUNT";"FOUNDATION";"";"1701665";"217-2901 Vel Road";"Kearny";"ON";"Italy";"facilisis.non.bibendum@utodiovel.ca"
"584DFC17-1F54-BE2F-C0FE-6D123DDA5A64";"NONUMMY";"INSTITUTE";"INC";"731-5374";"P.O. Box 107, 3476 Etiam St.";"Guadalupe";"SJ";"Bhutan";"consectetuer@hendrerit.edu"
"9999CF9E-E147-EE43-84B2-AF149AF79173";"MAURIS ALIQUAM";"LLP";"LLC";"1-227-230-9203";"7319 Molestie St.";"Belfast";"Ulster";"Viet Nam";"Donec.felis@mipede.edu"
"86FC5C07-58E9-054F-C74C-B8B04364C856";"TELLUS";"CORP.";"CO";"681-1358";"351-6139 Arcu. St.";"Galway";"C";"French Polynesia";"diam@vel.ca"
"BA9CFA65-A32C-E1EA-D974-2431FADA0354";"FRINGILLA";"INC.";"INC";"633-6157";"P.O. Box 889, 3765 Posuere Avenue";"Cambridge";"NI";"Andorra";"risus.Duis.a@feugiatSednec.net"
"AAC1EE3E-B60D-0FBF-510A-35241744BE44";"ORNARE PLACERAT ORCI";"LIMITED";"LLC";"386-7990";"785-3790 Donec Road";"San Rafael Abajo";"San José";"Guinea-Bissau";"Sed.eget.lacus@Cum.org"
"E9AD47CA-DBD6-2D5E-0354-C13F30854140";"EST";"COMPANY";"CO";"304-9653";"123-9910 Nam Ave";"Vienna";"Vienna";"Guadeloupe";"sit.amet@vestibulum.co.uk"
"6F606DB7-0B44-B7E1-78E4-31458C94D59A";"SED NUNC";"CONSULTING";"";"1447927";"Ap #484-2273 Sed Road";"Bydgoszcz";"Kujawsko-pomorskie";"Brazil";"aliquet.diam@fringillacursuspurus.co.uk"
"9CA6E40E-E7B8-E8B3-9B64-2F7ABCD76E7B";"CUBILIA";"LLC";"LLC";"433-3124";"531-5369 Neque. Ave";"Samsun";"Samsun";"Mozambique";"nascetur@eleifendnec.ca"
"DD914F2D-A7CE-F484-AE8F-CB2E5F45E079";"VELIT";"INC.";"INC";"1-427-318-5578";"Ap #686-6919 Rutrum Rd.";"Bremen";"Bremen";"Hungary";"fringilla@non.ca"
"5BBC4650-5449-1B9B-98E3-F0F94EA0D0F3";"DONEC EGESTAS";"INSTITUTE";"INC";"415-8443";"9077 Nec Rd.";"Albany";"WA";"Panama";"nunc.Quisque@Duis.edu"
"49D9322F-1D40-2378-157B-20DBD604CA32";"LUCTUS ET";"CORP.";"CO";"793-0258";"5951 Quis Rd.";"Jelenia Góra";"DS";"Puerto Rico";"diam.at@Proin.co.uk"
"BEF2C49D-281D-61BC-09B9-9D0E965BB74C";"DONEC";"INDUSTRIES";"INC";"1-162-971-5598";"Ap #471-5559 Volutpat. Street";"Bilbo";"PV";"British Indian Ocean Territory";"eget.odio@euismodac.ca"
"7D0992C3-C608-5ADC-1BE0-D1E8D318B292";"DICTUM PLACERAT";"PC";"";"1-413-374-8334";"P.O. Box 403, 4944 Purus, St.";"Lagos";"Lagos";"Argentina";"aliquet@pedeSuspendissedui.co.uk"
"21E9F3DA-F024-648F-F0CE-AEFC5A300AB2";"AUCTOR VELIT";"CORP.";"CO";"(759) 192-0287";"Ap #134-2977 Velit. Ave";"Beaconsfield";"Quebec";"Bermuda";"mollis.lectus.pede@Pellentesqueultricies.co.uk"
"F5CB4423-4D90-A0D1-799E-C448EE7EF8B0";"TINCIDUNT PEDE";"CONSULTING";"";"1-156-597-4340";"Ap #901-4065 Nunc St.";"Ambala Sadar";"HR";"Mayotte";"dolor.nonummy@ametdiam.org"
"3EB77DED-EF11-7782-8895-C1308933E046";"NUNC SOLLICITUDIN";"INCORPORATED";"INC";"602-6327";"Ap #586-6962 Scelerisque Rd.";"Guadalupe";"SJ";"Turkmenistan";"eros.non@Duis.co.uk"
"410D7749-1482-5FBF-961E-C9BE9D1A773C";"LOREM IPSUM SODALES";"PC";"";"774-6557";"5222 Morbi St.";"Piotrków Trybunalski";"?ódzkie";"Slovakia";"ligula@egetmetusIn.org"
"F2FB3E51-35C3-42AF-AAE1-64823A2AB015";"DONEC VITAE ERAT";"INC.";"INC";"694-9019";"Ap #426-1475 Et St.";"Belfast";"U";"Thailand";"egestas@enimcommodo.edu"
"59F81C4A-96D4-64E5-B89F-54870B8EA108";"SED";"LIMITED";"LLC";"1-216-437-6417";"Ap #926-305 Semper St.";"Belfast";"U";"Fiji";"quis.diam.luctus@facilisis.ca"
"4803785F-5F02-BF3E-6487-470AE219C08B";"CURSUS";"LLC";"LLC";"1-249-745-9825";"Ap #530-1589 Ultricies Ave";"Alajuelita";"San José";"Austria";"Suspendisse.sed.dolor@ipsumdolor.ca"
"BF4F81E9-7906-5A21-6E05-DB7E9F79E0E2";"DICTUM PHASELLUS";"ASSOCIATES";"";"945-6664";"1787 Donec Avenue";"Gorakhpur";"Uttar Pradesh";"Liechtenstein";"ac.feugiat@necorci.net"
"6D6D60D2-90D0-10BA-B46C-785E30E59AD8";"NISI A ODIO";"INSTITUTE";"INC";"(204) 193-7491";"328-6858 Lorem Rd.";"Tarnów";"MP";"French Polynesia";"et@sollicitudin.com"
"EA1CD1D0-4AF6-F52B-BC56-F4FF10AC63C9";"NEC CURSUS A";"CORPORATION";"CO";"1-842-288-5333";"Ap #123-704 Blandit. St.";"Bear";"Delaware";"Niger";"nisi@quam.edu"
"2944019E-26CC-8314-89DB-9C7BB743B74E";"DAPIBUS";"COMPANY";"CO";"284-7911";"9006 Mauris Avenue";"Bhatpara";"WB";"Faroe Islands";"dis.parturient.montes@varius.ca"
"64266856-2E31-D248-4641-488B19707FE2";"ALIQUAM AUCTOR";"FOUNDATION";"";"228-6403";"9645 Ornare, St.";"Berlin";"BE";"Jamaica";"Nullam@commodo.co.uk"
"2E6AB433-1DB7-FD68-0826-4E55D1AAE87D";"TEMPUS MAURIS";"ASSOCIATES";"";"1-316-303-6319";"238 Sodales St.";"Valéncia";"CV";"Trinidad and Tobago";"nec.luctus@odio.net"
"9EA5B0E4-0B03-0206-D367-0820ADD7BBE8";"SUSPENDISSE NON";"INDUSTRIES";"INC";"708-8840";"Ap #838-3402 Massa Rd.";"Port Augusta";"South Australia";"Saint Lucia";"Sed.diam@cursusa.org"
"F9F4BBAF-14D7-72AA-D03D-213A1EA7A6BC";"IN FAUCIBUS";"INC.";"INC";"1-156-621-8903";"293-432 Ullamcorper. Ave";"Istanbul";"Istanbul";"Greenland";"ultrices.Duis@fringilla.co.uk"
"255B3269-AD46-8B84-6FF8-B90EEF277C80";"VEL VENENATIS VEL";"ASSOCIATES";"";"1-569-725-9727";"P.O. Box 485, 2173 Penatibus Rd.";"Broechem";"AN";"Panama";"tincidunt@sollicitudinadipiscingligula.co.uk"
"851E7395-0EB6-2CF2-CB58-E38DE776C64A";"CONGUE";"INDUSTRIES";"INC";"1-103-673-4588";"P.O. Box 892, 3695 Tristique Road";"Lagos";"Lagos";"Cocos (Keeling) Islands";"enim.Mauris.quis@duiFusce.org"
"520ACFA5-C03F-431D-DC98-55B6948AD346";"GRAVIDA";"INC.";"INC";"975-5348";"P.O. Box 579, 4088 Et, Road";"Galway";"Connacht";"Anguilla";"Curabitur.ut@magnis.net"
"3367070D-B95C-A30F-DCE7-42088429C9FB";"NULLA";"LTD";"LLC";"1-409-773-1066";"P.O. Box 651, 5015 Ut Rd.";"Salon-de-Provence";"Provence-Alpes-Côte d'Azur";"Denmark";"lobortis@Aliquamadipiscing.ca"
"6E84D4DD-8205-0EDA-33A4-B189B9D0416D";"TEMPOR ERAT";"CORPORATION";"CO";"1-714-465-3421";"173-3627 Phasellus Street";"Murwara";"Madhya Pradesh";"Bonaire, Sint Eustatius and Saba";"ut.pellentesque@maurisanunc.com"
"FB8DD5AC-9F3B-B5CD-EC3A-621DD62FCC2B";"SED DUI FUSCE";"CORP.";"CO";"534-3111";"1324 Ultricies Road";"Çald?ran";"Van";"Monaco";"pretium.et.rutrum@feugiatnec.com"
"05D27194-A102-7B2F-5F71-A4A3B50341F8";"SED";"INSTITUTE";"INC";"242-1297";"Ap #755-5595 Praesent Rd.";"Srinagar";"Jammu and Kashmir";"Monaco";"ridiculus.mus.Proin@eu.edu"
"E15B7639-F6D6-E65F-34A0-A0F7208D3A1D";"ENIM MAURIS QUIS";"CONSULTING";"";"1-476-510-0983";"P.O. Box 501, 2291 Nunc Av.";"Lodine";"Sardegna";"Morocco";"Proin.sed@arcuAliquamultrices.org"
"36BD0B94-5BA8-E48E-9E3C-6BC079C5444A";"DAPIBUS LIGULA ALIQUAM";"LLP";"LLC";"1-477-252-3448";"9595 Non, Street";"Rutland";"VT";"Portugal";"tempor.erat@mattissemper.ca"
"8321C105-C47C-B2B8-23C5-8DAFD21136ED";"NIBH";"INSTITUTE";"INC";"1-947-748-2026";"198-6796 In Rd.";"Grimbergen";"VB";"Cyprus";"montes.nascetur@famesacturpis.edu"
"DE4DB93E-D840-8926-B661-86DCC80811F9";"PURUS AC";"LLC";"LLC";"(897) 948-6592";"P.O. Box 304, 1939 Et Ave";"Spermalie";"West-Vlaanderen";"Guinea";"ultrices@necimperdiet.net"
"7FE2569A-15B3-C2E3-DA53-0E452F232506";"PROIN DOLOR";"LIMITED";"LLC";"441-8856";"Ap #209-5405 Neque. Rd.";"Ichalkaranji";"Maharastra";"Solomon Islands";"amet.risus.Donec@condimentumegetvolutpat.ca"
"EA86512F-758F-D99E-6E47-7821C43BF6A7";"DOLOR DOLOR";"CONSULTING";"";"(597) 956-7560";"350-4934 Vulputate, Avenue";"Vienna";"Wie";"Lesotho";"Donec.nibh@metusvitaevelit.com"
"D89D79CC-11EC-D0D9-4EDE-0D14A5CDC5C3";"MAECENAS";"INC.";"INC";"398-5712";"499-5590 Eros. Road";"Davangere";"KA";"Trinidad and Tobago";"amet@eleifendegestasSed.net"
"9E52DA7F-10E7-AABE-057A-CD5E5F85F994";"MAURIS ID SAPIEN";"CORP.";"CO";"(993) 706-9378";"P.O. Box 558, 7993 Faucibus Rd.";"Istanbul";"Ist";"Syria";"interdum.enim@urnaNullamlobortis.ca"
"BFF2BF3F-810B-E6AC-831E-76C74355F631";"LOBORTIS NISI NIBH";"INC.";"INC";"1-804-789-0062";"Ap #592-4542 Sed Street";"Chhindwara";"MP";"Guadeloupe";"quis.turpis.vitae@miac.co.uk"
"6D252C63-6148-0378-7AC8-7C006AA435FA";"SAPIEN NUNC PULVINAR";"FOUNDATION";"";"1-862-266-7361";"7297 Mauris Rd.";"Dublin";"L";"Australia";"eu@Innecorci.net"
"162ABE20-5836-71A9-2E3F-6B7435D9813C";"CONVALLIS ANTE LECTUS";"INCORPORATED";"INC";"1-111-388-8692";"465-5124 Nisl. St.";"Glimes";"WB";"Venezuela";"Integer@lacus.co.uk"
"B7D0BC4D-175B-A1CF-85EC-5EA562809985";"DIS";"LLC";"LLC";"(693) 962-4998";"Ap #732-385 Eget Avenue";"Minneapolis";"Minnesota";"Montenegro";"in@velit.ca"
"9FDB9113-22FA-DDAB-88DA-2A5BAF49A484";"LACUS VESTIBULUM LOREM";"LLP";"LLC";"1-154-675-2721";"Ap #414-1160 Orci. St.";"Cobourg";"ON";"Uzbekistan";"pede.ultrices.a@purussapien.net"
"3E46EEC9-6F73-1829-0BD2-1A93BF5D4DBF";"QUISQUE AC LIBERO";"ASSOCIATES";"";"329-8660";"5107 Arcu. Rd.";"Champigny-sur-Marne";"IL";"Nicaragua";"Fusce@etmagna.net"
"0540AB61-C0D7-89A4-8983-EE834E831C4C";"CURSUS VESTIBULUM";"LIMITED";"LLC";"1987019";"Ap #444-7904 Ac St.";"Bonavista";"NL";"Germany";"sed.sapien@eratvitaerisus.org"
"030B6130-24A9-9B1E-4AB4-24D8C3765C5F";"DUIS";"INC.";"INC";"955-7372";"2038 Dapibus Street";"Lagos";"Lagos";"Moldova";"arcu.ac@odio.net"
"7F96B310-A1C6-DF19-FEB9-3605C3D7CE85";"EGET IPSUM SUSPENDISSE";"CORPORATION";"CO";"741-7797";"8157 Metus. Av.";"Evere";"BU";"Virgin Islands, United States";"orci.luctus@Aliquameratvolutpat.ca"
"2CD55B93-FF9B-764F-35D3-E64A9B9E21BA";"PHASELLUS IN FELIS";"CORP.";"CO";"1423087";"300-7023 Semper Road";"Dublin";"L";"French Southern Territories";"penatibus.et.magnis@etmagnis.net"
"E7772942-742B-EEA4-D7D5-900CB4279834";"NEC LIGULA CONSECTETUER";"PC";"";"303-0271";"Ap #467-302 Sollicitudin Street";"Galway";"C";"Pitcairn Islands";"metus.vitae@per.com"
"D6B880FE-9C9F-338F-8471-4E2BC83C6A90";"ALIQUET";"INDUSTRIES";"INC";"343-3832";"8197 Vitae, Ave";"Palmerston North";"NI";"Isle of Man";"elit.erat.vitae@risus.com"
"AB9E7F53-B606-2F03-84CA-DAD24150465F";"ETIAM";"CORP.";"CO";"1-358-253-5903";"591-5876 Arcu. Street";"Metairie";"Louisiana";"Chile";"ac.mattis.velit@lectusrutrum.org"
"36DA03B9-2EBA-1B56-23B1-9B8BEB33928B";"ELEIFEND VITAE ERAT";"LIMITED";"LLC";"1-233-555-0026";"P.O. Box 143, 5042 In Rd.";"Hamilton";"Victoria";"Algeria";"at.velit@sodaleselit.com"
"8A0F627B-E3BC-6053-37AE-59231991A3AA";"METUS ALIQUAM";"INDUSTRIES";"INC";"709-2458";"234-7173 Gravida St.";"Worcester";"MA";"Sri Lanka";"tortor@cursusNuncmauris.ca"
"DE846DAC-C1AE-E699-4E26-9A74F2508E37";"FAUCIBUS";"INC.";"INC";"1-307-563-3826";"Ap #841-2293 Iaculis St.";"Newcastle";"NSW";"Luxembourg";"sapien.Cras@sem.net"
"8C1AF3FD-108B-23EC-B641-1BD75384FBFF";"CONSEQUAT AUCTOR NUNC";"LLP";"LLC";"1-421-518-6165";"3169 Habitant Street";"Poggio Berni";"Emilia-Romagna";"Japan";"a@idsapien.com"
"316A9A7A-3D00-DC17-AB05-6D12458C472D";"COMMODO TINCIDUNT";"LIMITED";"LLC";"(811) 528-0210";"3939 Arcu St.";"Berlin";"Berlin";"Saint Lucia";"tincidunt@pharetrasedhendrerit.co.uk"
"B92F71B8-9879-1D32-CB94-A96E8F816C9A";"UT CURSUS LUCTUS";"CORPORATION";"CO";"301-6719";"907-6263 Mattis Av.";"Ipswich";"Queensland";"Belarus";"aliquet.odio.Etiam@morbitristique.ca"
"831ADF06-335F-BF64-3A91-052751DACAAC";"ALIQUET";"ASSOCIATES";"";"318-2950";"P.O. Box 847, 5194 Tempus Street";"Cork";"Munster";"Cambodia";"tincidunt.nibh.Phasellus@diamPellentesquehabitant.org"
"A988E6DE-DDA5-BDA1-A62E-0A985F930153";"EGET MAGNA";"INSTITUTE";"INC";"426-8769";"P.O. Box 611, 6251 Sollicitudin St.";"Thorold";"Ontario";"Denmark";"a@mauris.co.uk"
"FC56BC97-109A-A94D-A830-C41D87DBF18F";"VIVAMUS EUISMOD";"INCORPORATED";"INC";"(790) 341-4931";"460-9048 Dictum Avenue";"Çald?ran";"Van";"United Arab Emirates";"ac@utpellentesque.ca"
"E2FD5BC4-D662-2BDA-C4C9-7ABFDF7CAF99";"QUISQUE IMPERDIET";"COMPANY";"CO";"870-1394";"Ap #328-6623 Quis St.";"Saint-Pierre";"QC";"Tokelau";"interdum@etrutrum.ca"
"138F86CE-CC8A-69F1-2ED7-C3BFDC9F939E";"VEHICULA RISUS NULLA";"INDUSTRIES";"INC";"1669365";"9444 Non Ave";"Bangor";"ME";"Philippines";"quis.pede.Suspendisse@maurisblandit.edu"
"955CB23E-7D42-418F-C80F-4D28533709F3";"ALIQUET PROIN";"LLC";"LLC";"1-764-306-7934";"Ap #733-3565 Suspendisse Street";"Shawinigan";"Quebec";"Aruba";"lobortis.quam@Integerurna.org"
"0E5634A1-344D-63FF-E270-285527D14365";"CURSUS NUNC";"COMPANY";"CO";"943-1990";"Ap #793-9478 Natoque St.";"Orhangazi";"Bur";"Macedonia";"libero@placerat.net"
"5B0713B6-3C1E-E0CC-57CA-1111C1037870";"NASCETUR RIDICULUS";"LIMITED";"LLC";"(796) 336-3653";"P.O. Box 408, 5544 Iaculis Avenue";"Lang";"Saskatchewan";"Congo, the Democratic Republic of the";"at@aliquetmagna.com"
"B8DE25DC-CA11-E72D-FDE1-C4C6A94D7052";"LIBERO PROIN";"INC.";"INC";"466-0134";"Ap #862-1231 Lorem. Street";"Kano";"KN";"Gabon";"ac@faucibusorciluctus.org"
"65E48044-D502-F731-9982-57AA9ECADC67";"PRAESENT EU";"FOUNDATION";"";"1-327-816-8811";"Ap #487-9808 Ipsum Ave";"K?r?khan";"Hatay";"Solomon Islands";"blandit.Nam.nulla@sedhendrerita.org"
"8B385256-1021-E0B7-2C60-64D1BE84F12E";"ET PEDE NUNC";"CORPORATION";"CO";"865-4440";"P.O. Box 955, 6781 Non Ave";"Bremen";"HB";"Saint Martin";"dapibus.rutrum.justo@Ut.edu"
"82799B00-19F4-1486-E65A-F245A6EBDF91";"NISL QUISQUE FRINGILLA";"CORPORATION";"CO";"213-9676";"Ap #881-8212 Lobortis Rd.";"Istanbul";"Ist";"Morocco";"molestie@Praesentinterdumligula.ca"
"7AC09AF9-5144-0E04-A29B-819F97DD51C9";"RUTRUM MAGNA";"LLC";"LLC";"1-288-785-4526";"7605 Risus. Road";"Açailândia";"MA";"Liberia";"tellus@Quisqueaclibero.ca"
"641C33AA-3E94-2054-921F-9C1EBC95EA38";"VITAE";"INCORPORATED";"INC";"857-9289";"P.O. Box 404, 3469 Gravida Street";"Cornwall";"Ontario";"Luxembourg";"sociis.natoque@odio.org"
"72CE6248-B629-FF84-41B8-596DCFD291B2";"VELIT PELLENTESQUE";"INCORPORATED";"INC";"(299) 645-5860";"540-7325 Eros. Rd.";"Brucargo";"Vlaams-Brabant";"Palau";"luctus.sit@dolor.com"
"50A30623-92D4-ADCE-66C9-16B7795E0361";"MAECENAS";"INDUSTRIES";"INC";"582-9768";"445 Montes, Rd.";"Kapiti";"NI";"Northern Mariana Islands";"turpis.nec@Loremipsumdolor.com"
"A85F6DC3-2DC9-1B25-45C2-706BAD61654C";"AC ORCI UT";"INSTITUTE";"INC";"568-6263";"P.O. Box 197, 4592 Suspendisse St.";"Saint Louis";"Missouri";"Georgia";"Cum@Maecenasmifelis.org"
"B413B395-7C4A-F68E-9001-E4EB68DF21F6";"SED";"FOUNDATION";"";"1-116-192-9036";"P.O. Box 117, 8284 Nisl. Rd.";"Berlin";"Berlin";"Costa Rica";"Aliquam.vulputate.ullamcorper@nunc.com"
"B34F6A01-264E-6315-B254-FE81C04D118F";"IN LOBORTIS";"FOUNDATION";"";"1-264-219-9631";"P.O. Box 734, 6844 Ac Road";"Clydebank";"Dunbartonshire";"Panama";"libero.Proin.mi@nisl.net"
"0F537002-5079-6797-F44C-CB97ACB3AAE5";"ARCU IACULIS";"LTD";"LLC";"1-156-705-4430";"851-6202 Mauris Road";"San Rafael";"A";"South Africa";"quis.pede.Suspendisse@nulla.org"
"B8984784-1349-BCB4-128D-552D07AD63C3";"ET MAGNA";"LIMITED";"LLC";"1656708";"540-6741 Bibendum Road";"Laon";"PI";"Vanuatu";"elit@ligulaeuenim.co.uk"
"16F92546-0F6D-0D96-85F9-270F98464667";"NUNC MAURIS";"INDUSTRIES";"INC";"1404639";"689-6973 Proin Street";"West Valley City";"UT";"Poland";"nisi.Aenean@sollicitudincommodo.edu"
"97B4F9CA-C157-BBBB-C333-9F1D7176A6E6";"VELIT";"INSTITUTE";"INC";"1-901-209-5713";"P.O. Box 909, 9968 Phasellus Road";"Dutse";"JI";"Antarctica";"Duis@sociis.org"
"1A3006E7-1EAA-D916-6C8C-D62524BA54BD";"LACUS QUISQUE IMPERDIET";"LTD";"LLC";"801-9074";"P.O. Box 218, 9379 Neque. St.";"Raiganj";"WB";"Tajikistan";"Nunc@semper.org"
"EACC1263-7BF9-E462-0C3C-D836AE4DF651";"CONVALLIS";"LLP";"LLC";"1-526-234-4745";"4547 Nulla St.";"Onitsha";"Anambra";"Nauru";"feugiat.nec.diam@sociis.com"
"8433E702-E167-484C-3895-6E9C362CF5F6";"ERAT";"INC.";"INC";"1-847-378-9272";"4922 Molestie Street";"Upper Hutt";"North Island";"Virgin Islands, British";"sit.amet.dapibus@Phasellus.com"
"BBD665C0-4263-4F4E-EF4A-8FCD7BEDE503";"EROS";"PC";"";"(596) 236-1433";"959-5263 Ut Rd.";"Novo Hamburgo";"Rio Grande do Sul";"Benin";"imperdiet.non@eget.co.uk"
"FC90C366-5C7E-8B74-E60C-8AADF48761C1";"VEL";"LLP";"LLC";"1-102-452-6616";"P.O. Box 805, 7275 Magna St.";"Warszawa";"Mazowieckie";"Egypt";"Curabitur.dictum@pellentesquetellus.com"
"19CBA08C-F737-0EB0-425B-A3AB30F1E2DD";"EGESTAS";"INDUSTRIES";"INC";"621-3758";"Ap #687-2868 Suscipit, Rd.";"Draguignan";"Provence-Alpes-Côte d'Azur";"Heard Island and Mcdonald Islands";"mattis.Integer.eu@aliquameu.com"
"5F599556-829B-328D-2EC1-4C1836B27032";"MAGNA CRAS CONVALLIS";"CONSULTING";"";"(893) 120-1799";"Ap #199-2389 Sed Rd.";"Karacabey";"Bursa";"Dominican Republic";"Mauris@Nullainterdum.com"
"47B4EDF4-6C59-191A-70BD-0E9939D3479F";"LEO";"CORPORATION";"CO";"352-7842";"Ap #319-1900 Laoreet Rd.";"Chelsea";"Quebec";"India";"felis.eget.varius@metuseu.edu"
"95EDC0E5-442E-9A35-014F-53FB522D1742";"VELIT EGET";"INDUSTRIES";"INC";"245-6956";"4284 Ultrices Street";"Paranaguá";"Paraná";"Burkina Faso";"amet.ornare@erategettincidunt.ca"
"52BCE1E2-3CC1-1166-8C33-5BCCC2701386";"INTEGER ALIQUAM ADIPISCING";"INCORPORATED";"INC";"1067311";"P.O. Box 196, 8006 Malesuada. Road";"Khanpur";"PB";"Estonia";"auctor.velit.eget@Nunclaoreet.co.uk"
"575D55B0-EDF9-35A4-6FC4-979CED5F93A8";"AC ORCI";"CORPORATION";"CO";"785-4829";"P.O. Box 582, 1682 Donec St.";"Londrina";"Paraná";"Tonga";"facilisis.magna.tellus@orci.co.uk"
"7BCB3D84-FEDA-C41A-AEC3-9C4774CCFE6A";"CURSUS ET";"LTD";"LLC";"581-0399";"9584 Est. Street";"Whithorn";"Wigtownshire";"Cyprus";"nec@nonmassa.net"
"EC86EDC7-665C-4B2D-9983-EBAE01923AB1";"ALIQUAM";"LLP";"LLC";"1-981-201-1117";"Ap #262-6908 Malesuada St.";"Te Puke";"NI";"Finland";"diam.Sed@mifringilla.co.uk"
"E8AF11D3-39AF-7409-83D8-8A5874B0A38A";"ARCU";"LTD";"LLC";"431-5259";"Ap #628-9607 Non, Rd.";"Gijón";"Principado de Asturias";"Andorra";"in@Curabiturut.org"
"93CDFE33-8EC6-AF1E-A38E-16A96E218B45";"VULPUTATE ULLAMCORPER MAGNA";"FOUNDATION";"";"290-9121";"P.O. Box 373, 1790 Consequat Av.";"Rockhampton";"Queensland";"Nicaragua";"eget.mollis@ametloremsemper.com"
"12B9DE0A-FDF4-69C8-0251-ABDFD35FF6DC";"POSUERE VULPUTATE";"LIMITED";"LLC";"363-9500";"965-6162 Enim. Road";"Limbach-Oberfrohna";"SN";"Antarctica";"Cras@tinciduntaliquam.net"
"33EF4442-4A3C-A2D8-B1AD-A498F9EDEFF1";"EU";"FOUNDATION";"";"536-1469";"208-5536 Donec Avenue";"Terneuzen";"Zeeland";"Congo, the Democratic Republic of the";"amet@magnaPraesentinterdum.co.uk"
"1F7B9701-C44D-0F27-EC6D-94C5E8684F59";"DICTUM";"INDUSTRIES";"INC";"426-4882";"Ap #394-7157 Eu Road";"Tumbler Ridge";"BC";"Canada";"urna.justo.faucibus@nuncsitamet.org"
"EAEB1CE2-3AC9-8956-B775-9B8EA56E1AC6";"TELLUS NUNC";"LLC";"LLC";"963-9233";"P.O. Box 811, 888 Nec Street";"Nice";"Provence-Alpes-Côte d'Azur";"Korea, North";"amet.nulla.Donec@AliquamnislNulla.com"
"E26F9CFF-D33F-A06F-8310-67F97909A7D8";"EST TEMPOR";"INSTITUTE";"INC";"1-588-243-9341";"2281 Ut Road";"Warren";"Michigan";"Swaziland";"a.nunc@volutpatnuncsit.net"
"BBEDE331-F820-F80A-7C87-2B640A589063";"ELIT PRETIUM";"COMPANY";"CO";"250-4547";"2637 Elit Ave";"Tallahassee";"FL";"Viet Nam";"tincidunt.orci.quis@eunulla.com"
"084264FA-A951-4A0D-8632-865920AE23E9";"IACULIS";"FOUNDATION";"";"(228) 611-5876";"976-5717 Tortor, Avenue";"Kakinada";"AP";"Austria";"gravida@egestasnuncsed.ca"
"23EFF447-86D5-5D95-3C18-CD986AA88AFF";"TINCIDUNT";"FOUNDATION";"";"1-451-501-1604";"Ap #379-487 Dictum Ave";"Cinco Esquinas";"San José";"Albania";"elit.dictum@dictum.co.uk"
"CC8450B6-B1DB-48E7-4A24-5C83679C106D";"FAMES";"LLP";"LLC";"941-4322";"P.O. Box 890, 2870 Aenean St.";"Katsina";"Katsina";"Somalia";"enim.commodo.hendrerit@dolor.edu"
"201BD952-195E-AF8A-5C2B-88C27E1C8480";"MAURIS MORBI NON";"PC";"";"877-6030";"Ap #562-6129 Sed St.";"Purnea";"JH";"Tajikistan";"convallis.in.cursus@In.edu"
"561534F0-FC85-5E89-405B-139D6281C417";"QUAM";"INDUSTRIES";"INC";"1-923-782-2981";"9113 A St.";"Balclutha";"South Island";"Guinea";"non.arcu@Donectempuslorem.com"
"84741825-D5E2-F8EA-1481-249730BA27C9";"SOLLICITUDIN";"INSTITUTE";"INC";"811-2909";"Ap #745-6210 Vivamus St.";"La Baie";"QC";"Honduras";"tellus.faucibus.leo@magna.net"
"B3C92C4C-BB8F-69F1-C89C-28383B4BDBA3";"ALIQUAM IACULIS";"CORPORATION";"CO";"1-586-333-5219";"7513 Gravida Rd.";"Ebenthal in Kärnten";"Ktn";"Burkina Faso";"amet@sempertellusid.edu"
"C0213B0D-6B2A-47D8-1F14-9016E4CC5D93";"DONEC";"CONSULTING";"";"1-342-632-1055";"950-5925 Tempus Rd.";"Kraków";"MP";"Isle of Man";"pede.Nunc@dolor.com"
"DCB4E547-3290-2065-6A44-17C4137F9D54";"RUTRUM FUSCE DOLOR";"LIMITED";"LLC";"820-3443";"3329 Velit Ave";"Ronciglione";"Lazio";"French Southern Territories";"lorem.tristique.aliquet@imperdiet.net"
"2E1D594D-BB49-CFE6-028C-BF87AD13F858";"NULLAM";"INCORPORATED";"INC";"(996) 625-5901";"542-3436 Ante Road";"Vanderhoof";"British Columbia";"Gambia";"pede.et.risus@tempus.co.uk"
"65862F9B-FFEE-92F3-F60C-DBD7B69075D7";"LOREM DONEC";"INCORPORATED";"INC";"1-101-665-3196";"Ap #703-8781 Senectus Ave";"Drachten";"Fr";"Gambia";"molestie.Sed.id@velitQuisquevarius.co.uk"
"9E287E10-2953-5A59-40F6-E6AB50781BCF";"MATTIS";"LIMITED";"LLC";"1-387-227-9662";"Ap #463-3773 Nec Rd.";"Vienna";"Vienna";"Myanmar";"Suspendisse.commodo@urna.net"
"01B58F37-4232-A688-6015-24198151478D";"ELIT DICTUM";"CONSULTING";"";"819-4040";"P.O. Box 771, 6413 Morbi Street";"Nantes";"Pays de la Loire";"Sao Tome and Principe";"tellus@id.co.uk"
"FF28A964-D12E-1366-E379-F76A5D2E5DCB";"AT NISI";"FOUNDATION";"";"1-635-358-6238";"P.O. Box 709, 2669 Lorem, St.";"Sluis";"Zl";"Saint Barthélemy";"luctus.sit@neceleifend.org"
"7D0EBEEF-6FD9-329E-2072-60B426832F41";"SIT";"LIMITED";"LLC";"1-624-662-9661";"347-1929 At Street";"Newquay";"Cornwall";"Rwanda";"varius.ultrices.mauris@Cras.com"
"D9F6E1D5-84CC-4998-2B87-3DE39ECF42B0";"NON EGESTAS A";"ASSOCIATES";"";"1-604-669-1086";"P.O. Box 343, 9365 Quis St.";"Okene";"Kogi";"Liechtenstein";"dictum.ultricies@idante.co.uk"
"406F8438-9BCF-4EB8-6CB7-9E9225EAF177";"ID";"FOUNDATION";"";"300-6930";"2781 Ut Avenue";"Ogbomosho";"OY";"Bhutan";"elit.fermentum.risus@vitaesodales.co.uk"
"9AE1F720-B2C3-9A9A-3812-70375695564C";"ULTRICES POSUERE";"ASSOCIATES";"";"340-6610";"622-3017 Non, St.";"Kent";"British Columbia";"Madagascar";"Morbi@dictumPhasellusin.co.uk"
"78972C87-D50A-0B07-696D-7007B0EF082F";"ARCU IMPERDIET ULLAMCORPER";"LIMITED";"LLC";"259-2919";"Ap #292-9759 Lacinia Street";"Drancy";"IL";"Guam";"odio.tristique.pharetra@nibhsit.net"
"882195B2-D845-9517-FEF9-3F04F79FA4CC";"METUS";"LIMITED";"LLC";"1-946-689-2569";"519-7016 Fringilla Rd.";"Birmingham";"AL";"Chad";"eu.tellus@venenatisvelfaucibus.org"
"C1F8BC3E-BFC6-6A77-C989-649E36FF949D";"MAURIS MOLESTIE PHARETRA";"INDUSTRIES";"INC";"1094802";"P.O. Box 685, 2689 Mi Street";"?ereflikoçhisar";"Ank";"Barbados";"risus.Donec@nondui.com"
"A05A3E79-B2E1-0625-C2C7-9C30901AFD95";"SEM NULLA";"COMPANY";"CO";"1-777-556-9337";"642-9068 Nisl Av.";"Brugge Bruges";"WV";"Bonaire, Sint Eustatius and Saba";"at@consequatdolorvitae.edu"
"CCA063CE-C36B-DDA6-9625-12BAFF0358FA";"EROS";"INSTITUTE";"INC";"662-7096";"5000 Scelerisque Rd.";"Cockburn";"WA";"Niue";"felis@Aliquam.edu"
"3835A01B-8349-A761-D77A-E3D434EB6877";"IN NEC ORCI";"INSTITUTE";"INC";"1-710-275-9986";"822-9837 Nec Rd.";"Velletri";"LAZ";"Czech Republic";"at.auctor@Aenean.edu"
"6237DE78-F5C4-38DE-562B-C7FFC92AC414";"LIGULA TORTOR";"FOUNDATION";"";"1-101-127-8934";"762-8317 Mi, St.";"Scarborough";"ON";"Antigua and Barbuda";"a@sollicitudin.net"
"B76BEE64-8110-507C-7903-B9CBDBF71CCF";"INTEGER";"LTD";"LLC";"1140976";"P.O. Box 404, 9519 Sodales Rd.";"Istanbul";"Istanbul";"France";"ullamcorper.Duis.cursus@auctorveliteget.org"
"886F828F-9866-DCB1-E545-788F1E9A48AB";"URNA UT TINCIDUNT";"INC.";"INC";"1-847-841-4951";"P.O. Box 683, 7055 Sagittis Avenue";"Lincoln";"NE";"Palestine, State of";"leo.Morbi@CuraePhasellusornare.edu"
"9A187527-78EA-EE90-F15F-AFFF62AC2021";"SAPIEN CRAS DOLOR";"CORPORATION";"CO";"1-936-214-3276";"3350 Egestas St.";"Pittsburgh";"PA";"Tokelau";"justo.nec.ante@sagittisaugue.edu"
"3DC7AAFA-84C7-C2EB-CCD9-1A8CDC9841B4";"NULLA ANTE IACULIS";"LLP";"LLC";"328-5933";"Ap #702-7597 Donec Av.";"Port Hope";"ON";"Mexico";"ante@gravidaPraesenteu.co.uk"
"15E7A587-B40D-6B67-558A-3E409571188D";"METUS FACILISIS LOREM";"INCORPORATED";"INC";"1-789-524-5422";"7684 Auctor Ave";"Lachine";"Quebec";"Pitcairn Islands";"enim.Suspendisse.aliquet@a.com"
"15F55903-CC80-C315-E02F-75C1F8B4E126";"NETUS ET MALESUADA";"ASSOCIATES";"";"1-947-631-1267";"Ap #333-9314 Ante St.";"Ravenstein";"Noord Brabant";"Western Sahara";"urna.Nunc.quis@nasceturridiculus.ca"
"5E8A3BB6-2549-E26F-2FAF-D6961FC86987";"A MI";"INDUSTRIES";"INC";"459-1123";"9939 Consectetuer Road";"Whitby";"Ontario";"Saudi Arabia";"id.magna@id.edu"
"ED566A00-1C7B-2883-CC9B-F3D36C973B50";"VENENATIS LACUS ETIAM";"INC.";"INC";"1-240-820-8776";"Ap #818-5142 Eu Street";"Taupo";"North Island";"Honduras";"cubilia.Curae@uteratSed.org"
"04DFFE4F-BBFD-B654-E9CE-414DCE3272BB";"RHONCUS DONEC EST";"INDUSTRIES";"INC";"656-4367";"546-8573 Taciti Rd.";"Bremerhaven";"HB";"Uruguay";"nec.tellus@pede.co.uk"
"C7BF8119-2E19-3457-7283-BB6036161D73";"VEHICULA ET RUTRUM";"LLC";"LLC";"448-1096";"981-2971 Nunc Road";"Napier";"NI";"Gabon";"metus@Nullamvelit.net"
"958A1B1D-5F56-90DC-9790-A9B80BEC5B2B";"AMET DAPIBUS";"COMPANY";"CO";"543-1588";"Ap #314-4032 Ante. St.";"Gresham";"OR";"Anguilla";"nulla@eget.co.uk"
"F4C21F6F-4A65-7868-2B0D-45C5874BF41F";"ENIM ETIAM IMPERDIET";"CORP.";"CO";"597-9273";"P.O. Box 240, 7493 Sapien, Street";"San José de Alajuela";"A";"Congo, the Democratic Republic of the";"tincidunt.aliquam@eratnonummy.co.uk"
"D50F9197-085C-2D0E-B3EC-54D3ACF99088";"MOLLIS";"COMPANY";"CO";"(719) 188-7277";"P.O. Box 208, 4741 Egestas Road";"San Costantino Calabro";"Calabria";"Bulgaria";"tempor@mi.edu"
"30A58359-E3AE-3841-6DCE-45B53A7A25D1";"RISUS DONEC";"INCORPORATED";"INC";"(525) 191-2177";"9470 Etiam Rd.";"Bremen";"HB";"Cameroon";"nascetur.ridiculus@ipsumPhasellus.org"
"F78CBF5C-F09F-537A-AA86-AF4A2786DCB0";"FUSCE DOLOR";"FOUNDATION";"";"264-5293";"Ap #811-8603 Nibh. Avenue";"Gander";"Newfoundland and Labrador";"Lesotho";"quam@loremluctus.co.uk"
"F4801F08-B1B7-2FDE-7CB0-D0CBD6BAE3BB";"DICTUM PHASELLUS IN";"INDUSTRIES";"INC";"1-788-651-6836";"Ap #798-1167 Aliquam Street";"Vernon";"Haute-Normandie";"Virgin Islands, British";"tristique.ac@Fuscealiquam.com"
"FE5FD40C-2704-EE95-D56F-E8F34D9AA11C";"RIDICULUS MUS PROIN";"FOUNDATION";"";"507-8263";"P.O. Box 787, 609 Vitae Ave";"Winterswijk";"Gl";"Egypt";"vel.convallis@nonmagnaNam.ca"
"CA5E188F-1290-6F46-EF51-7E50965A7EFE";"SED";"CORPORATION";"CO";"429-5705";"326-3323 Dolor Rd.";"Baiso";"ERM";"Australia";"Nunc.ut.erat@erat.com"
"A835BD27-2F68-A1C9-CAF5-6B4C93F9D463";"NULLAM";"INC.";"INC";"(388) 168-8478";"Ap #486-1510 Tristique Av.";"New Westminster";"British Columbia";"Faroe Islands";"convallis.ante@ut.org"
"34A10433-A523-2396-9745-316F6E9463A6";"TURPIS EGESTAS FUSCE";"LIMITED";"LLC";"1-255-924-9021";"Ap #386-1963 Enim Ave";"Metz";"Lorraine";"Mayotte";"rhoncus.Donec@Nullamnisl.edu"
"131DA08B-8B0A-6675-1085-E63597B501EF";"EGESTAS";"CORP.";"CO";"681-0618";"3184 Est Road";"Knoxville";"TN";"Ukraine";"fringilla.euismod.enim@Sedcongueelit.org"
"EE70E641-DE21-AC19-B7AE-7C4428D1FBFB";"NULLA";"COMPANY";"CO";"1-182-683-2610";"2132 Nam Av.";"Évreux";"HA";"Saint Helena, Ascension and Tristan da Cunha";"Nulla@elit.org"
"157E8053-93B5-4921-19FD-63F3D3CF517D";"COMMODO HENDRERIT";"PC";"";"1-198-140-1292";"Ap #619-7980 Aliquet. Avenue";"Lac-Serent";"Quebec";"Taiwan";"ultrices.posuere.cubilia@Sed.org"
"DA2FFB9A-F33F-DACE-3E36-57A3CCCCB45E";"MORBI";"LIMITED";"LLC";"1-249-778-1904";"P.O. Box 991, 9787 Mus. St.";"Berlin";"Berlin";"Brunei";"Fusce.aliquam.enim@libero.net"
"4D91AE5F-B009-C433-6A17-5DFBD9D7800C";"ARCU NUNC MAURIS";"LLP";"LLC";"265-4591";"P.O. Box 673, 4237 Dui, Rd.";"Fortaleza";"Ceará";"Timor-Leste";"Cum.sociis.natoque@ornare.edu"
"737A0E56-E1D1-054C-02F8-73D670AFE5A7";"VITAE PURUS";"INSTITUTE";"INC";"1-170-672-0517";"796-3643 Erat Avenue";"Berlin";"Berlin";"Ecuador";"eget@risus.net"
"E60BCF7F-9BB7-6510-E66C-74D4AF9595CA";"SED ET LIBERO";"CORP.";"CO";"620-2726";"P.O. Box 681, 3210 Molestie Road";"Camrose";"Alberta";"Morocco";"dictum.ultricies@lorem.co.uk"
"0182AF7F-CF14-8546-D7B8-874487EBA4DF";"LIGULA";"LIMITED";"LLC";"1291067";"761-6139 Tristique Road";"Nieuwerkerken";"OV";"Colombia";"eleifend.nec.malesuada@vestibulum.org"
"09EA291D-78E0-A526-4BD1-BD3C7E69E260";"LOREM EGET";"INSTITUTE";"INC";"916-9893";"P.O. Box 448, 6487 Parturient St.";"Cobourg";"Ontario";"Nicaragua";"mi.tempor.lorem@eratSednunc.co.uk"
"A9C27258-96FC-5468-FDF8-EC59AFA7F012";"NON ARCU VIVAMUS";"FOUNDATION";"";"623-5830";"613-2652 Dapibus St.";"Belfast";"U";"Lebanon";"montes.nascetur.ridiculus@Curabitur.net"
"DD75A7E0-EA44-2B6A-8ABF-FFFD1ED27C68";"VIVAMUS";"LIMITED";"LLC";"625-2173";"P.O. Box 155, 1828 Arcu. Rd.";"Delta";"British Columbia";"Grenada";"Aliquam.vulputate@Sedpharetra.com"
"2F9B0336-1280-4CBC-D96A-A79E9FD56645";"ET";"FOUNDATION";"";"(237) 311-9673";"7418 Mollis St.";"Sargodha";"Punjab";"Chad";"amet.dapibus@purus.org"
"9855668D-037B-3943-A3AE-D923CCFFBE6A";"RISUS";"CORPORATION";"CO";"1-912-240-4427";"Ap #620-4297 Sapien, Avenue";"Girona";"Catalunya";"Turks and Caicos Islands";"risus@Nullam.org"
"34ADB7EF-6B01-AB04-3610-774BE69BB51C";"SAPIEN IMPERDIET";"CORPORATION";"CO";"586-9401";"Ap #199-2964 Urna. St.";"Bremerhaven";"Bremen";"Algeria";"rutrum@ametfaucibus.ca"
"DEF31089-6B39-F66B-B5E2-E22DD0519E32";"PRIMIS IN FAUCIBUS";"INDUSTRIES";"INC";"1-187-581-7442";"P.O. Box 147, 5721 Quis Av.";"San Rafael Abajo";"San José";"Ecuador";"leo.Morbi.neque@tortor.ca"
"D7DF0329-AFF6-E789-008D-2C2AFACC56E3";"NON DUI NEC";"INDUSTRIES";"INC";"1-861-769-5244";"563-4297 Euismod Rd.";"Rotorua";"NI";"Madagascar";"vulputate.eu@ac.edu"
"45BD1D0F-08FE-8B84-FF56-70600D654893";"PRETIUM ALIQUET METUS";"LLC";"LLC";"1-635-825-1878";"P.O. Box 886, 3093 Leo. St.";"Eckernf?rde";"Schleswig-Holstein";"Côte D'Ivoire (Ivory Coast)";"cursus.diam.at@elitpellentesquea.com"
"F282108E-522C-6F19-688B-EC25F797ABBD";"PHARETRA NAM";"CORPORATION";"CO";"1-109-215-8438";"754-3295 Quisque Avenue";"Bregenz";"Vorarlberg";"Iran";"eget.venenatis.a@nonlobortisquis.edu"
"9273AD4D-A439-1AC5-D765-0D6EA6776869";"EU";"LLC";"LLC";"1-916-296-8689";"P.O. Box 332, 5086 Fringilla, St.";"Arras";"Nord-Pas-de-Calais";"Iceland";"mauris.erat@maurisanunc.ca"
"62286779-EBFC-6439-8329-191AC85DD73D";"ET LIBERO PROIN";"LLP";"LLC";"1-637-689-7143";"Ap #598-3515 Quis Ave";"Bikaner";"RJ";"Belize";"mollis.dui.in@eleifendegestas.co.uk"
"FED598CD-4908-5D11-C57C-0D49657924AF";"DUI";"INSTITUTE";"INC";"(826) 164-4893";"Ap #139-6983 Mollis Street";"Katowice";"SL";"Qatar";"elit.pede.malesuada@aliquamadipiscing.ca"
"8A538534-3D5D-4AF8-C7A2-9DE26B1C06D3";"ERAT NONUMMY";"CONSULTING";"";"672-1329";"1529 Eu St.";"Nottingham";"NT";"Pakistan";"fermentum@idenimCurabitur.org"
"8F098E37-9790-99E5-D4A3-7FEBB38538F5";"CURABITUR SED";"INCORPORATED";"INC";"1-359-667-0979";"4402 Massa. St.";"Jaén";"Andalucía";"Saint Helena, Ascension and Tristan da Cunha";"interdum.enim.non@ultricessitamet.net"
"AEFBFF52-4188-7D6C-0446-13CDB222026C";"NON";"COMPANY";"CO";"(895) 130-9762";"Ap #115-7810 Sed, Av.";"Oxford County";"ON";"Seychelles";"felis.Nulla.tempor@sem.co.uk"
"9E5B3EE0-782D-ACFE-0C2B-0BFBA77AFEF1";"DONEC";"LLC";"LLC";"1-657-772-5592";"916-4838 Aliquet Rd.";"Elx";"Comunitat Valenciana";"Cambodia";"diam.luctus@Etiamlaoreetlibero.edu"
"BA01EEEC-D35D-DADC-405D-6BBE412BD25E";"ERAT SED";"LTD";"LLC";"(766) 139-9383";"Ap #629-3594 Vulputate, St.";"Dutse";"JI";"Christmas Island";"non.sapien.molestie@nibhenim.net"
"26BB5958-5B80-8627-3F18-4F78181F6F9B";"ODIO NAM INTERDUM";"LLC";"LLC";"1-749-902-2995";"733-4300 Sed Rd.";"Alajuela";"A";"Georgia";"vel.mauris@orcisem.org"
"99A48350-1703-E39B-BFF7-0676B4C427CA";"ALIQUAM EU";"CORP.";"CO";"792-7283";"576-9255 Etiam Rd.";"Hoofddorp";"Noord Holland";"French Polynesia";"Mauris.vel.turpis@nec.org"
"E4757ACF-E129-5D59-81CB-46527FEF0331";"DICTUM ULTRICIES LIGULA";"INSTITUTE";"INC";"357-1997";"Ap #111-4139 Enim Ave";"Vienna";"Wie";"Antarctica";"Proin.eget@sitametrisus.com"
"77C1EBDA-E959-58A5-0D2F-BBB360946365";"NEC LIGULA CONSECTETUER";"LLP";"LLC";"1280362";"786-3217 Risus. St.";"Uyo";"AK";"Swaziland";"odio@doloregestas.ca"
"12211318-C83F-F9B2-F479-5C8C565513D0";"MAURIS UT QUAM";"LIMITED";"LLC";"355-9847";"P.O. Box 448, 2036 Ut St.";"Istanbul";"Ist";"Croatia";"gravida.mauris.ut@fermentumarcuVestibulum.edu"
"2B1C3E35-A6E7-4BB9-DA99-B9C0BE988859";"EU";"LIMITED";"LLC";"408-8717";"Ap #576-2836 Enim Rd.";"Valleyview";"Alberta";"Equatorial Guinea";"augue.eu@ac.ca"
"EC881922-B658-6EE4-4886-BE75FB611A02";"PEDE";"CONSULTING";"";"1-610-390-2597";"P.O. Box 201, 1076 Magnis Avenue";"Alexandra";"South Island";"Mali";"ligula.tortor.dictum@estmollisnon.co.uk"
"7532CAB5-C4E0-9F4D-8430-D65F8C8E512B";"ALIQUAM NEC ENIM";"INCORPORATED";"INC";"281-6001";"P.O. Box 931, 5595 Ornare. Road";"Fresno";"California";"Belgium";"in.consequat@iaculisnec.com"
"26164ED7-B550-DECD-0963-A3D0CC20F4DE";"NEC IMPERDIET";"PC";"";"351-1403";"Ap #873-5357 Velit Ave";"Galway";"Connacht";"Mauritania";"Curabitur.consequat@dolor.com"
"9BD7BF62-50DC-29D7-BF32-118EF14D78C9";"DIAM DUIS MI";"LIMITED";"LLC";"743-5287";"2297 Aliquet Avenue";"Tarnów";"Ma?opolskie";"Martinique";"hendrerit@Integerin.edu"
"24111717-7A29-B548-DA05-9651264BD11A";"IPSUM";"INC.";"INC";"478-8935";"Ap #516-5795 Nec Rd.";"Heredia";"H";"Nepal";"vulputate.mauris.sagittis@In.net"
"1B4FEF9B-8BA9-416F-E46F-61F7CC8E552D";"NEC METUS";"INSTITUTE";"INC";"755-5175";"Ap #179-2010 Ultricies Ave";"College";"Alaska";"Ethiopia";"nunc@anteNunc.co.uk"
"6C6D2A2E-9A9F-3CBE-803F-7B0C40E8828D";"NON";"FOUNDATION";"";"764-3726";"P.O. Box 325, 5421 Faucibus. Rd.";"Valéncia";"Comunitat Valenciana";"Bonaire, Sint Eustatius and Saba";"Lorem.ipsum.dolor@Sed.ca"
"33DCB3ED-3474-8F1E-3779-7C897ED635A4";"EGESTAS";"COMPANY";"CO";"1-255-243-5201";"530-4080 Nullam Av.";"Belfast";"Ulster";"Iran";"Cras@maurisa.edu"
"DD2B9544-0AAD-32F9-0DA4-B7536B836532";"NISI";"INCORPORATED";"INC";"517-8270";"2606 Enim Av.";"Siedlce";"MA";"Nicaragua";"bibendum.ullamcorper@malesuadaid.org"
"7499EE8B-1D54-5D03-9251-19474595681B";"MAURIS";"LLC";"LLC";"1-763-225-0015";"P.O. Box 905, 5446 Congue St.";"Maranguape";"CE";"Belgium";"eu.neque.pellentesque@sagittisDuis.org"
"81C9625C-EE1F-F104-778D-57F4E2834012";"NEC URNA SUSCIPIT";"LLC";"LLC";"1-579-938-6363";"P.O. Box 301, 3206 Erat Street";"Bismil";"Diyarbak?r";"Grenada";"viverra.Donec@venenatisa.net"
"CD390218-00DE-8639-C815-B58E454EB19D";"NON";"INSTITUTE";"INC";"1-314-413-8190";"P.O. Box 175, 3833 Molestie Rd.";"Olsztyn";"Warmi?sko-mazurskie";"Guernsey";"orci.Ut.sagittis@posuereenim.com"
"D73B1DFC-988C-844C-85A5-44EABB9EF18C";"AUCTOR ODIO";"INCORPORATED";"INC";"650-7723";"128-6146 Sit Av.";"Che?m";"Lubelskie";"Greece";"elit.Curabitur.sed@egetlaoreetposuere.net"
"5D531308-96AA-2998-3295-E093E6836CF3";"A";"COMPANY";"CO";"1-847-482-0151";"Ap #639-9431 Suspendisse Av.";"Schaarbeek";"BU";"Heard Island and Mcdonald Islands";"tortor.Integer.aliquam@nonluctus.org"
"76962F1F-B327-2B8C-C19F-F54174CFC0C2";"PHARETRA SED HENDRERIT";"PC";"";"787-5063";"P.O. Box 539, 8812 Iaculis Av.";"Warri";"Delta";"Greenland";"quis.pede.Praesent@mollis.net"
"1E133CCE-1112-1203-6C6A-7511F5297501";"METUS";"LLP";"LLC";"1106782";"Ap #569-4233 Ipsum Road";"Dublin";"L";"Trinidad and Tobago";"sagittis.semper@accumsanconvallis.net"
"6FCA5814-6579-B1A1-6E5E-DB7136B3404A";"MALESUADA FAMES";"FOUNDATION";"";"586-7065";"Ap #192-8521 Ut, St.";"Bharuch";"GJ";"Wallis and Futuna";"bibendum.ullamcorper@eleifendCras.org"
"C98FAB5E-A762-2145-436F-D13168B93394";"ALIQUET PHASELLUS FERMENTUM";"LTD";"LLC";"1-174-492-4568";"473-3269 Nibh. Av.";"San Diego";"Cartago";"Germany";"semper.rutrum.Fusce@accumsan.ca"
"1D8F8BE2-E448-8113-3316-2931C0CB8775";"ARCU IMPERDIET ULLAMCORPER";"LTD";"LLC";"1-701-868-3103";"157 Ultrices Av.";"Sclayn";"Namen";"Tunisia";"Ut.semper.pretium@nibhvulputate.edu"
"37278AEE-4A20-5EF4-209F-54368BF09B95";"MOLESTIE";"CORPORATION";"CO";"311-6164";"4335 Donec Rd.";"Málaga";"AN";"Libya";"a@sedturpis.edu"
"4BED24DD-DB05-94FB-71C1-13DB383B2F3B";"SUSPENDISSE COMMODO TINCIDUNT";"CORPORATION";"CO";"449-3467";"382-325 Libero Ave";"Vienna";"Vienna";"Benin";"nunc@elitpellentesquea.com"
"9EF423EC-6E55-C5B0-08C3-503DFB23EF96";"QUISQUE PURUS";"LLP";"LLC";"976-4289";"Ap #564-1916 Ultrices Avenue";"Muradiye";"Van";"Dominican Republic";"et@ut.net"
"DBB47930-D0FB-0780-9632-DB92C02939B4";"FEUGIAT LOREM IPSUM";"LIMITED";"LLC";"686-4134";"P.O. Box 360, 5866 Aliquam St.";"Lawton";"Oklahoma";"New Caledonia";"Aenean@suscipitnonummy.com"
"8E402F37-F9FE-E22C-E6B0-9F11C66FF89F";"SAPIEN MOLESTIE";"LLC";"LLC";"1-865-399-4022";"9520 Tincidunt St.";"K?z?lcahamam";"Ankara";"Turkey";"interdum@Cum.edu"
"946278F9-A452-96EF-DFC9-01A233759049";"SIT";"CORPORATION";"CO";"575-8487";"Ap #796-5207 Varius Av.";"Berlin";"Berlin";"French Polynesia";"Duis@magnisdis.edu"
"DEFCEFF1-6805-997B-0C45-70D6AF75543B";"EST TEMPOR BIBENDUM";"CORP.";"CO";"1-262-780-8638";"Ap #886-2720 Blandit Rd.";"Berlin";"Berlin";"South Sudan";"fermentum.metus.Aenean@eget.co.uk"
"5E88F207-9C6A-BC1B-5184-AA508A61038A";"AMET CONSECTETUER ADIPISCING";"ASSOCIATES";"";"1-842-325-2670";"5489 Tincidunt Avenue";"Levin";"North Island";"Burkina Faso";"sed.turpis.nec@eunibhvulputate.ca"
"ACBECB65-1E04-A9B2-F34B-B8E48CE8186B";"ET RUTRUM NON";"CORP.";"CO";"202-2531";"P.O. Box 497, 5904 Diam St.";"Shawville";"Quebec";"American Samoa";"dui.nec@enimconsequat.co.uk"
"70AF5D28-A381-C0B4-8F89-DAA6157934EA";"EROS NAM CONSEQUAT";"PC";"";"210-3903";"886-5858 Duis St.";"Christchurch";"South Island";"Aruba";"Quisque.imperdiet@montesnascetur.net"
"3522073C-8E72-8536-8E89-353230A1195A";"MAECENAS MALESUADA FRINGILLA";"PC";"";"651-6176";"P.O. Box 531, 4647 Malesuada. St.";"Salvador";"BA";"Norfolk Island";"lacinia.vitae@cursuspurus.ca"
"2D827ED0-5BCD-09DD-3134-914F74DF8A43";"LUCTUS";"COMPANY";"CO";"1-969-594-7456";"P.O. Box 929, 8523 Tincidunt Rd.";"Galway";"Connacht";"Ethiopia";"nec.imperdiet@antebibendumullamcorper.net"
"08A109A6-81A7-BD13-64AC-D045377D36AB";"TEMPUS";"COMPANY";"CO";"1-804-283-4102";"533-5442 In Street";"Pukekohe";"North Island";"United States";"urna@Maecenasornareegestas.com"
"76EF7D19-A909-1369-BA18-1412A0145B7A";"ANTE IPSUM PRIMIS";"CONSULTING";"";"(699) 262-6825";"P.O. Box 559, 6894 At Avenue";"Cambridge";"North Island";"Tunisia";"nisi.magna.sed@feugiatnec.co.uk"
"91FFCC54-699A-5F53-24F5-34350B38EB31";"DIGNISSIM MAGNA A";"CORPORATION";"CO";"1-644-992-9517";"P.O. Box 286, 1997 Nec Road";"Brest";"BR";"Saint Lucia";"bibendum@malesuadaiderat.com"
"9F606C28-98F8-0DF8-F35E-65ED7F1D4D23";"NONUMMY UT";"LTD";"LLC";"1-885-915-1604";"Ap #446-1427 Ligula. Street";"Ziano di Fiemme";"TAA";"Suriname";"urna@mollisIntegertincidunt.net"
"22E5C2D8-8D2D-5F55-0F9F-27F981B78E5C";"DUI";"LTD";"LLC";"1349283";"554-5020 Mollis Street";"Kapuskasing";"Ontario";"Kuwait";"Nunc@arcu.com"
"C13994EF-5AF9-7CBB-562B-185990DD8867";"MAURIS SAPIEN";"CORP.";"CO";"1840900";"8474 Mauris Av.";"Galashiels";"Selkirkshire";"Honduras";"aliquet@atpretium.ca"
"01135C49-9DE0-4BF3-63ED-4BB54AE27705";"CONGUE A";"LTD";"LLC";"567-4675";"3630 Senectus St.";"Beauport";"Quebec";"South Africa";"mauris.ut.mi@diameu.ca"
"0159E47A-6DA8-1119-8416-35BB847AC513";"NUNC MAURIS MORBI";"FOUNDATION";"";"332-7339";"Ap #660-1677 Ut, Avenue";"Gosnells";"WA";"Cameroon";"eros.Proin@atrisusNunc.co.uk"
"0064A913-E459-EBB6-6287-58890423C456";"ULTRICES";"LIMITED";"LLC";"515-8014";"Ap #298-5578 Sit Av.";"Istanbul";"Ist";"South Africa";"nunc.interdum.feugiat@doloregestasrhoncus.net"
"7700B8B9-B3A2-0719-C571-99EBCBDE1823";"ORCI UT";"CONSULTING";"";"992-4947";"6541 Amet, St.";"Bergama";"?zmir";"Mali";"non@velitQuisque.org"
"F880545D-D5D2-6F32-DB26-CC854D03CC4C";"AT ARCU";"CORP.";"CO";"1-523-409-3863";"9880 Donec Street";"Diyarbak?r";"Diyarbak?r";"Greenland";"eu.dolor@nasceturridiculusmus.co.uk"
"B30972FC-FADF-FD1F-A53D-539F2A2B4E80";"SUSPENDISSE ELEIFEND CRAS";"ASSOCIATES";"";"1724712";"P.O. Box 430, 6986 Sed St.";"Aubervilliers";"IL";"Swaziland";"ac.urna.Ut@quam.net"
"6ABE6EC7-97C8-E67B-6F35-E45725524A41";"CURSUS IN";"LTD";"LLC";"1-986-960-8631";"113 Sed St.";"Veldwezelt";"L.";"Micronesia";"taciti@dictumPhasellusin.ca"
"622A22C4-AB84-903A-16CF-F6591274EBED";"EU";"CORP.";"CO";"360-4476";"809-531 Fusce Street";"Warszawa";"MA";"Liberia";"magnis.dis.parturient@rhoncusDonecest.edu"
"E945814B-9BB2-2DA4-A935-B32FFE786BAC";"ORNARE PLACERAT";"CONSULTING";"";"248-7934";"Ap #609-3591 Neque. Rd.";"San Isidro de El General";"SJ";"Korea, South";"ac.risus.Morbi@pretium.org"
"533EA0A7-CB87-A02C-73EE-B401FE42C075";"MOLESTIE";"LIMITED";"LLC";"1117954";"Ap #464-2061 Luctus Street";"Berlin";"Berlin";"Germany";"tellus.Aenean@orciluctuset.com"
"D605EFA3-8AB4-0852-8178-99EA8314F924";"CONSECTETUER RHONCUS";"INC.";"INC";"1-555-560-6558";"751-2672 Dolor. Road";"Montleban";"Luxemburg";"Suriname";"accumsan.interdum.libero@quispedeSuspendisse.edu"
"4069383D-5706-C344-BDDD-84A1715672A0";"UT";"FOUNDATION";"";"976-4169";"6038 Ac Rd.";"Parauapebas";"Pará";"Mongolia";"Sed.eget@euismod.ca"
"D712719C-D412-F487-424F-705FEF02D30D";"AENEAN EGET MAGNA";"LLP";"LLC";"450-8833";"Ap #216-4132 Erat St.";"Saint-Maur-des-Fossés";"IL";"Russian Federation";"mauris@variusultricesmauris.net"
"9856686F-D337-5CAA-116B-96358B94C1E2";"LAOREET";"CORPORATION";"CO";"1-440-261-1643";"889-3473 Vehicula Road";"Osasco";"SP";"Macao";"blandit@Donec.com"
"196942F0-1DAD-FD7E-C8FE-A8EDC67CCED0";"CRAS VEHICULA ALIQUET";"CORP.";"CO";"1143253";"484-4604 Urna. Rd.";"Fraser Lake";"British Columbia";"Kazakhstan";"tincidunt.adipiscing.Mauris@duisemper.ca"
"7472DE93-014C-0342-B3A0-7BF34953411F";"VITAE ERAT VEL";"LLP";"LLC";"223-0336";"9415 Interdum Ave";"Dublin";"L";"Belgium";"nibh.Aliquam.ornare@nislsemconsequat.com"
"4131AE08-B4FB-D889-6B20-A13CC1895507";"DOLOR DAPIBUS";"CORPORATION";"CO";"1179546";"Ap #993-3393 Orci Av.";"Hamoir";"Luik";"Antarctica";"ac.nulla.In@felis.edu"
"A297476A-C67C-D3F5-569F-72DBA97D08A7";"ALIQUAM EROS TURPIS";"LIMITED";"LLC";"1-142-777-3838";"497-464 Aliquet St.";"São Gonçalo";"RJ";"Tonga";"scelerisque@duiinsodales.co.uk"
"EE346E0D-E3EF-20B6-C298-E005AD642895";"BLANDIT";"CORP.";"CO";"1-588-443-3944";"Ap #419-5932 Integer Avenue";"A Coruña";"GA";"Andorra";"turpis@pretiumnequeMorbi.com"
"F0727E91-BE74-6483-7E39-DF90D40983D7";"PER";"LLP";"LLC";"427-6108";"Ap #608-1198 Mus. Av.";"Belfast";"U";"Mali";"est.Mauris@egestasAliquamfringilla.net"
"5E4CDE9A-E9D4-C816-BD8E-D35272F46CF8";"ULTRICES SIT AMET";"INC.";"INC";"390-4125";"552-5926 Torquent Av.";"Vienna";"Vienna";"Zimbabwe";"laoreet@rhoncusidmollis.edu"
"92B49EE3-38D3-9B18-4627-2AC9E42E9899";"QUIS";"FOUNDATION";"";"1-530-708-1505";"P.O. Box 707, 4900 Dui. Road";"Gold Coast";"QLD";"Guatemala";"sapien.cursus.in@facilisisvitae.net"
"113F25ED-EBB4-D220-F6D0-2CAA928C5A53";"EU DOLOR";"FOUNDATION";"";"1993935";"719-1046 Sit Street";"Latour";"Luxemburg";"Argentina";"at@turpisegestasFusce.com"
"9A841F48-37F7-BB07-0B8E-57BC771E6C20";"MAECENAS";"INCORPORATED";"INC";"1-160-637-7825";"801 Sem Av.";"Hastings";"North Island";"Norway";"parturient.montes@Aeneaneuismod.net"
"93E624E7-8EEC-E6CB-5221-159DABC20A40";"ELIT ELIT";"PC";"";"1-163-559-0458";"P.O. Box 578, 6543 Nibh. Street";"Velletri";"LAZ";"Niue";"metus.eu@lorem.co.uk"
"28744A1B-B5CE-7A5A-50E3-56E8AF784AFA";"DIAM DUIS";"INCORPORATED";"INC";"440-4341";"918-9186 Et Av.";"Konin";"Wielkopolskie";"Andorra";"Aliquam.nec@risusNullaeget.org"
"928E1D3B-F7BC-E518-806E-52CC62CCD169";"QUIS";"LLC";"LLC";"1-647-266-4434";"967-9205 Sed St.";"Sunshine Coast Regional District";"British Columbia";"Albania";"sit@Morbineque.ca"
"C1D36AF7-DE7C-8981-8B67-F68801BAC30F";"MOLESTIE";"FOUNDATION";"";"928-6034";"867-8159 Dolor Ave";"Lincoln";"NE";"Saudi Arabia";"adipiscing@purusNullam.org"
"5DA44AF0-8C65-6608-2C6F-0EB1615C9D4A";"NASCETUR RIDICULUS";"PC";"";"806-5801";"P.O. Box 402, 6578 Quisque Av.";"Hoorn";"N.";"Botswana";"enim.nisl.elementum@urnaUttincidunt.org"
"F0FAD7E9-3D70-367B-BEC3-46C23C1F617F";"DICTUM ULTRICIES LIGULA";"INSTITUTE";"INC";"(431) 110-1405";"372-5106 Donec Street";"Polatl?";"Ank";"Papua New Guinea";"Cum.sociis@Aliquamgravidamauris.ca"
"61EF1EF3-BDAC-ED20-3785-DF20F66EC249";"SEMPER AUCTOR";"LIMITED";"LLC";"587-7425";"696-8736 Eget Rd.";"Idar-Oberstei";"RP";"Chad";"pharetra@erosnonenim.com"
"27887574-8CFD-E53E-8AD1-E36967A076DF";"VOLUTPAT NULLA FACILISIS";"INSTITUTE";"INC";"1-377-580-0458";"Ap #303-8011 Natoque Avenue";"Atlanta";"Georgia";"Singapore";"ac@sitamet.ca"
"65B8ED88-CE34-031A-AD9D-C193647C1D6C";"PRETIUM ET RUTRUM";"LLP";"LLC";"1-288-338-0675";"P.O. Box 477, 2758 Aenean Rd.";"Newark";"DE";"El Salvador";"blandit.Nam@Nulla.ca"
"B588BC10-FFE3-77F5-46D2-C008C78C379E";"VESTIBULUM";"ASSOCIATES";"";"533-3227";"P.O. Box 184, 9198 Tempus Av.";"Wokingham";"Berkshire";"Kenya";"mus.Aenean@molestie.org"
"74B3D548-0191-407E-0C48-70C1389A9E99";"NUNC";"LLC";"LLC";"(890) 609-6430";"Ap #951-8781 Ut Ave";"Vienna";"Vienna";"Saint Martin";"nec.metus@lectuspedeultrices.com"
"90212025-51EB-EB9E-9FAD-98A62E49F29C";"CRAS VEHICULA";"CONSULTING";"";"367-5537";"3374 Id St.";"Warszawa";"Mazowieckie";"Iceland";"Vestibulum.accumsan@sollicitudinadipiscingligula.edu"
"88289A99-8FF7-8158-BC20-D63B1F498368";"SIT AMET CONSECTETUER";"COMPANY";"CO";"1204503";"9386 Diam Rd.";"Algeciras";"Andalucía";"French Guiana";"auctor.velit@aliquam.com"
"E4C0EDF7-E8FD-7A80-09F7-F4760170F9F4";"LIGULA TORTOR";"INSTITUTE";"INC";"962-3739";"9592 Turpis. Av.";"Knittelfeld";"Stm";"India";"vel@placerat.org"
"8F3C3C77-6615-1131-4BDB-517641E16C70";"EU TELLUS";"INSTITUTE";"INC";"1-661-792-7877";"6116 Blandit. St.";"Selkirk";"Selkirkshire";"Slovakia";"torquent@turpisegestasFusce.org"
"5CD0C123-CBDF-EDC0-ECD2-94DFB2B43D7D";"ODIO AUCTOR VITAE";"INSTITUTE";"INC";"1-628-265-0530";"854-7203 A, Street";"Davangere";"Karnataka";"Luxembourg";"sociis.natoque.penatibus@nasceturridiculus.edu"
"27D76D69-05A0-36BF-4C5E-357EB21C9994";"AC MI";"LLP";"LLC";"1-612-803-5271";"Ap #349-2743 Eget Road";"Galway";"Connacht";"Oman";"tincidunt.nunc.ac@urnaconvallis.net"
"7CE9D58C-DB06-C206-661A-5E1B2C06650A";"CRAS";"COMPANY";"CO";"273-0452";"165-3012 Orci, St.";"Muzaffarpur";"Bihar";"Sudan";"tincidunt@Phasellusdolor.co.uk"
"A824E103-DCEC-ECE6-4413-DA0049056CB5";"RISUS NULLA EGET";"INDUSTRIES";"INC";"580-6261";"Ap #939-9624 Vulputate, Avenue";"Lewiston";"ME";"Korea, South";"mus.Proin@mi.ca"
"E93DEA79-5504-8FDA-694C-85F428D247DB";"QUAM";"INDUSTRIES";"INC";"1-522-441-4704";"2790 Lorem Av.";"Mont-Saint-Guibert";"WB";"Lebanon";"mollis@Intinciduntcongue.co.uk"
"B3B5F8B5-2EF6-D4BD-3A7A-6906859D71A6";"CUM";"INCORPORATED";"INC";"1173739";"865-1676 Scelerisque Street";"Kano";"KN";"Fiji";"et.eros.Proin@amet.edu"
"EF4BE30C-B7DA-53F4-620A-C7A987063BCF";"NIBH DOLOR";"INDUSTRIES";"INC";"440-6248";"540-8071 Ornare. Road";"Rothesay";"NB";"Bahamas";"varius.ultrices@orciluctus.ca"
